{
  "type": "FeatureCollection",
  "features": [
    {
      "type": "Feature",
      "geometry": {
        "type": "Polygon",
        "coordinates": [
          [
            [
              -89.42117070733657,
              43.075359
            ],
            [
              -89.42116999758179,
              43.07540229504232
            ],
            [
              -89.42116988409802,
              43.07540403937195
            ],
            [
              -89.42116960195372,
              43.075405764468776
            ],
            [
              -89.42116915380973,
              43.07540745406381
            ],
            [
              -89.42116854389236,
              43.07540909222291
            ],
            [
              -89.4211677779536,
              43.075410663496996
            ],
            [
              -89.42116686321684,
              43.075412153067774
            ],
            [
              -89.42116580830873,
              43.07541354688746
            ],
            [
              -89.42116462317786,
              43.07541483181129
            ],
            [
              -89.4211633190009,
              43.07541599572145
            ],
            [
              -89.42116190807721,
              43.0754170276414
            ],
            [
              -89.42116040371288,
              43.07541791783936
            ],
            [
              -89.4211588200952,
              43.07541865792008
            ],
            [
              -89.42115717215887,
              43.075419240904054
            ],
            [
              -89.42115547544519,
              43.07541966129329
            ],
            [
              -89.42115374595544,
              43.075419915123206
            ],
            [
              -89.421152,
              43.075419999999994
            ],
            [
              -89.421118,
              43.075419999999994
            ],
            [
              -89.42111790270413,
              43.075419999737036
            ],
            [
              -89.42074790270412,
              43.07541799973704
            ],
            [
              -89.42074787755385,
              43.07541799958352
            ],
            [
              -89.42045393877605,
              43.075416
            ],
            [
              -89.420375,
              43.075416
            ],
            [
              -89.42037489024595,
              43.07541599966539
            ],
            [
              -89.42021089024594,
              43.07541499966539
            ],
            [
              -89.42020911527645,
              43.07541490105632
            ],
            [
              -89.42020735869022,
              43.07541462784341
            ],
            [
              -89.42020563762071,
              43.07541418269154
            ],
            [
              -89.42020396885493,
              43.07541356994264
            ],
            [
              -89.42020236866973,
              43.075412795573364
            ],
            [
              -89.42020085267305,
              43.07541186713677
            ],
            [
              -89.42019943565165,
              43.075410793688675
            ],
            [
              -89.42019813142691,
              43.07540958569931
            ],
            [
              -89.42019695272005,
              43.075408254951185
            ],
            [
              -89.42019591102795,
              43.0754068144242
            ],
            [
              -89.42019501651107,
              43.075405278169
            ],
            [
              -89.42019427789442,
              43.075403661169965
            ],
            [
              -89.42019370238232,
              43.075401979199015
            ],
            [
              -89.42019329558822,
              43.075400248661815
            ],
            [
              -89.4201930614799,
              43.07539848643772
            ],
            [
              -89.42019300234085,
              43.07539670971517
            ],
            [
              -89.42019371164272,
              43.07535273299983
            ],
            [
              -89.42014382138547,
              43.07535199931957
            ],
            [
              -89.4197728510939,
              43.07535009201731
            ],
            [
              -89.41977199938532,
              43.07545314875525
            ],
            [
              -89.41977189867549,
              43.07545490720093
            ],
            [
              -89.41977162658732,
              43.075456647385316
            ],
            [
              -89.41977118572599,
              43.07545835264628
            ],
            [
              -89.41977058031273,
              43.075460006656094
            ],
            [
              -89.41976981614432,
              43.07546159357775
            ],
            [
              -89.41976890053763,
              43.07546309821659
            ],
            [
              -89.41976784225949,
              43.07546450616583
            ],
            [
              -89.41976665144284,
              43.07546580394447
            ],
            [
              -89.41976533948967,
              43.075466979126375
            ],
            [
              -89.41976391896179,
              43.07546802045928
            ],
            [
              -89.41976240346067,
              43.075468917972515
            ],
            [
              -89.41976080749708,
              43.075469663072454
            ],
            [
              -89.41975914635226,
              43.075470248624825
            ],
            [
              -89.41975743593154,
              43.07547066902302
            ],
            [
              -89.41975569261206,
              43.075470920241756
            ],
            [
              -89.41975393308596,
              43.07547099987563
            ],
            [
              -89.41948493308595,
              43.07546999987562
            ],
            [
              -89.41948316402326,
              43.07546990612156
            ],
            [
              -89.41948141274445,
              43.075469638922804
            ],
            [
              -89.419479696213,
              43.07546920086752
            ],
            [
              -89.41947803105582,
              43.075468596198874
            ],
            [
              -89.41947643340215,
              43.075467830773874
            ],
            [
              -89.41947491872745,
              43.075466912006696
            ],
            [
              -89.41947350170331,
              43.07546584879682
            ],
            [
              -89.41947219605554,
              43.07546465144285
            ],
            [
              -89.41947101443105,
              43.075463331542764
            ],
            [
              -89.4194699682755,
              43.07546190188155
            ],
            [
              -89.41946906772225,
              43.075460376307404
            ],
            [
              -89.41946832149439,
              43.075458769597525
            ],
            [
              -89.41946773682012,
              43.07545709731506
            ],
            [
              -89.41946731936281,
              43.075455375658294
            ],
            [
              -89.41946707316609,
              43.075453621303765
            ],
            [
              -89.41946700061467,
              43.07545185124474
            ],
            [
              -89.41946785062497,
              43.075348999999996
            ],
            [
              -89.419453,
              43.075348999999996
            ],
            [
              -89.41945289772893,
              43.075348999709455
            ],
            [
              -89.41927689772892,
              43.07534799970946
            ],
            [
              -89.4192751159789,
              43.07534790113026
            ],
            [
              -89.41927335274549,
              43.07534762661439
            ],
            [
              -89.4192716253582,
              43.07534717885985
            ],
            [
              -89.4192699507942,
              43.075346562267285
            ],
            [
              -89.4192683455115,
              43.075345782896726
            ],
            [
              -89.41926682528724,
              43.07534484840801
            ],
            [
              -89.41926540506252,
              43.07534376798551
            ],
            [
              -89.41926409879568,
              43.075342552247896
            ],
            [
              -89.41926291932502,
              43.07534121314374
            ],
            [
              -89.41926187824268,
              43.07533976383406
            ],
            [
              -89.41926098578064,
              43.07533821856304
            ],
            [
              -89.41926025071025,
              43.075336592517985
            ],
            [
              -89.41925968025598,
              43.07533490168005
            ],
            [
              -89.41925928002438,
              43.075333162667214
            ],
            [
              -89.419259053949,
              43.07533139257091
            ],
            [
              -89.4192590042518,
              43.07532960878808
            ],
            [
              -89.41926000159039,
              43.07528373121355
            ],
            [
              -89.41926200059486,
              43.075037853663375
            ],
            [
              -89.41926210098005,
              43.075036096034445
            ],
            [
              -89.41926237258465,
              43.07503435661857
            ],
            [
              -89.41926281281053,
              43.07503265205476
            ],
            [
              -89.41926341744656,
              43.0750309986486
            ],
            [
              -89.41926418070886,
              43.07502941221635
            ],
            [
              -89.4192650952962,
              43.07502790793358
            ],
            [
              -89.41926615245974,
              43.07502650019005
            ],
            [
              -89.41926734208684,
              43.07502520245201
            ],
            [
              -89.41926865279768,
              43.07502402713345
            ],
            [
              -89.4192700720542,
              43.07502298547729
            ],
            [
              -89.41927158628,
              43.07502208744785
            ],
            [
              -89.41927318099022,
              43.07502134163556
            ],
            [
              -89.41927484093009,
              43.075020755174755
            ],
            [
              -89.41927655022086,
              43.075020333675425
            ],
            [
              -89.41927829251172,
              43.075020081169576
            ],
            [
              -89.41928005113616,
              43.075020000072634
            ],
            [
              -89.41961416116622,
              43.07502094924885
            ],
            [
              -89.41961600072388,
              43.07481583857151
            ],
            [
              -89.41961610263708,
              43.07481408052083
            ],
            [
              -89.41961637585281,
              43.07481234084222
            ],
            [
              -89.41961681775602,
              43.07481063618682
            ],
            [
              -89.41961742411709,
              43.074808982870536
            ],
            [
              -89.41961818913232,
              43.074807396717894
            ],
            [
              -89.41961910547943,
              43.07480589291057
            ],
            [
              -89.41962016438771,
              43.07480448584208
            ],
            [
              -89.41962135572196,
              43.07480318898002
            ],
            [
              -89.41962266807946,
              43.07480201473716
            ],
            [
              -89.41962408889911,
              43.07480097435262
            ],
            [
              -89.41962560458173,
              43.074800077784325
            ],
            [
              -89.41962720062011,
              43.074799333613676
            ],
            [
              -89.41962886173798,
              43.07479874896341
            ],
            [
              -89.41963057203613,
              43.07479832942945
            ],
            [
              -89.41963231514463,
              43.0747980790273
            ],
            [
              -89.41963407437953,
              43.07479800015368
            ],
            [
              -89.4198604571022,
              43.07479893561948
            ],
            [
              -89.41986109076174,
              43.074797580015556
            ],
            [
              -89.41986200116233,
              43.07479604837357
            ],
            [
              -89.41986305853099,
              43.0747946142439
            ],
            [
              -89.41986425250697,
              43.07479329167905
            ],
            [
              -89.41986557139091,
              43.07479209363835
            ],
            [
              -89.4198670022596,
              43.07479103186095
            ],
            [
              -89.41986853109243,
              43.07479011675082
            ],
            [
              -89.41987014290896,
              43.07478935727479
            ],
            [
              -89.4198718219156,
              43.074788760874675
            ],
            [
              -89.41987355166039,
              43.07478833339439
            ],
            [
              -89.41987531519418,
              43.074788079022646
            ],
            [
              -89.41987709523676,
              43.07478800025195
            ],
            [
              -89.42044409523676,
              43.07479100025195
            ],
            [
              -89.4204458531414,
              43.07479109564671
            ],
            [
              -89.42044759331921,
              43.07479136231146
            ],
            [
              -89.42044929912394,
              43.07479179769535
            ],
            [
              -89.42045095423815,
              43.07479239763355
            ],
            [
              -89.42045254282931,
              43.07479315638717
            ],
            [
              -89.4204540497012,
              43.0747940666981
            ],
            [
              -89.42045546043937,
              43.07479511985845
            ],
            [
              -89.42045676154892,
              43.074796305793875
            ],
            [
              -89.42045794058367,
              43.074797613159916
            ],
            [
              -89.42045898626516,
              43.07479902945054
            ],
            [
              -89.42045988859059,
              43.07480054111774
            ],
            [
              -89.42046013562398,
              43.074801065443246
            ],
            [
              -89.42069007317012,
              43.07480200014872
            ],
            [
              -89.42069184250991,
              43.07480209454951
            ],
            [
              -89.42069359399626,
              43.07480236244941
            ],
            [
              -89.42069531065772,
              43.07480280125254
            ],
            [
              -89.42069697586032,
              43.074803406707
            ],
            [
              -89.42069857346866,
              43.07480417294611
            ],
            [
              -89.42070008800235,
              43.074805092545205
            ],
            [
              -89.42070150478594,
              43.07480615659362
            ],
            [
              -89.42070281009119,
              43.074807354781
            ],
            [
              -89.42070399127002,
              43.07480867549723
            ],
            [
              -89.42070503687712,
              43.074810105944906
            ],
            [
              -89.42070593678085,
              43.07481163226338
            ],
            [
              -89.42070668226135,
              43.07481323966302
            ],
            [
              -89.42070726609512,
              43.07481491256855
            ],
            [
              -89.420707682625,
              43.074816634769945
            ],
            [
              -89.42070792781486,
              43.07481838957954
            ],
            [
              -89.42070799928892,
              43.074820159993685
            ],
            [
              -89.42070615987686,
              43.07502709385102
            ],
            [
              -89.421267093263,
              43.07503000024162
            ],
            [
              -89.4212688627577,
              43.075030096644625
            ],
            [
              -89.42127061419744,
              43.07503036657785
            ],
            [
              -89.42127233060616,
              43.07503080742492
            ],
            [
              -89.4212739953474,
              43.075031414912885
            ],
            [
              -89.4212755922855,
              43.07503218315361
            ],
            [
              -89.42127710594194,
              43.07503310470082
            ],
            [
              -89.42127852164543,
              43.07503417062234
            ],
            [
              -89.42127982567413,
              43.07503537058659
            ],
            [
              -89.4212810053886,
              43.0750366929628
            ],
            [
              -89.42128204935432,
              43.07503812493369
            ],
            [
              -89.42128294745254,
              43.075039652619736
            ],
            [
              -89.42128369097836,
              43.07504126121366
            ],
            [
              -89.42128427272506,
              43.075042935124
            ],
            [
              -89.42128468705401,
              43.0750446581262
            ],
            [
              -89.42128492994927,
              43.07504641351988
            ],
            [
              -89.42128499905655,
              43.07504818429069
            ],
            [
              -89.42128199905655,
              43.075341184290686
            ],
            [
              -89.42128189556516,
              43.075342936168184
            ],
            [
              -89.42128162196731,
              43.07534466964142
            ],
            [
              -89.42128118086366,
              43.075346368232836
            ],
            [
              -89.42128057644715,
              43.075348015796465
            ],
            [
              -89.42127981446303,
              43.07534959667137
            ],
            [
              -89.4212789021544,
              43.075351095830534
            ],
            [
              -89.42127784819318,
              43.07535249902367
            ],
            [
              -89.42127666259782,
              43.075353792912736
            ],
            [
              -89.42127535663802,
              43.07535496519863
            ],
            [
              -89.42127394272758,
              43.0753560047382
            ],
            [
              -89.42127243430645,
              43.07535690165007
            ],
            [
              -89.42127084571291,
              43.075357647408644
            ],
            [
              -89.4212691920474,
              43.07535823492512
            ],
            [
              -89.42126748902882,
              43.07535865861483
            ],
            [
              -89.42126575284526,
              43.07535891445041
            ],
            [
              -89.421264,
              43.075359
            ],
            [
              -89.42117070733657,
              43.075359
            ]
          ]
        ]
      },
      "properties": {
        "building": "university",
        "name": "Veterinary Medicine South",
        "@id": "way/38019751",
        "addr:street": "Linden Drive",
        "addr:housenumber": "2015",
        "person_counts": [
          11,
          11,
          11,
          11,
          11,
          11,
          11,
          11,
          11,
          11,
          11,
          11,
          11,
          11,
          11,
          11,
          11,
          11,
          11,
          11,
          11,
          11,
          11,
          11,
          11,
          11,
          11,
          11,
          11,
          11,
          11,
          11,
          11,
          11,
          11,
          11,
          11,
          11,
          11,
          11,
          11,
          11,
          11,
          11,
          11,
          11,
          11,
          11,
          11,
          10,
          10,
          10,
          10,
          10,
          10,
          10,
          10,
          10,
          10,
          10,
          10,
          10,
          10,
          10,
          10,
          10,
          10,
          10,
          10,
          10,
          10,
          10,
          10,
          10,
          10,
          10,
          10,
          10,
          10,
          10,
          10,
          10,
          10,
          10,
          10,
          10,
          10,
          10,
          10,
          10,
          10,
          10,
          10,
          10,
          10,
          10,
          10,
          10,
          10,
          10,
          10,
          10,
          10,
          10,
          10,
          10,
          10,
          10
        ],
        "instructor_counts": [
          8,
          8,
          8,
          8,
          8,
          8,
          8,
          8,
          8,
          8,
          8,
          8,
          8,
          8,
          8,
          8,
          8,
          8,
          8,
          8,
          8,
          8,
          8,
          8,
          8,
          8,
          8,
          8,
          8,
          8,
          8,
          8,
          8,
          8,
          8,
          8,
          8,
          8,
          8,
          8,
          8,
          8,
          8,
          8,
          8,
          8,
          8,
          8,
          8,
          6,
          6,
          6,
          6,
          6,
          6,
          6,
          6,
          6,
          6,
          6,
          8,
          8,
          8,
          8,
          8,
          8,
          8,
          8,
          8,
          8,
          8,
          8,
          8,
          8,
          8,
          8,
          8,
          8,
          8,
          8,
          8,
          8,
          8,
          8,
          8,
          8,
          8,
          8,
          8,
          8,
          8,
          8,
          8,
          8,
          8,
          8,
          8,
          8,
          8,
          8,
          8,
          8,
          8,
          8,
          8,
          8,
          8,
          8
        ]
      }
    },
    {
      "type": "Feature",
      "geometry": {
        "type": "Polygon",
        "coordinates": [
          [
            [
              -89.415538,
              43.076273
            ],
            [
              -89.415523,
              43.076273
            ],
            [
              -89.41552264712664,
              43.076272996540794
            ],
            [
              -89.41548999999999,
              43.076272356401056
            ],
            [
              -89.41548999999999,
              43.076293
            ],
            [
              -89.41548991245809,
              43.076294773089174
            ],
            [
              -89.41548965068385,
              43.07629652893173
            ],
            [
              -89.41548921722357,
              43.07629825044879
            ],
            [
              -89.41548861629343,
              43.076299920895366
            ],
            [
              -89.41548785373861,
              43.07630152402323
            ],
            [
              -89.4154869369764,
              43.076303044238955
            ],
            [
              -89.41548587492402,
              43.07630446675558
            ],
            [
              -89.41548467791192,
              43.076305777736465
            ],
            [
              -89.41548335758333,
              43.07630696442985
            ],
            [
              -89.41548192678088,
              43.07630801529291
            ],
            [
              -89.41548039942184,
              43.07630892010404
            ],
            [
              -89.41547879036264,
              43.07630967006224
            ],
            [
              -89.4154771152544,
              43.07631025787276
            ],
            [
              -89.41547539039071,
              43.07631067781804
            ],
            [
              -89.4154736325491,
              43.076310925813324
            ],
            [
              -89.41547185882787,
              43.07631099944639
            ],
            [
              -89.41521685882788,
              43.07630899944639
            ],
            [
              -89.41521507971254,
              43.07630889727622
            ],
            [
              -89.41521331941894,
              43.07630861968567
            ],
            [
              -89.41521159520059,
              43.076308169395546
            ],
            [
              -89.41520992395745,
              43.07630755081937
            ],
            [
              -89.41520832207024,
              43.07630677002013
            ],
            [
              -89.41520680523986,
              43.076305834650846
            ],
            [
              -89.41520538833355,
              43.07630475387953
            ],
            [
              -89.41520408523914,
              43.076303538299406
            ],
            [
              -89.41520290872893,
              43.07630219982497
            ],
            [
              -89.41520187033447,
              43.07630075157532
            ],
            [
              -89.41520098023364,
              43.076299207745464
            ],
            [
              -89.41520024715074,
              43.0762975834673
            ],
            [
              -89.41519967827111,
              43.07629589466119
            ],
            [
              -89.41519927917062,
              43.07629415788
            ],
            [
              -89.41519905376107,
              43.07629239014681
            ],
            [
              -89.4151990042518,
              43.07629060878808
            ],
            [
              -89.41519960444285,
              43.076263
            ],
            [
              -89.415159,
              43.076263
            ],
            [
              -89.41515845479573,
              43.076262991741224
            ],
            [
              -89.41514346256523,
              43.07626253743121
            ],
            [
              -89.41514299221959,
              43.07627852918293
            ],
            [
              -89.41514285789165,
              43.07628025736697
            ],
            [
              -89.41514255795582,
              43.07628196461696
            ],
            [
              -89.41514209519356,
              43.07628363510047
            ],
            [
              -89.41514147389638,
              43.076285253326
            ],
            [
              -89.41514069982598,
              43.07628680428669
            ],
            [
              -89.41513978016083,
              43.07628827359947
            ],
            [
              -89.41513872342956,
              43.07628964763844
            ],
            [
              -89.41513753943195,
              43.07629091366123
            ],
            [
              -89.41513623914798,
              43.07629205992719
            ],
            [
              -89.41513483463605,
              43.07629307580625
            ],
            [
              -89.41513333892108,
              43.07629395187748
            ],
            [
              -89.41513176587385,
              43.076294680016524
            ],
            [
              -89.41513013008225,
              43.076295253470846
            ],
            [
              -89.41512844671603,
              43.07629566692245
            ],
            [
              -89.41512673138615,
              43.07629591653711
            ],
            [
              -89.415125,
              43.076296
            ],
            [
              -89.41509828025524,
              43.076296
            ],
            [
              -89.41509821700564,
              43.0762962511634
            ],
            [
              -89.4150976159104,
              43.07629792181492
            ],
            [
              -89.41509685314891,
              43.076299525119914
            ],
            [
              -89.41509593614255,
              43.076301045478864
            ],
            [
              -89.41509487381343,
              43.07630246809928
            ],
            [
              -89.41509367649758,
              43.07630377913961
            ],
            [
              -89.41509235584442,
              43.07630496584396
            ],
            [
              -89.41509092470338,
              43.07630601666617
            ],
            [
              -89.4150893969989,
              43.07630692138215
            ],
            [
              -89.41508778759493,
              43.076307671189376
            ],
            [
              -89.41508611215033,
              43.07630825879251
            ],
            [
              -89.41508438696656,
              43.07630867847441
            ],
            [
              -89.41508262882891,
              43.07630892615174
            ],
            [
              -89.41508085484342,
              43.0763089994147
            ],
            [
              -89.41495685484342,
              43.0763079994147
            ],
            [
              -89.41495510031271,
              43.07630789947452
            ],
            [
              -89.41495336388981,
              43.07630762891666
            ],
            [
              -89.41495166212628,
              43.07630719032007
            ],
            [
              -89.41495001124333,
              43.07630658786545
            ],
            [
              -89.41494842697719,
              43.0763058272954
            ],
            [
              -89.41494692442903,
              43.076304915859666
            ],
            [
              -89.41494551792115,
              43.07630386224604
            ],
            [
              -89.41494422086039,
              43.076302676497576
            ],
            [
              -89.4149430456103,
              43.07630136991681
            ],
            [
              -89.41494200337338,
              43.07629995495807
            ],
            [
              -89.4149411040842,
              43.07629844510872
            ],
            [
              -89.41494035631482,
              43.07629685476064
            ],
            [
              -89.41493976719293,
              43.07629519907304
            ],
            [
              -89.4149396742201,
              43.076294825910374
            ],
            [
              -89.4147588181911,
              43.0762929990818
            ],
            [
              -89.41475701534758,
              43.076292890253065
            ],
            [
              -89.41475523248587,
              43.07629260130215
            ],
            [
              -89.41475348755617,
              43.07629213513825
            ],
            [
              -89.4147517981267,
              43.0762914964548
            ],
            [
              -89.41475018120695,
              43.07629069168217
            ],
            [
              -89.41474865307634,
              43.07628972892294
            ],
            [
              -89.41474722912038,
              43.07628861787035
            ],
            [
              -89.41474592367567,
              43.07628736971066
            ],
            [
              -89.41474474988567,
              43.07628599701058
            ],
            [
              -89.41474371956832,
              43.07628451359067
            ],
            [
              -89.414742843097,
              43.07628293438628
            ],
            [
              -89.41474212929622,
              43.0762812752971
            ],
            [
              -89.41474158535262,
              43.07627955302714
            ],
            [
              -89.41474121674271,
              43.076277784916506
            ],
            [
              -89.41474102717774,
              43.076275988766845
            ],
            [
              -89.41474101856627,
              43.07627418266211
            ],
            [
              -89.41474116760074,
              43.07627090390379
            ],
            [
              -89.41473945855986,
              43.07627064817843
            ],
            [
              -89.41473773125105,
              43.07627021163224
            ],
            [
              -89.41473605555919,
              43.076269606466866
            ],
            [
              -89.41473444790073,
              43.07626883861099
            ],
            [
              -89.41473292402563,
              43.07626791558716
            ],
            [
              -89.41473149886298,
              43.076266846438074
            ],
            [
              -89.41473018637485,
              43.076265641637974
            ],
            [
              -89.41472899941947,
              43.07626431299008
            ],
            [
              -89.41472794962517,
              43.076262873510906
            ],
            [
              -89.41472704727664,
              43.07626133730276
            ],
            [
              -89.41472630121399,
              43.076259719415596
            ],
            [
              -89.41472571874628,
              43.07625803569955
            ],
            [
              -89.41472530557984,
              43.07625630264969
            ],
            [
              -89.41472506576235,
              43.076254537244374
            ],
            [
              -89.4147250016433,
              43.07625275677896
            ],
            [
              -89.4147260016433,
              43.076178756778965
            ],
            [
              -89.41472611046221,
              43.07617700891046
            ],
            [
              -89.41472638861805,
              43.076175279889014
            ],
            [
              -89.4147268334779,
              43.076173586081005
            ],
            [
              -89.41472744083084,
              43.07617194351951
            ],
            [
              -89.41472820492787,
              43.07617036775253
            ],
            [
              -89.41472911853626,
              43.076168873695785
            ],
            [
              -89.41473017300808,
              43.076167475491566
            ],
            [
              -89.41473135836202,
              43.076166186374856
            ],
            [
              -89.41473266337788,
              43.076165018548046
            ],
            [
              -89.41473407570277,
              43.07616398306541
            ],
            [
              -89.41473558196805,
              43.076163089728546
            ],
            [
              -89.41473716791586,
              43.07616234699348
            ],
            [
              -89.41473881853412,
              43.07616176189073
            ],
            [
              -89.41474051819856,
              43.0761613399587
            ],
            [
              -89.41474225082068,
              43.07616108519127
            ],
            [
              -89.41474323633916,
              43.07616103719301
            ],
            [
              -89.41474500157867,
              43.07602776161031
            ],
            [
              -89.41474511110371,
              43.076026003155086
            ],
            [
              -89.41474539201765,
              43.076024263831115
            ],
            [
              -89.41474584162914,
              43.07602256030242
            ],
            [
              -89.41474645563056,
              43.07602090889006
            ],
            [
              -89.41474722813932,
              43.0760193254158
            ],
            [
              -89.41474815175422,
              43.0760178250505
            ],
            [
              -89.41474921762634,
              43.07601642216876
            ],
            [
              -89.4147504155438,
              43.076015130211246
            ],
            [
              -89.41475173402972,
              43.07601396155586
            ],
            [
              -89.414753160452,
              43.07601292739919
            ],
            [
              -89.41475468114444,
              43.07601203764922
            ],
            [
              -89.4147562815377,
              43.07601130083043
            ],
            [
              -89.41475794629882,
              43.076010724002074
            ],
            [
              -89.41475965947814,
              43.076010312690606
            ],
            [
              -89.41476140466214,
              43.07601007083669
            ],
            [
              -89.41476316513067,
              43.076010000757464
            ],
            [
              -89.41496350852258,
              43.076011838770235
            ],
            [
              -89.41496378274627,
              43.076010749650116
            ],
            [
              -89.41496438365357,
              43.0760090792319
            ],
            [
              -89.41496514617978,
              43.076007476128545
            ],
            [
              -89.41496606290822,
              43.076005955932644
            ],
            [
              -89.4149671249223,
              43.076004533430385
            ],
            [
              -89.41496832189235,
              43.076003222457736
            ],
            [
              -89.41496964217603,
              43.076002035765875
            ],
            [
              -89.41497107293162,
              43.076000984897156
            ],
            [
              -89.41497260024285,
              43.07600008007287
            ],
            [
              -89.41497420925434,
              43.07599933009378
            ],
            [
              -89.41497588431602,
              43.07599874225457
            ],
            [
              -89.41497760913542,
              43.075998322272845
            ],
            [
              -89.41497936693607,
              43.07599807423357
            ],
            [
              -89.41498114062071,
              43.07599800054929
            ],
            [
              -89.41510914062071,
              43.07599900054929
            ],
            [
              -89.41511089545848,
              43.075999100077176
            ],
            [
              -89.41511263222293,
              43.075999370282005
            ],
            [
              -89.41511433435389,
              43.075999808587355
            ],
            [
              -89.41511598562143,
              43.07600041081397
            ],
            [
              -89.41511757028061,
              43.07600117121956
            ],
            [
              -89.4151190732216,
              43.076002082553615
            ],
            [
              -89.41512048011376,
              43.07600313612651
            ],
            [
              -89.41512177754227,
              43.07600432189235
            ],
            [
              -89.41512295313608,
              43.076005628544785
            ],
            [
              -89.4151239956858,
              43.0760070436248
            ],
            [
              -89.41512489525068,
              43.076008553639504
            ],
            [
              -89.4151256432533,
              43.07601014419082
            ],
            [
              -89.41512623256139,
              43.07601180011272
            ],
            [
              -89.41512661357683,
              43.07601332912793
            ],
            [
              -89.4151623395622,
              43.07601400320313
            ],
            [
              -89.41516408084154,
              43.07601412067958
            ],
            [
              -89.41516580255932,
              43.076014406235686
            ],
            [
              -89.41516748853005,
              43.07601485718699
            ],
            [
              -89.4151691229043,
              43.0760154692942
            ],
            [
              -89.41517069031765,
              43.07601623680302
            ],
            [
              -89.4151721760352,
              43.076017152498274
            ],
            [
              -89.41517356609002,
              43.076018207771696
            ],
            [
              -89.41517484741452,
              43.0760193927029
            ],
            [
              -89.41517600796323,
              43.0760206961526
            ],
            [
              -89.41517703682608,
              43.07602210586733
            ],
            [
              -89.41517792433096,
              43.07602360859468
            ],
            [
              -89.41517866213464,
              43.07602519020784
            ],
            [
              -89.41517924330115,
              43.07602683583838
            ],
            [
              -89.4151796623671,
              43.076028530016096
            ],
            [
              -89.41517991539293,
              43.07603025681439
            ],
            [
              -89.41517999999999,
              43.076032
            ],
            [
              -89.41517999999999,
              43.0760473185589
            ],
            [
              -89.41520046372528,
              43.076047683982566
            ],
            [
              -89.41520100591424,
              43.07602653861319
            ],
            [
              -89.41520113569328,
              43.07602479397511
            ],
            [
              -89.41520143422413,
              43.076023070175815
            ],
            [
              -89.41520189868675,
              43.07602138349887
            ],
            [
              -89.41520252469367,
              43.07601974987713
            ],
            [
              -89.41520330633146,
              43.07601818474231
            ],
            [
              -89.41520423621652,
              43.07601670287915
            ],
            [
              -89.41520530556488,
              43.07601531828579
            ],
            [
              -89.41520650427512,
              43.076014044041536
            ],
            [
              -89.41520782102386,
              43.07601289218329
            ],
            [
              -89.41520924337267,
              43.07601187359187
            ],
            [
              -89.41521075788562,
              43.076010997889185
            ],
            [
              -89.41521235025614,
              43.07601027334742
            ],
            [
              -89.41521400544221,
              43.07600970681081
            ],
            [
              -89.41521570780841,
              43.07600930363103
            ],
            [
              -89.4152174412737,
              43.07600906761666
            ],
            [
              -89.41521918946319,
              43.07600900099715
            ],
            [
              -89.41539134510421,
              43.076010813161794
            ],
            [
              -89.41539600330204,
              43.075767655235666
            ],
            [
              -89.4153961221574,
              43.075765906499555
            ],
            [
              -89.4153964105325,
              43.07576417761425
            ],
            [
              -89.4153968656929,
              43.07576248497324
            ],
            [
              -89.41539748332274,
              43.07576084462634
            ],
            [
              -89.41539825756557,
              43.07575927212749
            ],
            [
              -89.41539918107996,
              43.07575778238732
            ],
            [
              -89.41540024510901,
              43.075756389531705
            ],
            [
              -89.4154014395635,
              43.075755106767865
            ],
            [
              -89.41540275311745,
              43.075753946259105
            ],
            [
              -89.41540417331562,
              43.0757529190095
            ],
            [
              -89.41540568669153,
              43.07575203475956
            ],
            [
              -89.41540727889516,
              43.075751301893824
            ],
            [
              -89.41540893482906,
              43.075750727361424
            ],
            [
              -89.41541063879149,
              43.075750316610126
            ],
            [
              -89.41541237462528,
              43.07575007353473
            ],
            [
              -89.41541412587105,
              43.0757500004401
            ],
            [
              -89.41555712587106,
              43.07575100044011
            ],
            [
              -89.41555888170663,
              43.075751098626306
            ],
            [
              -89.41556061958119,
              43.07575136768217
            ],
            [
              -89.41556232290664,
              43.075751805039545
            ],
            [
              -89.41556397542463,
              43.07575240652383
            ],
            [
              -89.41556556136179,
              43.075753166393824
            ],
            [
              -89.41556706558023,
              43.075754077396525
            ],
            [
              -89.41556847372213,
              43.07575513083634
            ],
            [
              -89.41556977234667,
              43.07575631665815
            ],
            [
              -89.41557094905842,
              43.0757576235432
            ],
            [
              -89.41557199262559,
              43.0757590390172
            ],
            [
              -89.41557289308724,
              43.07576054956937
            ],
            [
              -89.41557364184847,
              43.07576214078139
            ],
            [
              -89.41557423176225,
              43.07576379746506
            ],
            [
              -89.41557465719787,
              43.07576550380723
            ],
            [
              -89.41557491409448,
              43.075767243520765
            ],
            [
              -89.415575,
              43.075769
            ],
            [
              -89.415575,
              43.075781132839516
            ],
            [
              -89.41569213332969,
              43.07578200049381
            ],
            [
              -89.41569390749284,
              43.07578210135561
            ],
            [
              -89.41569566306482,
              43.07578237666444
            ],
            [
              -89.41569738293519,
              43.07578282373705
            ],
            [
              -89.4156990503414,
              43.07578343821609
            ],
            [
              -89.41570064903229,
              43.075784214112616
            ],
            [
              -89.4157021634264,
              43.07578514386444
            ],
            [
              -89.41570357876387,
              43.07578621840984
            ],
            [
              -89.41570488125028,
              43.0757874272759
            ],
            [
              -89.41570605819109,
              43.07578875868053
            ],
            [
              -89.41570709811539,
              43.075790199647365
            ],
            [
              -89.41570799088768,
              43.07579173613219
            ],
            [
              -89.41570872780667,
              43.07579335315983
            ],
            [
              -89.41570930169004,
              43.07579503497012
            ],
            [
              -89.41570970694454,
              43.07579676517149
            ],
            [
              -89.41570993962037,
              43.07579852690073
            ],
            [
              -89.4157099974498,
              43.07580030298737
            ],
            [
              -89.4157053055809,
              43.076079
            ],
            [
              -89.41571,
              43.076079
            ],
            [
              -89.41571178296556,
              43.076079088522285
            ],
            [
              -89.4157135483942,
              43.07607935321846
            ],
            [
              -89.41571527892151,
              43.07607979148502
            ],
            [
              -89.41571695752636,
              43.07608039901126
            ],
            [
              -89.41571856769829,
              43.07608116982166
            ],
            [
              -89.41572009359999,
              43.076082096334694
            ],
            [
              -89.41572152022295,
              43.07608316943734
            ],
            [
              -89.41572283353518,
              43.07608437857476
            ],
            [
              -89.41572402061921,
              43.07608571185413
            ],
            [
              -89.4157250697991,
              43.07608715616155
            ],
            [
              -89.4157259707553,
              43.07608869729109
            ],
            [
              -89.4157267146262,
              43.0760903200845
            ],
            [
              -89.41572729409522,
              43.07609200858028
            ],
            [
              -89.4157277034628,
              43.07609374617072
            ],
            [
              -89.4157279387025,
              43.0760955157652
            ],
            [
              -89.41572799750053,
              43.07609729995834
            ],
            [
              -89.41572599750052,
              43.076217299958344
            ],
            [
              -89.41572588357519,
              43.07621904395161
            ],
            [
              -89.41572560105348,
              43.07622076867564
            ],
            [
              -89.41572515259885,
              43.07622245787069
            ],
            [
              -89.41572454243907,
              43.076224095611984
            ],
            [
              -89.41572377632639,
              43.07622566645979
            ],
            [
              -89.4157228614833,
              43.076227155605054
            ],
            [
              -89.41572180653442,
              43.076228549008924
            ],
            [
              -89.41572062142522,
              43.07622983353517
            ],
            [
              -89.41571931732827,
              43.076230997074006
            ],
            [
              -89.41571790653785,
              43.07623202865622
            ],
            [
              -89.41571640235411,
              43.07623291855664
            ],
            [
              -89.41571481895764,
              43.076233658385775
            ],
            [
              -89.41571317127585,
              43.076234241168926
            ],
            [
              -89.41571147484215,
              43.076234661411945
            ],
            [
              -89.41570974564958,
              43.076234915153016
            ],
            [
              -89.415708,
              43.076235
            ],
            [
              -89.41570672933872,
              43.076235
            ],
            [
              -89.41570599793424,
              43.07628327269597
            ],
            [
              -89.41570588550204,
              43.076285027021754
            ],
            [
              -89.41570560247857,
              43.076286762013886
            ],
            [
              -89.41570515156332,
              43.076288461124065
            ],
            [
              -89.41570453705708,
              43.076290108146246
            ],
            [
              -89.41570376482102,
              43.07629168737119
            ],
            [
              -89.41570284222068,
              43.07629318373632
            ],
            [
              -89.41570177805579,
              43.07629458296934
            ],
            [
              -89.41570058247632,
              43.07629587172443
            ],
            [
              -89.41569926688564,
              43.076297037709494
            ],
            [
              -89.41569784383184,
              43.07629806980341
            ],
            [
              -89.41569632688794,
              43.07629895816209
            ],
            [
              -89.41569473052247,
              43.07629969431242
            ],
            [
              -89.41569306996155,
              43.076300271233016
            ],
            [
              -89.41569136104351,
              43.07630068342123
            ],
            [
              -89.41568962006798,
              43.07630092694563
            ],
            [
              -89.41568786364029,
              43.07630099948349
            ],
            [
              -89.41555586364028,
              43.076299999483496
            ],
            [
              -89.41555410851416,
              43.07629990034305
            ],
            [
              -89.41555237142893,
              43.07629963046999
            ],
            [
              -89.41555066895285,
              43.07629919243835
            ],
            [
              -89.41554901732404,
              43.07629859042605
            ],
            [
              -89.41554743229565,
              43.07629783017506
            ],
            [
              -89.41554592898564,
              43.07629691893661
            ],
            [
              -89.41554452173246,
              43.07629586540206
            ],
            [
              -89.41554322395845,
              43.07629467961997
            ],
            [
              -89.41554204804173,
              43.07629337290027
            ],
            [
              -89.41554100519811,
              43.07629195770638
            ],
            [
              -89.41554010537419,
              43.076290447536365
            ],
            [
              -89.41553935715247,
              43.07628885679416
            ],
            [
              -89.41553876766942,
              43.076287200652175
            ],
            [
              -89.41553834254752,
              43.076285494906614
            ],
            [
              -89.41553808584156,
              43.0762837558268
            ],
            [
              -89.415538,
              43.076282
            ],
            [
              -89.415538,
              43.076273
            ]
          ]
        ]
      },
      "properties": {
        "building": "university",
        "name": "Animal Science Building",
        "@id": "way/37550805",
        "addr:street": "Observatory Drive",
        "addr:housenumber": "1675",
        "person_counts": [
          0,
          0,
          0,
          0,
          0,
          0,
          0,
          0,
          0,
          0,
          0,
          0,
          0,
          0,
          0,
          0,
          0,
          0,
          0,
          0,
          0,
          0,
          0,
          0,
          0,
          0,
          0,
          0,
          0,
          0,
          0,
          0,
          0,
          0,
          0,
          0,
          0,
          0,
          0,
          0,
          0,
          0,
          0,
          0,
          0,
          0,
          0,
          0,
          0,
          0,
          0,
          0,
          0,
          0,
          0,
          0,
          0,
          0,
          0,
          0,
          0,
          0,
          0,
          0,
          0,
          0,
          0,
          0,
          0,
          0,
          0,
          0,
          0,
          0,
          0,
          0,
          0,
          0,
          0,
          0,
          0,
          0,
          0,
          0,
          0,
          0,
          0,
          0,
          0,
          0,
          0,
          0,
          0,
          0,
          0,
          0,
          0,
          0,
          0,
          0,
          0,
          0,
          0,
          0,
          0,
          0,
          0,
          0
        ],
        "instructor_counts": [
          0,
          0,
          0,
          0,
          0,
          0,
          0,
          0,
          0,
          0,
          0,
          0,
          1,
          1,
          1,
          1,
          1,
          1,
          1,
          1,
          1,
          1,
          1,
          1,
          1,
          1,
          1,
          1,
          1,
          1,
          1,
          1,
          1,
          1,
          1,
          1,
          1,
          1,
          1,
          1,
          1,
          1,
          1,
          1,
          1,
          1,
          1,
          1,
          1,
          0,
          0,
          0,
          0,
          0,
          0,
          0,
          0,
          0,
          0,
          0,
          0,
          0,
          0,
          0,
          0,
          0,
          0,
          0,
          0,
          0,
          0,
          0,
          0,
          0,
          0,
          0,
          0,
          0,
          0,
          0,
          0,
          0,
          0,
          0,
          0,
          0,
          0,
          0,
          0,
          0,
          0,
          0,
          0,
          0,
          0,
          0,
          0,
          0,
          0,
          0,
          0,
          0,
          0,
          0,
          0,
          0,
          0,
          0
        ]
      }
    }
  ],
  "metadata": {
    "total_buildings": 2,
    "total_meetings": 42,
    "max_persons": 11,
    "total_chunks": 108,
    "chunk_duration_minutes": 5,
    "start_time": 1767276000000,
    "end_time": 1767308400000,
    "total_persons": [
      11,
      11,
      11,
      11,
      11,
      11,
      11,
      11,
      11,
      11,
      11,
      11,
      11,
      11,
      11,
      11,
      11,
      11,
      11,
      11,
      11,
      11,
      11,
      11,
      11,
      11,
      11,
      11,
      11,
      11,
      11,
      11,
      11,
      11,
      11,
      11,
      11,
      11,
      11,
      11,
      11,
      11,
      11,
      11,
      11,
      11,
      11,
      11,
      11,
      10,
      10,
      10,
      10,
      10,
      10,
      10,
      10,
      10,
      10,
      10,
      10,
      10,
      10,
      10,
      10,
      10,
      10,
      10,
      10,
      10,
      10,
      10,
      10,
      10,
      10,
      10,
      10,
      10,
      10,
      10,
      10,
      10,
      10,
      10,
      10,
      10,
      10,
      10,
      10,
      10,
      10,
      10,
      10,
      10,
      10,
      10,
      10,
      10,
      10,
      10,
      10,
      10,
      10,
      10,
      10,
      10,
      10,
      10
    ],
    "total_instructors": [
      8,
      8,
      8,
      8,
      8,
      8,
      8,
      8,
      8,
      8,
      8,
      8,
      9,
      9,
      9,
      9,
      9,
      9,
      9,
      9,
      9,
      9,
      9,
      9,
      9,
      9,
      9,
      9,
      9,
      9,
      9,
      9,
      9,
      9,
      9,
      9,
      9,
      9,
      9,
      9,
      9,
      9,
      9,
      9,
      9,
      9,
      9,
      9,
      9,
      6,
      6,
      6,
      6,
      6,
      6,
      6,
      6,
      6,
      6,
      6,
      8,
      8,
      8,
      8,
      8,
      8,
      8,
      8,
      8,
      8,
      8,
      8,
      8,
      8,
      8,
      8,
      8,
      8,
      8,
      8,
      8,
      8,
      8,
      8,
      8,
      8,
      8,
      8,
      8,
      8,
      8,
      8,
      8,
      8,
      8,
      8,
      8,
      8,
      8,
      8,
      8,
      8,
      8,
      8,
      8,
      8,
      8,
      8
    ]
  }
}