{
  "type": "FeatureCollection",
  "features": [
    {
      "type": "Feature",
      "geometry": {
        "type": "Polygon",
        "coordinates": [
          [
            [
              -89.40558330596785,
              43.076422358489225
            ],
            [
              -89.40567919404343,
              43.076434134217806
            ],
            [
              -89.4056808885653,
              43.07643442504453
            ],
            [
              -89.4056825476102,
              43.07643487621476
            ],
            [
              -89.40568415604199,
              43.07643548361229
            ],
            [
              -89.40568569918628,
              43.07643624169558
            ],
            [
              -89.40568716296433,
              43.07643714354834
            ],
            [
              -89.4056885340215,
              43.076438180942574
            ],
            [
              -89.40568979984906,
              43.07643934441373
            ],
            [
              -89.40569094889837,
              43.076440623346976
            ],
            [
              -89.40569197068618,
              43.07644200607408
            ],
            [
              -89.40569285589028,
              43.07644347997986
            ],
            [
              -89.40569359643462,
              43.07644503161727
            ],
            [
              -89.4056941855629,
              43.076446646830085
            ],
            [
              -89.40569461790024,
              43.076448310882064
            ],
            [
              -89.40569488950227,
              43.07645000859137
            ],
            [
              -89.40569499789106,
              43.076451724469116
            ],
            [
              -89.40569494207773,
              43.07645344286064
            ],
            [
              -89.40569472257147,
              43.07645514808836
            ],
            [
              -89.40566772257147,
              43.07660714808836
            ],
            [
              -89.40566731766917,
              43.07660890900545
            ],
            [
              -89.40566673826596,
              43.076610620457124
            ],
            [
              -89.40566599020019,
              43.07661226519799
            ],
            [
              -89.40566508100972,
              43.076613826654864
            ],
            [
              -89.40566401985596,
              43.07661528909379
            ],
            [
              -89.40566281743162,
              43.07661663777855
            ],
            [
              -89.40566148585286,
              43.07661785911917
            ],
            [
              -89.4056600385373,
              43.07661894080884
            ],
            [
              -89.40565849006876,
              43.076619871947976
            ],
            [
              -89.40565685605034,
              43.076620643153966
            ],
            [
              -89.40565515294715,
              43.07662124665578
            ],
            [
              -89.40565339792047,
              43.07662167637227
            ],
            [
              -89.40565160865476,
              43.07662192797339
            ],
            [
              -89.40564980317951,
              43.076621998923905
            ],
            [
              -89.4056479996875,
              43.07662188850888
            ],
            [
              -89.4053510275293,
              43.076588680759556
            ],
            [
              -89.40532356233729,
              43.07671094516272
            ],
            [
              -89.4053230993787,
              43.07671262238809
            ],
            [
              -89.40532247664567,
              43.076714247078556
            ],
            [
              -89.4053216999569,
              43.07671580405322
            ],
            [
              -89.4053207765697,
              43.07671727876392
            ],
            [
              -89.40531971511207,
              43.07671865743113
            ],
            [
              -89.40531852550215,
              43.07671992717276
            ],
            [
              -89.40531721885552,
              43.0767210761245
            ],
            [
              -89.40531580738127,
              43.07672209355069
            ],
            [
              -89.40531430426809,
              43.076722969944626
            ],
            [
              -89.40531272356087,
              43.07672369711739
            ],
            [
              -89.40531108002953,
              43.076724268274376
            ],
            [
              -89.40530998120374,
              43.07672453456889
            ],
            [
              -89.4053010953863,
              43.07676321400948
            ],
            [
              -89.40535386337888,
              43.07676873624126
            ],
            [
              -89.40535437349287,
              43.076768258663385
            ],
            [
              -89.4053558106778,
              43.07676716161353
            ],
            [
              -89.40535735066855,
              43.07676621427653
            ],
            [
              -89.40535897792729,
              43.076765426210606
            ],
            [
              -89.40536067603568,
              43.076764805367006
            ],
            [
              -89.40536242786057,
              43.076764358009754
            ],
            [
              -89.40536421572678,
              43.07676408865251
            ],
            [
              -89.40536602159553,
              43.07676400001296
            ],
            [
              -89.40536782724638,
              43.076764092985435
            ],
            [
              -89.40541682724638,
              43.07676909298544
            ],
            [
              -89.40541857108079,
              43.076769357795435
            ],
            [
              -89.40542028062531,
              43.076769792007774
            ],
            [
              -89.40542193946467,
              43.0767703914531
            ],
            [
              -89.40542353167056,
              43.076771150375485
            ],
            [
              -89.40542504195444,
              43.07677206148766
            ],
            [
              -89.40542645581439,
              43.07677311604103
            ],
            [
              -89.40542775967438,
              43.07677430390967
            ],
            [
              -89.40542894101462,
              43.07677561368754
            ],
            [
              -89.40542998849173,
              43.07677703279799
            ],
            [
              -89.40543089204773,
              43.076778547614595
            ],
            [
              -89.40543164300658,
              43.076780143591904
            ],
            [
              -89.4054322341575,
              43.07678180540518
            ],
            [
              -89.40543265982419,
              43.07678351709752
            ],
            [
              -89.40543291591935,
              43.07678526223306
            ],
            [
              -89.40543299998393,
              43.07678702405482
            ],
            [
              -89.40543291121074,
              43.07678878564561
            ],
            [
              -89.40543265045217,
              43.076790530090435
            ],
            [
              -89.40543048873315,
              43.07680133868555
            ],
            [
              -89.40544604383865,
              43.076803116411895
            ],
            [
              -89.40544778105387,
              43.076803401601445
            ],
            [
              -89.40544948210109,
              43.076803855129995
            ],
            [
              -89.40545113070881,
              43.07680447265926
            ],
            [
              -89.40545271110712,
              43.07680524828223
            ],
            [
              -89.40545420817858,
              43.0768061745796
            ],
            [
              -89.40545560760285,
              43.076807242690805
            ],
            [
              -89.40545689599358,
              43.07680844239873
            ],
            [
              -89.40545806102658,
              43.07680976222747
            ],
            [
              -89.40545909155763,
              43.07681118955208
            ],
            [
              -89.4054599777291,
              43.07681271071938
            ],
            [
              -89.40546071106421,
              43.0768143111785
            ],
            [
              -89.40546128454821,
              43.07681597562012
            ],
            [
              -89.40546169269538,
              43.07681768812287
            ],
            [
              -89.40546193160156,
              43.07681943230567
            ],
            [
              -89.40546199898147,
              43.076821191484385
            ],
            [
              -89.40546189419057,
              43.07682294883144
            ],
            [
              -89.40546161823126,
              43.07682468753678
            ],
            [
              -89.40544361823126,
              43.076910687536774
            ],
            [
              -89.40544358917455,
              43.0769108237336
            ],
            [
              -89.40541358917454,
              43.0770488237336
            ],
            [
              -89.40541312957609,
              43.07705052970369
            ],
            [
              -89.40541250494343,
              43.077052182398084
            ],
            [
              -89.40541172129457,
              43.07705376589395
            ],
            [
              -89.40541078617954,
              43.077055264935176
            ],
            [
              -89.40540970860768,
              43.077056665079304
            ],
            [
              -89.4054084989608,
              43.077057952836704
            ],
            [
              -89.40540716889319,
              43.07705911580053
            ],
            [
              -89.40540573121935,
              43.07706014276626
            ],
            [
              -89.40540419979047,
              43.077061023839626
            ],
            [
              -89.40540258936103,
              43.07706175053196
            ],
            [
              -89.40540091544668,
              43.07706231584199
            ],
            [
              -89.40539919417465,
              43.07706271432325
            ],
            [
              -89.40539744212847,
              43.07706294213659
            ],
            [
              -89.40539567618818,
              43.07706299708715
            ],
            [
              -89.40539391336763,
              43.07706287864551
            ],
            [
              -89.40501691336763,
              43.07701887864552
            ],
            [
              -89.40501517438138,
              43.07701858876466
            ],
            [
              -89.40501347209394,
              43.0770181301563
            ],
            [
              -89.40501182283525,
              43.07701750721982
            ],
            [
              -89.40501024242647,
              43.07701672593101
            ],
            [
              -89.40500874602834,
              43.07701579378469
            ],
            [
              -89.40500734799568,
              43.07701471972287
            ],
            [
              -89.4050060617397,
              43.07701351404893
            ],
            [
              -89.40500489959933,
              43.077012188328794
            ],
            [
              -89.40500387272289,
              43.07701075527998
            ],
            [
              -89.40500299096112,
              43.07700922864961
            ],
            [
              -89.40500226277268,
              43.07700762308251
            ],
            [
              -89.40500169514303,
              43.07700595398075
            ],
            [
              -89.40500129351737,
              43.07700423735588
            ],
            [
              -89.40500106174848,
              43.07700248967533
            ],
            [
              -89.40500100205969,
              43.07700072770446
            ],
            [
              -89.4050011150236,
              43.07699896834569
            ],
            [
              -89.40500139955654,
              43.07699722847641
            ],
            [
              -89.40500323532751,
              43.076988661545194
            ],
            [
              -89.40495198458439,
              43.076982886813575
            ],
            [
              -89.40495023924603,
              43.07698260274779
            ],
            [
              -89.40494853020245,
              43.07698214879922
            ],
            [
              -89.40494687394744,
              43.0769815293489
            ],
            [
              -89.40494528646543,
              43.076980750375085
            ],
            [
              -89.40494378307709,
              43.0769798193956
            ],
            [
              -89.40494237829148,
              43.076978745395266
            ],
            [
              -89.4049410856661,
              43.076977538739165
            ],
            [
              -89.40493991767597,
              43.07697621107265
            ],
            [
              -89.40493888559328,
              43.076974775208924
            ],
            [
              -89.40493799937857,
              43.0769732450054
            ],
            [
              -89.40493726758466,
              43.07697163522996
            ],
            [
              -89.404936697274,
              43.07696996141842
            ],
            [
              -89.40493629395063,
              43.07696823972461
            ],
            [
              -89.40493606150699,
              43.07696648676446
            ],
            [
              -89.40493600218639,
              43.07696471945566
            ],
            [
              -89.40493611656132,
              43.07696295485437
            ],
            [
              -89.40493640352794,
              43.076961209990635
            ],
            [
              -89.40497840352793,
              43.07676620999064
            ],
            [
              -89.40497885938761,
              43.076764504601265
            ],
            [
              -89.40497948010196,
              43.076762852065436
            ],
            [
              -89.40498025970105,
              43.07676126827687
            ],
            [
              -89.40498119068688,
              43.0767597684681
            ],
            [
              -89.40498226410544,
              43.07675836706397
            ],
            [
              -89.40498346963282,
              43.07675707754286
            ],
            [
              -89.40498479567454,
              43.076755912307114
            ],
            [
              -89.40498622947699,
              43.076754882563705
            ],
            [
              -89.4049877572502,
              43.07675399821649
            ],
            [
              -89.40498936430036,
              43.07675326777091
            ],
            [
              -89.40499103517122,
              43.07675269825225
            ],
            [
              -89.40499275379273,
              43.07675229513801
            ],
            [
              -89.40499450363554,
              43.07675206230524
            ],
            [
              -89.40499626787006,
              43.07675200199329
            ],
            [
              -89.40499802952826,
              43.076752114782224
            ],
            [
              -89.40512289205755,
              43.07676628357987
            ],
            [
              -89.4051380994091,
              43.07669685871411
            ],
            [
              -89.40510917275363,
              43.076693907014565
            ],
            [
              -89.40510741068593,
              43.07669363850403
            ],
            [
              -89.40510568381322,
              43.076693197039226
            ],
            [
              -89.40510400906837,
              43.07669258694893
            ],
            [
              -89.40510240287307,
              43.07669181421539
            ],
            [
              -89.40510088097685,
              43.076690886415626
            ],
            [
              -89.40509945830266,
              43.07668981264719
            ],
            [
              -89.40509814880053,
              43.0766886034389
            ],
            [
              -89.40509696531079,
              43.07668727064765
            ],
            [
              -89.40509591943812,
              43.076685827342125
            ],
            [
              -89.40509502143783,
              43.07668428767463
            ],
            [
              -89.40509428011526,
              43.076682666742386
            ],
            [
              -89.40509370273944,
              43.076680980439434
            ],
            [
              -89.40509329497183,
              43.0766792453008
            ],
            [
              -89.40509306081078,
              43.076677478340386
            ],
            [
              -89.40509300255239,
              43.07667569688412
            ],
            [
              -89.40509312076787,
              43.07667391840005
            ],
            [
              -89.4050934142981,
              43.07667216032709
            ],
            [
              -89.40513917205449,
              43.07646258980282
            ],
            [
              -89.40467592693064,
              43.07640888022325
            ],
            [
              -89.40467418105838,
              43.0764085902156
            ],
            [
              -89.40467247210462,
              43.07640813015974
            ],
            [
              -89.40467081659015,
              43.07640750450311
            ],
            [
              -89.40466923051919,
              43.07640671929408
            ],
            [
              -89.40466772922458,
              43.0764057821234
            ],
            [
              -89.40466632721967,
              43.076404702050915
            ],
            [
              -89.40466503805791,
              43.076403489517894
            ],
            [
              -89.4046638742019,
              43.07640215624615
            ],
            [
              -89.40466284690288,
              43.07640071512468
            ],
            [
              -89.40466196609195,
              43.07639918008511
            ],
            [
              -89.40466124028409,
              43.07639756596699
            ],
            [
              -89.40466067649584,
              43.07639588837432
            ],
            [
              -89.40466028017745,
              43.07639416352473
            ],
            [
              -89.40466005516022,
              43.07639240809271
            ],
            [
              -89.40466000361943,
              43.07639063904836
            ],
            [
              -89.40466012605333,
              43.07638887349341
            ],
            [
              -89.40466042127834,
              43.076387128495824
            ],
            [
              -89.40469742127833,
              43.07621912849582
            ],
            [
              -89.4046978860603,
              43.07621742209103
            ],
            [
              -89.40469851605728,
              43.0762157695344
            ],
            [
              -89.40469930518738,
              43.076214186779424
            ],
            [
              -89.40470024583246,
              43.07621268910575
            ],
            [
              -89.4047013289117,
              43.07621129097165
            ],
            [
              -89.40470254396925,
              43.07621000587448
            ],
            [
              -89.40470387927516,
              43.076208846220325
            ],
            [
              -89.40470532193861,
              43.0762078232043
            ],
            [
              -89.40470685803237,
              43.07620694670242
            ],
            [
              -89.40470847272726,
              43.07620622517628
            ],
            [
              -89.40471015043533,
              43.07620566559137
            ],
            [
              -89.40471187496024,
              43.07620527334982
            ],
            [
              -89.40471362965374,
              43.076205052238265
            ],
            [
              -89.40471539757633,
              43.076205004391284
            ],
            [
              -89.40471716166078,
              43.07620513027077
            ],
            [
              -89.40484111580477,
              43.07622012472367
            ],
            [
              -89.40524706267217,
              43.07626711857286
            ],
            [
              -89.4053179462206,
              43.07627526610716
            ],
            [
              -89.40535242863292,
              43.07612009525176
            ],
            [
              -89.40535289371407,
              43.07611839866253
            ],
            [
              -89.40535352218747,
              43.076116755574986
            ],
            [
              -89.40535430805018,
              43.07611518168322
            ],
            [
              -89.405355243796,
              43.076113692020414
            ],
            [
              -89.40535632048703,
              43.07611230081522
            ],
            [
              -89.40535752783917,
              43.07611102135584
            ],
            [
              -89.4053588543203,
              43.076109865863174
            ],
            [
              -89.4053602872604,
              43.076108845373994
            ],
            [
              -89.40536181297261,
              43.07610796963561
            ],
            [
              -89.40536341688397,
              43.07610724701271
            ],
            [
              -89.40536508367455,
              43.076106684407485
            ],
            [
              -89.40536679742387,
              43.076106287193724
            ],
            [
              -89.40536854176288,
              43.07610605916545
            ],
            [
              -89.40537030003038,
              43.07610600250068
            ],
            [
              -89.40537205543211,
              43.076106117740665
            ],
            [
              -89.4057200554321,
              43.07614611774066
            ],
            [
              -89.40572180048427,
              43.076146405787334
            ],
            [
              -89.40572350884327,
              43.07614686370385
            ],
            [
              -89.40572516401508,
              43.07614748706907
            ],
            [
              -89.40572675001927,
              43.076148269864504
            ],
            [
              -89.40572825154315,
              43.076149204532356
            ],
            [
              -89.40572965408973,
              43.07615028204852
            ],
            [
              -89.40573094411756,
              43.07615149200974
            ],
            [
              -89.40573210917162,
              43.076152822733974
            ],
            [
              -89.40573313800347,
              43.07615426137327
            ],
            [
              -89.40573402067986,
              43.07615579403773
            ],
            [
              -89.40573474867865,
              43.0761574059297
            ],
            [
              -89.40573531497114,
              43.076159081486566
            ],
            [
              -89.40573571408981,
              43.076160804531035
            ],
            [
              -89.40573594218125,
              43.07616255842734
            ],
            [
              -89.40573599704325,
              43.07616432624185
            ],
            [
              -89.40573587814615,
              43.07616609090653
            ],
            [
              -89.40573558663785,
              43.076167835383785
            ],
            [
              -89.40569458663785,
              43.07635583538379
            ],
            [
              -89.40569412758587,
              43.076357535865085
            ],
            [
              -89.40569350453379,
              43.076359183339356
            ],
            [
              -89.40569272344747,
              43.076360762031705
            ],
            [
              -89.40569179180596,
              43.07636225682583
            ],
            [
              -89.40569071852994,
              43.07636365340878
            ],
            [
              -89.40568951389622,
              43.076364938407984
            ],
            [
              -89.40568818943942,
              43.076366099519326
            ],
            [
              -89.40568675784148,
              43.076367125624934
            ],
            [
              -89.40568523281024,
              43.07636800689962
            ],
            [
              -89.40568362894818,
              43.07636873490502
            ],
            [
              -89.4056819616126,
              43.07636930267032
            ],
            [
              -89.40568024676858,
              43.07636970475907
            ],
            [
              -89.4056785008361,
              43.076369937321175
            ],
            [
              -89.40567674053281,
              43.07636999812981
            ],
            [
              -89.40567498271398,
              43.07636988660273
            ],
            [
              -89.40555849701457,
              43.076356749117835
            ],
            [
              -89.40555502259483,
              43.07637461756221
            ],
            [
              -89.40555521112583,
              43.07637477546198
            ],
            [
              -89.40555643135473,
              43.07637601673208
            ],
            [
              -89.4055575259876,
              43.07637737005719
            ],
            [
              -89.40555848478859,
              43.076378822782445
            ],
            [
              -89.405559298792,
              43.07638036132346
            ],
            [
              -89.4055599603861,
              43.076381971293415
            ],
            [
              -89.40556046338436,
              43.07638363763754
            ],
            [
              -89.40556080308328,
              43.07638534477393
            ],
            [
              -89.40556097630633,
              43.07638707673922
            ],
            [
              -89.40556098143372,
              43.07638881733789
            ],
            [
              -89.40556076851041,
              43.076393501650664
            ],
            [
              -89.40556749481863,
              43.07639406217635
            ],
            [
              -89.40556923273921,
              43.07639429267391
            ],
            [
              -89.4055709399937,
              43.076394691144976
            ],
            [
              -89.40557260038689,
              43.0763952538096
            ],
            [
              -89.40557419816815,
              43.0763959753303
            ],
            [
              -89.40557571818074,
              43.07639684886265
            ],
            [
              -89.4055771460057,
              43.07639786612024
            ],
            [
              -89.40557846809848,
              43.076399017453255
            ],
            [
              -89.40557967191762,
              43.07640029194003
            ],
            [
              -89.40558074604355,
              43.07640167749066
            ],
            [
              -89.40558168028703,
              43.07640316096166
            ],
            [
              -89.40558246578568,
              43.076404728280686
            ],
            [
              -89.40558309508822,
              43.07640636457998
            ],
            [
              -89.40558356222499,
              43.07640805433745
            ],
            [
              -89.40558386276471,
              43.07640978152387
            ],
            [
              -89.40558399385644,
              43.076411529754985
            ],
            [
              -89.40558395425658,
              43.07641328244689
            ],
            [
              -89.40558330596785,
              43.076422358489225
            ]
          ]
        ]
      },
      "properties": {
        "building": "university",
        "name": "William H. Sewell Social Sciences Building",
        "@id": "way/37749296",
        "addr:street": "Observatory Drive",
        "addr:housenumber": "1180",
        "person_counts": [
          99,
          99,
          99,
          99,
          99,
          99,
          99,
          99,
          99,
          99,
          99,
          0,
          0,
          38,
          38,
          38,
          38,
          38,
          38,
          38,
          38,
          38,
          38,
          38,
          0,
          0,
          210,
          210,
          210,
          210,
          210,
          210,
          210,
          210,
          210,
          210,
          210,
          0,
          0,
          0,
          0,
          0,
          0,
          0,
          0,
          0,
          0,
          0,
          0,
          0,
          0,
          0,
          0,
          0,
          34,
          34,
          34,
          34,
          34,
          34,
          34,
          34,
          34,
          34,
          34,
          0,
          0,
          12,
          12,
          12,
          12,
          12,
          12,
          12,
          12,
          12,
          12,
          12,
          0,
          0,
          0,
          0,
          0,
          0,
          0,
          0,
          0,
          0,
          0,
          0,
          0,
          0,
          0,
          47,
          47,
          47,
          47,
          47,
          47,
          47,
          47,
          47,
          47,
          47,
          0,
          0,
          23,
          23,
          23,
          23,
          23,
          23,
          23,
          23,
          23,
          23,
          23,
          0,
          0,
          0,
          0,
          0,
          0,
          0,
          0
        ],
        "instructor_counts": [
          1,
          1,
          1,
          1,
          1,
          1,
          1,
          1,
          1,
          1,
          1,
          0,
          0,
          0,
          0,
          0,
          0,
          0,
          0,
          0,
          0,
          0,
          0,
          0,
          0,
          0,
          1,
          1,
          1,
          1,
          1,
          1,
          1,
          1,
          1,
          1,
          1,
          0,
          0,
          0,
          0,
          0,
          0,
          0,
          0,
          0,
          0,
          0,
          0,
          0,
          0,
          0,
          0,
          0,
          0,
          0,
          0,
          0,
          0,
          0,
          0,
          0,
          0,
          0,
          0,
          0,
          0,
          0,
          0,
          0,
          0,
          0,
          0,
          0,
          0,
          0,
          0,
          0,
          0,
          0,
          0,
          0,
          0,
          0,
          0,
          0,
          0,
          0,
          0,
          0,
          0,
          0,
          0,
          0,
          0,
          0,
          0,
          0,
          0,
          0,
          0,
          0,
          0,
          0,
          0,
          0,
          0,
          0,
          0,
          0,
          0,
          0,
          0,
          0,
          0,
          0,
          0,
          0,
          0,
          0,
          0,
          0,
          0,
          0,
          0
        ]
      }
    },
    {
      "type": "Feature",
      "geometry": {
        "type": "Polygon",
        "coordinates": [
          [
            [
              -89.41862943816248,
              43.07822133394942
            ],
            [
              -89.41860043816249,
              43.07828633394942
            ],
            [
              -89.4185996667093,
              43.078287863081826
            ],
            [
              -89.41859875341507,
              43.078289311970906
            ],
            [
              -89.41859770654841,
              43.0782906674989
            ],
            [
              -89.41859653558733,
              43.07829191739332
            ],
            [
              -89.4185952511333,
              43.078293050338054
            ],
            [
              -89.41859386481532,
              43.078294056075805
            ],
            [
              -89.41859238918467,
              43.078294925500956
            ],
            [
              -89.41859083760119,
              43.07829565074203
            ],
            [
              -89.41858922411238,
              43.07829622523294
            ],
            [
              -89.41858756332624,
              43.07829664377245
            ],
            [
              -89.41858587027895,
              43.07829690257123
            ],
            [
              -89.41858416029879,
              43.078296999286216
            ],
            [
              -89.41858244886734,
              43.078296933041784
            ],
            [
              -89.41858075147933,
              43.078296704437676
            ],
            [
              -89.41847175147933,
              43.07827670443768
            ],
            [
              -89.41847001339578,
              43.078276295484336
            ],
            [
              -89.41846832438068,
              43.0782757163425
            ],
            [
              -89.41846670105403,
              43.07827497271097
            ],
            [
              -89.41846515938946,
              43.07827407190712
            ],
            [
              -89.418463714557,
              43.07827302279489
            ],
            [
              -89.41846238077392,
              43.07827183569761
            ],
            [
              -89.4184611711647,
              43.078270522296386
            ],
            [
              -89.41846009763194,
              43.078269095515154
            ],
            [
              -89.41845917073928,
              43.07826756939351
            ],
            [
              -89.41845839960739,
              43.07826595894858
            ],
            [
              -89.41845779182425,
              43.07826428002722
            ],
            [
              -89.41845735337048,
              43.07826254915012
            ],
            [
              -89.41845708856049,
              43.07826078334919
            ],
            [
              -89.418457,
              43.078259
            ],
            [
              -89.418457,
              43.07825196578992
            ],
            [
              -89.41834274442745,
              43.078192995171825
            ],
            [
              -89.41834119659984,
              43.07819209613676
            ],
            [
              -89.418339745718,
              43.078191047816084
            ],
            [
              -89.4183384061297,
              43.078189860576614
            ],
            [
              -89.41833719108213,
              43.07818854615898
            ],
            [
              -89.41833611259086,
              43.07818711756143
            ],
            [
              -89.41833518132113,
              43.07818558891137
            ],
            [
              -89.41833440648222,
              43.07818397532561
            ],
            [
              -89.41833379573652,
              43.078182292760886
            ],
            [
              -89.41833335512369,
              43.07818055785608
            ],
            [
              -89.41833308900095,
              43.07817878776765
            ],
            [
              -89.41833300636195,
              43.07817712779278
            ],
            [
              -89.41833125374251,
              43.07817625148306
            ],
            [
              -89.4183190569964,
              43.07817696893871
            ],
            [
              -89.41831737826757,
              43.07817698925926
            ],
            [
              -89.41831570494733,
              43.0781768530875
            ],
            [
              -89.41831405159223,
              43.07817656160802
            ],
            [
              -89.41831243258515,
              43.07817611735645
            ],
            [
              -89.41831086201017,
              43.07817552419745
            ],
            [
              -89.41830935353005,
              43.07817478729101
            ],
            [
              -89.41830792026737,
              43.07817391304764
            ],
            [
              -89.41830657469038,
              43.07817290907258
            ],
            [
              -89.41819457469038,
              43.078080909072575
            ],
            [
              -89.41819330303532,
              43.07807975880433
            ],
            [
              -89.41819214660224,
              43.078078492752944
            ],
            [
              -89.41819111588546,
              43.078077122407535
            ],
            [
              -89.41819022023851,
              43.078075660203666
            ],
            [
              -89.41818946778919,
              43.07807411941049
            ],
            [
              -89.41818886536578,
              43.07807251401034
            ],
            [
              -89.41818841843512,
              43.07807085857185
            ],
            [
              -89.41818813105304,
              43.07806916811773
            ],
            [
              -89.41818800582743,
              43.078067457988446
            ],
            [
              -89.41818804389469,
              43.07806574370303
            ],
            [
              -89.41818824490937,
              43.07806404081821
            ],
            [
              -89.41818872206147,
              43.0780611779056
            ],
            [
              -89.41818708456306,
              43.07805954040718
            ],
            [
              -89.41817787719084,
              43.078058964946415
            ],
            [
              -89.4181761032691,
              43.078058765386295
            ],
            [
              -89.41817435783746,
              43.07805839109907
            ],
            [
              -89.41817265806264,
              43.078057845765954
            ],
            [
              -89.41817102066243,
              43.078057134750445
            ],
            [
              -89.41816946174102,
              43.07805626504555
            ],
            [
              -89.4181679966308,
              43.078055245205036
            ],
            [
              -89.41816663974154,
              43.0780540852593
            ],
            [
              -89.41816540441857,
              43.0780527966167
            ],
            [
              -89.4181643028116,
              43.078051391951384
            ],
            [
              -89.41810252876226,
              43.07796402579587
            ],
            [
              -89.41806790317929,
              43.07797800920437
            ],
            [
              -89.41792478893015,
              43.078148570021845
            ],
            [
              -89.41792358280576,
              43.07814987140239
            ],
            [
              -89.41792225441348,
              43.07815104771074
            ],
            [
              -89.41792081666141,
              43.078152087516656
            ],
            [
              -89.41791928352025,
              43.07815298071626
            ],
            [
              -89.41791766988761,
              43.0781537186303
            ],
            [
              -89.4179159914433,
              43.07815429408841
            ],
            [
              -89.41791426449683,
              43.07815470149882
            ],
            [
              -89.41791250582904,
              43.07815493690271
            ],
            [
              -89.41791073252902,
              43.07815499801264
            ],
            [
              -89.41790896182805,
              43.07815488423482
            ],
            [
              -89.4179072109321,
              43.07815459667481
            ],
            [
              -89.41790549685476,
              43.07815413812686
            ],
            [
              -89.4179038362518,
              43.07815351304671
            ],
            [
              -89.41749585207768,
              43.07797651991235
            ],
            [
              -89.41715986792067,
              43.07783152674936
            ],
            [
              -89.41715828831848,
              43.07783075140009
            ],
            [
              -89.41715679196956,
              43.0778298255224
            ],
            [
              -89.4171553931738,
              43.07782875796444
            ],
            [
              -89.4171541052988,
              43.07782755892834
            ],
            [
              -89.41715294065216,
              43.0778262398727
            ],
            [
              -89.41715191036384,
              43.0778248134031
            ],
            [
              -89.41715102427979,
              43.077823293151596
            ],
            [
              -89.41715029086788,
              43.0778216936465
            ],
            [
              -89.41714971713698,
              43.07782003017349
            ],
            [
              -89.41714930856995,
              43.07781831862958
            ],
            [
              -89.41714906907126,
              43.07781657537115
            ],
            [
              -89.4171490009297,
              43.07781481705767
            ],
            [
              -89.41714910479644,
              43.077813060492474
            ],
            [
              -89.4171493796789,
              43.07781132246221
            ],
            [
              -89.41714982295015,
              43.07780961957637
            ],
            [
              -89.41715043037408,
              43.077807968108615
            ],
            [
              -89.41715119614581,
              43.0778063838412
            ],
            [
              -89.41715211294725,
              43.077804881914204
            ],
            [
              -89.41715317201697,
              43.077803476680806
            ],
            [
              -89.41725317201696,
              43.077683476680804
            ],
            [
              -89.41725438586283,
              43.07768215930128
            ],
            [
              -89.41725572463967,
              43.07768096909662
            ],
            [
              -89.41725717508821,
              43.077679917854645
            ],
            [
              -89.4172587228431,
              43.07767901598693
            ],
            [
              -89.41726035257534,
              43.077678272425594
            ],
            [
              -89.41726204814397,
              43.07767769453491
            ],
            [
              -89.41726379275599,
              43.07767728803834
            ],
            [
              -89.41726556913271,
              43.077677056961825
            ],
            [
              -89.4172673596808,
              43.077677003593976
            ],
            [
              -89.41726914666661,
              43.07767712846334
            ],
            [
              -89.41727091239173,
              43.07767743033321
            ],
            [
              -89.41727263936833,
              43.07767790621386
            ],
            [
              -89.41727431049239,
              43.077678551392125
            ],
            [
              -89.41727988022642,
              43.07768102682947
            ],
            [
              -89.417299136329,
              43.077657919506365
            ],
            [
              -89.41721915613792,
              43.077631999999994
            ],
            [
              -89.417102,
              43.077631999999994
            ],
            [
              -89.41709968602748,
              43.07763185064512
            ],
            [
              -89.41688368602749,
              43.07760385064512
            ],
            [
              -89.41688165927411,
              43.07760346877496
            ],
            [
              -89.4167166592741,
              43.077562468774964
            ],
            [
              -89.41671496560699,
              43.07756195836375
            ],
            [
              -89.416713330217,
              43.07756128417725
            ],
            [
              -89.41671176889787,
              43.07756045272641
            ],
            [
              -89.41671029672806,
              43.07755947204097
            ],
            [
              -89.41670892792503,
              43.07755835159189
            ],
            [
              -89.41670767570798,
              43.07755710219989
            ],
            [
              -89.4167065521702,
              43.07755573593098
            ],
            [
              -89.41670556816223,
              43.077554265979884
            ],
            [
              -89.41670473318715,
              43.07755270654265
            ],
            [
              -89.4167040553087,
              43.07755107267953
            ],
            [
              -89.41670354107349,
              43.07754938016954
            ],
            [
              -89.41670319544775,
              43.0775476453581
            ],
            [
              -89.41670302176937,
              43.07754588499913
            ],
            [
              -89.41670302171562,
              43.077544116093286
            ],
            [
              -89.41670319528704,
              43.077542355723764
            ],
            [
              -89.41670354080736,
              43.07754062089133
            ],
            [
              -89.41670405493973,
              43.077538928350094
            ],
            [
              -89.4167047327189,
              43.07753729444579
            ],
            [
              -89.41671371917661,
              43.07751832303506
            ],
            [
              -89.416736705735,
              43.07746935167154
            ],
            [
              -89.41673750860383,
              43.07746783394062
            ],
            [
              -89.41673845243028,
              43.077466399612504
            ],
            [
              -89.41673952862638,
              43.07746506173828
            ],
            [
              -89.41674072739976,
              43.07746383249139
            ],
            [
              -89.41674203784262,
              43.077462723056854
            ],
            [
              -89.41674344803117,
              43.077461743529526
            ],
            [
              -89.41674494513394,
              43.07746090282222
            ],
            [
              -89.41674651552867,
              43.07746020858459
            ],
            [
              -89.4167481449262,
              43.07745966713358
            ],
            [
              -89.41674981850049,
              43.0774592833959
            ],
            [
              -89.41675152102353,
              43.07745906086322
            ],
            [
              -89.41675323700392,
              43.07745900156037
            ],
            [
              -89.41675495082778,
              43.077459106026964
            ],
            [
              -89.41675664690088,
              43.07745937331245
            ],
            [
              -89.41678564690088,
              43.07746537331245
            ],
            [
              -89.41678594269015,
              43.07746543710746
            ],
            [
              -89.41681559811413,
              43.077472094447536
            ],
            [
              -89.41682013899822,
              43.07743576737478
            ],
            [
              -89.41682043693261,
              43.07743405808881
            ],
            [
              -89.41682089805302,
              43.077432385428835
            ],
            [
              -89.41682151807497,
              43.07743076493626
            ],
            [
              -89.41682229123758,
              43.07742921166777
            ],
            [
              -89.41682321035707,
              43.07742774005546
            ],
            [
              -89.41682426689349,
              43.07742636377271
            ],
            [
              -89.4168254510301,
              43.077425095607154
            ],
            [
              -89.41682675176462,
              43.07742394734186
            ],
            [
              -89.41682815701131,
              43.07742292964587
            ],
            [
              -89.41682965371345,
              43.07742205197502
            ],
            [
              -89.41683122796454,
              43.07742132248413
            ],
            [
              -89.41683286513751,
              43.077420747951216
            ],
            [
              -89.4168345500207,
              43.077420333714514
            ],
            [
              -89.41683626695914,
              43.077420083622876
            ],
            [
              -89.416838,
              43.077420000000004
            ],
            [
              -89.41687836669236,
              43.077420000000004
            ],
            [
              -89.41687902309471,
              43.07741901539647
            ],
            [
              -89.41688008898728,
              43.0774175770527
            ],
            [
              -89.41688129248551,
              43.07741625170303
            ],
            [
              -89.4168826216846,
              43.07741505245761
            ],
            [
              -89.41688406343629,
              43.077413991179206
            ],
            [
              -89.41688560347899,
              43.07741307836582
            ],
            [
              -89.41688722657882,
              43.07741232304688
            ],
            [
              -89.41688891668032,
              43.07741173269387
            ],
            [
              -89.41689065706527,
              43.077411313146484
            ],
            [
              -89.41689243051803,
              43.07741106855482
            ],
            [
              -89.41689421949587,
              43.07741100133834
            ],
            [
              -89.41697621949588,
              43.07741200133834
            ],
            [
              -89.41697796569544,
              43.07741210765411
            ],
            [
              -89.41697969332698,
              43.07741238298164
            ],
            [
              -89.4169813860712,
              43.07741282472018
            ],
            [
              -89.4169830279384,
              43.077413428697035
            ],
            [
              -89.41698460341944,
              43.07741418920704
            ],
            [
              -89.41698609763226,
              43.07741509906637
            ],
            [
              -89.41698749646247,
              43.077416149680474
            ],
            [
              -89.41698842508087,
              43.077417000000004
            ],
            [
              -89.417072,
              43.077417000000004
            ],
            [
              -89.41707377328275,
              43.077417087561074
            ],
            [
              -89.41707552931321,
              43.07741734939241
            ],
            [
              -89.41707725100694,
              43.07741778294665
            ],
            [
              -89.4170789216136,
              43.07741838400574
            ],
            [
              -89.41708052487982,
              43.07741914672197
            ],
            [
              -89.41708204520741,
              43.07742006367488
            ],
            [
              -89.4170834678051,
              43.07742112594341
            ],
            [
              -89.41708477883242,
              43.077422323192756
            ],
            [
              -89.41708596553438,
              43.07742364377486
            ],
            [
              -89.41708701636554,
              43.07742507484176
            ],
            [
              -89.41708792110236,
              43.07742660247062
            ],
            [
              -89.41708857225832,
              43.077428000000005
            ],
            [
              -89.41716903538845,
              43.077428000000005
            ],
            [
              -89.4171690533133,
              43.077427970216526
            ],
            [
              -89.4171701121424,
              43.077426548912236
            ],
            [
              -89.4171713056162,
              43.077425238627825
            ],
            [
              -89.4171726221638,
              43.077424052066696
            ],
            [
              -89.41717404902113,
              43.07742300073271
            ],
            [
              -89.41717557235455,
              43.0774220948187
            ],
            [
              -89.41717717739517,
              43.07742134310763
            ],
            [
              -89.41717884858191,
              43.07742075288744
            ],
            [
              -89.41718056971234,
              43.077420329880404
            ],
            [
              -89.4171823240999,
              43.07742007818763
            ],
            [
              -89.41718409473553,
              43.077420000249305
            ],
            [
              -89.41737409473552,
              43.0774210002493
            ],
            [
              -89.41737585267398,
              43.07742109559833
            ],
            [
              -89.41737759288945,
              43.07742136222391
            ],
            [
              -89.41737929873473,
              43.077421797575454
            ],
            [
              -89.41738095389141,
              43.07742239748831
            ],
            [
              -89.41738254252597,
              43.077423156223624
            ],
            [
              -89.4173840494413,
              43.07742406652319
            ],
            [
              -89.41738546022195,
              43.077425119678935
            ],
            [
              -89.41738676137217,
              43.07742630561619
            ],
            [
              -89.41738774518822,
              43.077427396486456
            ],
            [
              -89.41739408717291,
              43.077427583015414
            ],
            [
              -89.41739411689288,
              43.077427543153284
            ],
            [
              -89.41739531166644,
              43.077426232612176
            ],
            [
              -89.41739662960308,
              43.0774250460015
            ],
            [
              -89.41739805790984,
              43.07742399483944
            ],
            [
              -89.41739958272244,
              43.077423089329415
            ],
            [
              -89.41740118923983,
              43.077422338261016
            ],
            [
              -89.41740286186788,
              43.07742174892471
            ],
            [
              -89.41740458437073,
              43.07742132704109
            ],
            [
              -89.4174063400284,
              43.07742107670526
            ],
            [
              -89.41740811179908,
              43.077421000347194
            ],
            [
              -89.41756805880571,
              43.077421993806865
            ],
            [
              -89.41765627477947,
              43.077412192032
            ],
            [
              -89.41778854657215,
              43.07738633438832
            ],
            [
              -89.4177911675583,
              43.07738601925917
            ],
            [
              -89.4178991675583,
              43.07738101925917
            ],
            [
              -89.41790011612662,
              43.0773810003746
            ],
            [
              -89.41805511612661,
              43.0773820003746
            ],
            [
              -89.41805687262081,
              43.07738209767358
            ],
            [
              -89.41805861122836,
              43.077382365969555
            ],
            [
              -89.41806031534269,
              43.07738280269986
            ],
            [
              -89.41806196868664,
              43.077383403692984
            ],
            [
              -89.41806355546804,
              43.07738416320845
            ],
            [
              -89.4180650605305,
              43.07738507399162
            ],
            [
              -89.41806646949814,
              43.077386127343
            ],
            [
              -89.418067768913,
              43.07738731320133
            ],
            [
              -89.41806894636352,
              43.07738862023969
            ],
            [
              -89.41806999060304,
              43.07739003597369
            ],
            [
              -89.41807089165738,
              43.07739154688072
            ],
            [
              -89.41807164091996,
              43.0773931385291
            ],
            [
              -89.41807223123406,
              43.07739479571594
            ],
            [
              -89.41807265696121,
              43.07739650261235
            ],
            [
              -89.41807291403502,
              43.077398242914626
            ],
            [
              -89.41807299999999,
              43.0774
            ],
            [
              -89.41807299999999,
              43.07743560744829
            ],
            [
              -89.41810017226193,
              43.077443759126865
            ],
            [
              -89.41810185046828,
              43.07744435454764
            ],
            [
              -89.4181034616309,
              43.07744511287306
            ],
            [
              -89.41810498998177,
              43.0774460266816
            ],
            [
              -89.41810642056333,
              43.07744708703005
            ],
            [
              -89.41810773937486,
              43.07744828354106
            ],
            [
              -89.41810893350949,
              43.0774496045047
            ],
            [
              -89.41810999128055,
              43.07745103699305
            ],
            [
              -89.41811090233588,
              43.07745256698671
            ],
            [
              -89.41811165775927,
              43.07745417951204
            ],
            [
              -89.41811225015756,
              43.077455858787694
            ],
            [
              -89.4181126737331,
              43.077457588379026
            ],
            [
              -89.4181129243405,
              43.077459351358996
            ],
            [
              -89.41811299952711,
              43.077461130473786
            ],
            [
              -89.4181128985571,
              43.07746290831166
            ],
            [
              -89.41811262241865,
              43.077464667473386
            ],
            [
              -89.41811217381422,
              43.07746639074252
            ],
            [
              -89.41811155713421,
              43.07746806125389
            ],
            [
              -89.4181107784139,
              43.07746966265862
            ],
            [
              -89.4180938335089,
              43.077500526592736
            ],
            [
              -89.41811435878613,
              43.077506
            ],
            [
              -89.418228,
              43.077506
            ],
            [
              -89.4182297806509,
              43.077506088292026
            ],
            [
              -89.41823154383322,
              43.07750635230196
            ],
            [
              -89.41823327224974,
              43.07750678943979
            ],
            [
              -89.41823494894429,
              43.07750739541709
            ],
            [
              -89.41823655746812,
              43.07750816428911
            ],
            [
              -89.41823808204127,
              43.07750908851302
            ],
            [
              -89.41823950770731,
              43.07751015902198
            ],
            [
              -89.41824082048016,
              43.077511365314066
            ],
            [
              -89.4182420074812,
              43.07751269555527
            ],
            [
              -89.41824305706568,
              43.077514136695626
            ],
            [
              -89.41824395893696,
              43.07751567459723
            ],
            [
              -89.41824470424746,
              43.07751729417291
            ],
            [
              -89.41824528568552,
              43.07751897953426
            ],
            [
              -89.4182456975471,
              43.07752071414752
            ],
            [
              -89.41824593579176,
              43.07752248099573
            ],
            [
              -89.41824599808226,
              43.07752426274572
            ],
            [
              -89.41824399808226,
              43.07766126274572
            ],
            [
              -89.41824387969989,
              43.07766307757842
            ],
            [
              -89.41824357878829,
              43.07766487120166
            ],
            [
              -89.4182430984194,
              43.0776666253048
            ],
            [
              -89.41824244349718,
              43.07766832198067
            ],
            [
              -89.41824162070753,
              43.077669943908326
            ],
            [
              -89.41824063845014,
              43.077671474529936
            ],
            [
              -89.4182395067526,
              43.07767289821979
            ],
            [
              -89.41823823716813,
              43.077674200443795
            ],
            [
              -89.41823684265756,
              43.07767536790789
            ],
            [
              -89.41823533745712,
              43.077676388693725
            ],
            [
              -89.41823373693299,
              43.077677252380376
            ],
            [
              -89.41823205742452,
              43.07767795015069
            ],
            [
              -89.41823031607737,
              43.07767847488129
            ],
            [
              -89.4182285306685,
              43.07767882121536
            ],
            [
              -89.4182267194247,
              43.077678985617254
            ],
            [
              -89.41822043646299,
              43.07767923693572
            ],
            [
              -89.41822365845131,
              43.07771951178968
            ],
            [
              -89.41823956222554,
              43.07772000878263
            ],
            [
              -89.41824138767119,
              43.07772015906318
            ],
            [
              -89.41824318839386,
              43.077720494076516
            ],
            [
              -89.41824494574809,
              43.07772101035375
            ],
            [
              -89.41824664153746,
              43.07772170254912
            ],
            [
              -89.41824825820306,
              43.07772256349534
            ],
            [
              -89.41824977900524,
              43.077723584277805
            ],
            [
              -89.41825118819692,
              43.077724754326894
            ],
            [
              -89.41825247118673,
              43.0777260615274
            ],
            [
              -89.41825361469007,
              43.07772749234402
            ],
            [
              -89.41825460686658,
              43.07772903196145
            ],
            [
              -89.41825543744285,
              43.07773066443782
            ],
            [
              -89.41825609781874,
              43.07773237286978
            ],
            [
              -89.4182812407376,
              43.07780876866168
            ],
            [
              -89.41832705561785,
              43.07787290949404
            ],
            [
              -89.4184575968773,
              43.07783183007673
            ],
            [
              -89.41845933704762,
              43.07783137664107
            ],
            [
              -89.41846111377734,
              43.07783109910159
            ],
            [
              -89.41846290933317,
              43.07783100022835
            ],
            [
              -89.41846470579394,
              43.077831081008206
            ],
            [
              -89.41846648522942,
              43.077831340634894
            ],
            [
              -89.41846822987934,
              43.07783177651713
            ],
            [
              -89.4184699223306,
              43.077832384304436
            ],
            [
              -89.41847154569108,
              43.07783315793056
            ],
            [
              -89.41847308375827,
              43.07783408967408
            ],
            [
              -89.41847452118094,
              43.077835170235375
            ],
            [
              -89.4184758436124,
              43.07783638882953
            ],
            [
              -89.41847703785363,
              43.07783773329393
            ],
            [
              -89.4184780919851,
              43.07783919020969
            ],
            [
              -89.41853009198509,
              43.077919190209684
            ],
            [
              -89.41853098126484,
              43.077920717538156
            ],
            [
              -89.41853171647578,
              43.077922324714436
            ],
            [
              -89.41853229053007,
              43.0779239962444
            ],
            [
              -89.41853269789345,
              43.07792571601352
            ],
            [
              -89.41853293463873,
              43.077927467442194
            ],
            [
              -89.41853299848354,
              43.07792923364563
            ],
            [
              -89.41853288881236,
              43.07793099759658
            ],
            [
              -89.4185326066825,
              43.077932742289526
            ],
            [
              -89.41853215481387,
              43.0779344509046
            ],
            [
              -89.41853153756273,
              43.077936106969744
            ],
            [
              -89.41853076087975,
              43.07793769451952
            ],
            [
              -89.4185298322526,
              43.077939198249005
            ],
            [
              -89.4185287606338,
              43.07794060366136
            ],
            [
              -89.4185275563544,
              43.077941897207594
            ],
            [
              -89.41852623102436,
              43.077943066417156
            ],
            [
              -89.41852479742063,
              43.07794410001818
            ],
            [
              -89.41852326936399,
              43.077944988046134
            ],
            [
              -89.41852166158581,
              43.077945721939905
            ],
            [
              -89.4184267537851,
              43.077983530738564
            ],
            [
              -89.41846352331919,
              43.07801417201697
            ],
            [
              -89.41846485452754,
              43.07801539995549
            ],
            [
              -89.41846605560566,
              43.07801675544802
            ],
            [
              -89.41846711439472,
              43.07801822477251
            ],
            [
              -89.41846802017622,
              43.07801979305454
            ],
            [
              -89.41846876378071,
              43.07802144441792
            ],
            [
              -89.41846933768045,
              43.07802316214543
            ],
            [
              -89.41846973606566,
              43.078024928847974
            ],
            [
              -89.4184699549034,
              43.07802672664071
            ],
            [
              -89.4184699919783,
              43.07802853732404
            ],
            [
              -89.41846984691502,
              43.07803034256788
            ],
            [
              -89.4184695211821,
              43.078032124097206
            ],
            [
              -89.41846901807703,
              43.07803386387706
            ],
            [
              -89.41846834269289,
              43.07803554429515
            ],
            [
              -89.41846750186679,
              43.07803714834008
            ],
            [
              -89.41846650411067,
              43.07803865977363
            ],
            [
              -89.4184653595251,
              43.07804006329512
            ],
            [
              -89.41846416520559,
              43.07804125908266
            ],
            [
              -89.41849430571622,
              43.07806151745865
            ],
            [
              -89.41850338812617,
              43.078055781199744
            ],
            [
              -89.4185048959577,
              43.07805492752358
            ],
            [
              -89.41850647888467,
              43.07805422278168
            ],
            [
              -89.41850812223899,
              43.07805367350446
            ],
            [
              -89.41850981079268,
              43.07805328478178
            ],
            [
              -89.41851152889892,
              43.07805306021568
            ],
            [
              -89.41851326063697,
              43.07805300188709
            ],
            [
              -89.41851498995985,
              43.07805311033651
            ],
            [
              -89.41851670084294,
              43.078053384559006
            ],
            [
              -89.41851837743248,
              43.07805382201351
            ],
            [
              -89.41852000419249,
              43.07805441864638
            ],
            [
              -89.41863600419248,
              43.07810341864638
            ],
            [
              -89.41863801865287,
              43.07810442232686
            ],
            [
              -89.41867601865287,
              43.07812642232686
            ],
            [
              -89.41867748861249,
              43.07812737163686
            ],
            [
              -89.41867885944919,
              43.0781284591926
            ],
            [
              -89.41868011820785,
              43.0781296747161
            ],
            [
              -89.41868125299251,
              43.078131006720035
            ],
            [
              -89.4186822530789,
              43.07813244261626
            ],
            [
              -89.41868310901566,
              43.07813396883479
            ],
            [
              -89.41868381271372,
              43.07813557095207
            ],
            [
              -89.41868435752278,
              43.07813723382724
            ],
            [
              -89.4186847382941,
              43.07813894174525
            ],
            [
              -89.4186849514292,
              43.07814067856538
            ],
            [
              -89.41868499491383,
              43.07814242787377
            ],
            [
              -89.41868486833705,
              43.07814417313852
            ],
            [
              -89.41868457289506,
              43.07814589786597
            ],
            [
              -89.41868411137996,
              43.07814758575653
            ],
            [
              -89.41868348815329,
              43.07814922085875
            ],
            [
              -89.41868270910489,
              43.07815078772005
            ],
            [
              -89.41868178159717,
              43.07815227153276
            ],
            [
              -89.41868071439556,
              43.078153658274076
            ],
            [
              -89.41867951758569,
              43.07815493483855
            ],
            [
              -89.41862827842118,
              43.078204521126786
            ],
            [
              -89.41862890533474,
              43.07820557264416
            ],
            [
              -89.41862967240351,
              43.07820721538793
            ],
            [
              -89.41863027032963,
              43.078208926962034
            ],
            [
              -89.4186306930471,
              43.07821069000244
            ],
            [
              -89.41863093626745,
              43.07821248662301
            ],
            [
              -89.41863099752315,
              43.078214298596876
            ],
            [
              -89.4186308761928,
              43.078216107541465
            ],
            [
              -89.41863057350727,
              43.0782178951049
            ],
            [
              -89.41863009253734,
              43.07821964315224
            ],
            [
              -89.41862943816248,
              43.07822133394942
            ]
          ]
        ]
      },
      "properties": {
        "building": "dormitory",
        "name": "Dejope Residence Hall",
        "@id": "way/173709889",
        "addr:street": "Elm Drive",
        "addr:housenumber": "640",
        "person_counts": [
          0,
          0,
          0,
          0,
          0,
          0,
          0,
          0,
          0,
          0,
          0,
          0,
          0,
          0,
          0,
          0,
          0,
          0,
          0,
          0,
          0,
          0,
          0,
          0,
          0,
          0,
          0,
          0,
          0,
          0,
          0,
          0,
          0,
          0,
          0,
          0,
          0,
          0,
          0,
          0,
          0,
          0,
          0,
          0,
          0,
          0,
          0,
          0,
          0,
          0,
          0,
          0,
          0,
          0,
          0,
          0,
          0,
          0,
          0,
          0,
          0,
          0,
          0,
          0,
          0,
          0,
          0,
          0,
          0,
          0,
          0,
          0,
          0,
          0,
          0,
          0,
          0,
          0,
          0,
          0,
          0,
          0,
          0,
          0,
          0,
          0,
          0,
          0,
          0,
          0,
          0,
          0,
          0,
          0,
          0,
          0,
          0,
          0,
          0,
          0,
          0,
          0,
          0,
          0,
          0,
          0,
          0,
          0,
          0,
          0,
          1,
          1,
          1,
          1,
          1,
          1,
          1,
          1,
          1,
          1,
          1,
          1,
          1,
          1,
          1
        ],
        "instructor_counts": [
          0,
          0,
          0,
          0,
          0,
          0,
          0,
          0,
          0,
          0,
          0,
          0,
          0,
          0,
          0,
          0,
          0,
          0,
          0,
          0,
          0,
          0,
          0,
          0,
          0,
          0,
          0,
          0,
          0,
          0,
          0,
          0,
          0,
          0,
          0,
          0,
          0,
          0,
          0,
          0,
          0,
          0,
          0,
          0,
          0,
          0,
          0,
          0,
          0,
          0,
          0,
          0,
          0,
          0,
          0,
          0,
          0,
          0,
          0,
          0,
          0,
          0,
          0,
          0,
          0,
          0,
          0,
          0,
          0,
          0,
          0,
          0,
          0,
          0,
          0,
          0,
          0,
          0,
          0,
          0,
          0,
          0,
          0,
          0,
          0,
          0,
          0,
          0,
          0,
          0,
          0,
          0,
          0,
          0,
          0,
          0,
          0,
          0,
          0,
          0,
          0,
          0,
          0,
          0,
          0,
          0,
          0,
          0,
          0,
          0,
          1,
          1,
          1,
          1,
          1,
          1,
          1,
          1,
          1,
          1,
          1,
          1,
          1,
          1,
          1
        ]
      }
    }
  ],
  "metadata": {
    "total_buildings": 2,
    "total_meetings": 16,
    "max_persons": 210,
    "total_chunks": 125,
    "chunk_duration_minutes": 5,
    "start_time": 1776693000000,
    "end_time": 1776730500000,
    "total_persons": [
      99,
      99,
      99,
      99,
      99,
      99,
      99,
      99,
      99,
      99,
      99,
      0,
      0,
      38,
      38,
      38,
      38,
      38,
      38,
      38,
      38,
      38,
      38,
      38,
      0,
      0,
      210,
      210,
      210,
      210,
      210,
      210,
      210,
      210,
      210,
      210,
      210,
      0,
      0,
      0,
      0,
      0,
      0,
      0,
      0,
      0,
      0,
      0,
      0,
      0,
      0,
      0,
      0,
      0,
      34,
      34,
      34,
      34,
      34,
      34,
      34,
      34,
      34,
      34,
      34,
      0,
      0,
      12,
      12,
      12,
      12,
      12,
      12,
      12,
      12,
      12,
      12,
      12,
      0,
      0,
      0,
      0,
      0,
      0,
      0,
      0,
      0,
      0,
      0,
      0,
      0,
      0,
      0,
      47,
      47,
      47,
      47,
      47,
      47,
      47,
      47,
      47,
      47,
      47,
      0,
      0,
      23,
      23,
      23,
      23,
      24,
      24,
      24,
      24,
      24,
      24,
      24,
      1,
      1,
      1,
      1,
      1,
      1,
      1,
      1
    ],
    "total_instructors": [
      1,
      1,
      1,
      1,
      1,
      1,
      1,
      1,
      1,
      1,
      1,
      0,
      0,
      0,
      0,
      0,
      0,
      0,
      0,
      0,
      0,
      0,
      0,
      0,
      0,
      0,
      1,
      1,
      1,
      1,
      1,
      1,
      1,
      1,
      1,
      1,
      1,
      0,
      0,
      0,
      0,
      0,
      0,
      0,
      0,
      0,
      0,
      0,
      0,
      0,
      0,
      0,
      0,
      0,
      0,
      0,
      0,
      0,
      0,
      0,
      0,
      0,
      0,
      0,
      0,
      0,
      0,
      0,
      0,
      0,
      0,
      0,
      0,
      0,
      0,
      0,
      0,
      0,
      0,
      0,
      0,
      0,
      0,
      0,
      0,
      0,
      0,
      0,
      0,
      0,
      0,
      0,
      0,
      0,
      0,
      0,
      0,
      0,
      0,
      0,
      0,
      0,
      0,
      0,
      0,
      0,
      0,
      0,
      0,
      0,
      1,
      1,
      1,
      1,
      1,
      1,
      1,
      1,
      1,
      1,
      1,
      1,
      1,
      1,
      1
    ]
  }
}