{
  "type": "FeatureCollection",
  "features": [
    {
      "type": "Feature",
      "geometry": {
        "type": "Polygon",
        "coordinates": [
          [
            [
              -89.403485820009,
              43.073825999100066
            ],
            [
              -89.40328582000899,
              43.073823999100064
            ],
            [
              -89.40328406783962,
              43.07382389599833
            ],
            [
              -89.40328233404205,
              43.07382362273396
            ],
            [
              -89.40328063510194,
              43.07382318190527
            ],
            [
              -89.40327898717352,
              43.073822577703844
            ],
            [
              -89.40327740592598,
              43.07382181587468
            ],
            [
              -89.4032759063945,
              43.07382090366156
            ],
            [
              -89.40327450283723,
              43.07381984973821
            ],
            [
              -89.4032732085998,
              43.073818664125746
            ],
            [
              -89.40327203598834,
              43.073817358097486
            ],
            [
              -89.40327099615254,
              43.07381594407168
            ],
            [
              -89.4032700989796,
              43.073814435493496
            ],
            [
              -89.40326935300021,
              43.073812846707106
            ],
            [
              -89.40326876530744,
              43.07381119281936
            ],
            [
              -89.40326834148935,
              43.07380948955612
            ],
            [
              -89.40326808557576,
              43.073807753112725
            ],
            [
              -89.403268,
              43.073806
            ],
            [
              -89.403268,
              43.07380190649414
            ],
            [
              -89.403112,
              43.073801093994135
            ],
            [
              -89.403112,
              43.073828
            ],
            [
              -89.4031119120956,
              43.073829776747395
            ],
            [
              -89.40311164924096,
              43.07383153614102
            ],
            [
              -89.40311121400345,
              43.07383326099661
            ],
            [
              -89.40311061063407,
              43.07383493446722
            ],
            [
              -89.40310984502604,
              43.073836540207814
            ],
            [
              -89.40310892465718,
              43.07383806253487
            ],
            [
              -89.40310785851686,
              43.07383948657957
            ],
            [
              -89.40310665701826,
              43.07384079843306
            ],
            [
              -89.40310533189657,
              43.073841985282264
            ],
            [
              -89.40310389609449,
              43.073843035535035
            ],
            [
              -89.40310236363571,
              43.073843938933386
            ],
            [
              -89.403100749488,
              43.0738446866537
            ],
            [
              -89.40309906941698,
              43.07384527139286
            ],
            [
              -89.40309733983219,
              43.073845687439636
            ],
            [
              -89.40309557762673,
              43.073845930730435
            ],
            [
              -89.40309380001234,
              43.07384599888899
            ],
            [
              -89.40300390000276,
              43.073845
            ],
            [
              -89.402926,
              43.073845
            ],
            [
              -89.40292421187571,
              43.073844910963444
            ],
            [
              -89.40292244144126,
              43.07384464473462
            ],
            [
              -89.40292070621146,
              43.07384420394731
            ],
            [
              -89.40291902335284,
              43.0738435929622
            ],
            [
              -89.40291740951385,
              43.07384281782374
            ],
            [
              -89.4029158806601,
              43.07384188620033
            ],
            [
              -89.40291445191649,
              43.07384080730848
            ],
            [
              -89.40291313741749,
              43.07383959182161
            ],
            [
              -89.4029119501674,
              43.07383825176447
            ],
            [
              -89.40291090191158,
              43.07383680039419
            ],
            [
              -89.40291000302041,
              43.073835252069095
            ],
            [
              -89.40290926238657,
              43.07383362210668
            ],
            [
              -89.4029086873371,
              43.0738319266321
            ],
            [
              -89.40290828356096,
              43.0738301824186
            ],
            [
              -89.40290805505268,
              43.073828406721574
            ],
            [
              -89.40290800407286,
              43.07382661710793
            ],
            [
              -89.40290861706497,
              43.07379780647937
            ],
            [
              -89.40275515456149,
              43.073796182537535
            ],
            [
              -89.40275497962648,
              43.07379985617269
            ],
            [
              -89.40275481520574,
              43.07380157263382
            ],
            [
              -89.40275448729896,
              43.07380326548649
            ],
            [
              -89.4027539989153,
              43.07380491919577
            ],
            [
              -89.40275335453653,
              43.07380651858597
            ],
            [
              -89.40275256007597,
              43.073808048979835
            ],
            [
              -89.40275162282418,
              43.07380949633332
            ],
            [
              -89.40275055138213,
              43.07381084736437
            ],
            [
              -89.40274935558217,
              43.07381208967491
            ],
            [
              -89.4027480463979,
              43.07381321186453
            ],
            [
              -89.4027466358434,
              43.07381420363516
            ],
            [
              -89.40274513686299,
              43.07381505588555
            ],
            [
              -89.40274356321247,
              43.073815760794794
            ],
            [
              -89.40274192933288,
              43.073816311894106
            ],
            [
              -89.40274025021793,
              43.07381670412617
            ],
            [
              -89.40273854127648,
              43.07381693389157
            ],
            [
              -89.4027368181911,
              43.0738169990818
            ],
            [
              -89.4025388181911,
              43.0738149990818
            ],
            [
              -89.40253704678044,
              43.07381489371212
            ],
            [
              -89.40253529435337,
              43.0738146144311
            ],
            [
              -89.40253357794197,
              43.07381416395312
            ],
            [
              -89.40253191422825,
              43.07381354665642
            ],
            [
              -89.40253031938208,
              43.07381276854059
            ],
            [
              -89.40252880890398,
              43.07381183716826
            ],
            [
              -89.40252739747449,
              43.07381076159153
            ],
            [
              -89.40252609881145,
              43.073809552264095
            ],
            [
              -89.40252492553677,
              43.073808220939554
            ],
            [
              -89.40252388905363,
              43.07380678055723
            ],
            [
              -89.40252299943577,
              43.07380524511638
            ],
            [
              -89.4025222653295,
              43.07380362954017
            ],
            [
              -89.40252169386967,
              43.07380194953059
            ],
            [
              -89.40252129061041,
              43.073800221415866
            ],
            [
              -89.40252105947103,
              43.07379846199178
            ],
            [
              -89.402521002698,
              43.07379668835841
            ],
            [
              -89.40252500269798,
              43.07356568835841
            ],
            [
              -89.40252511896625,
              43.073563933933166
            ],
            [
              -89.40252540585082,
              43.07356219922181
            ],
            [
              -89.40252586061432,
              43.07356050077652
            ],
            [
              -89.40252647891752,
              43.07355885480344
            ],
            [
              -89.40252725486071,
              43.073557277008014
            ],
            [
              -89.40252818104005,
              43.07355578244518
            ],
            [
              -89.40252924861818,
              43.07355438537567
            ],
            [
              -89.40253044740851,
              43.07355309912999
            ],
            [
              -89.40253176597251,
              43.07355193598114
            ],
            [
              -89.40253319172876,
              43.07355090702762
            ],
            [
              -89.40253471107306,
              43.073550022087424
            ],
            [
              -89.4025363095082,
              43.07354928960444
            ],
            [
              -89.40253797178234,
              43.07354871656784
            ],
            [
              -89.40253968203446,
              43.07354830844538
            ],
            [
              -89.40254142394576,
              43.07354806913128
            ],
            [
              -89.40254318089538,
              43.073548000909
            ],
            [
              -89.40274218089539,
              43.073550000909
            ],
            [
              -89.40274393300336,
              43.0735501040927
            ],
            [
              -89.40274566673273,
              43.07355037742723
            ],
            [
              -89.4027473655995,
              43.07355081831376
            ],
            [
              -89.4027490134512,
              43.07355142256044
            ],
            [
              -89.40275059462036,
              43.073552184422205
            ],
            [
              -89.40275209407352,
              43.07355309665542
            ],
            [
              -89.4027534975542,
              43.073554150586745
            ],
            [
              -89.40275479171835,
              43.07355533619562
            ],
            [
              -89.40275596426133,
              43.07355664220948
            ],
            [
              -89.40275700403483,
              43.07355805621102
            ],
            [
              -89.40275790115284,
              43.07355956475618
            ],
            [
              -89.40275864708579,
              43.073561153502006
            ],
            [
              -89.40275923474147,
              43.07356280734301
            ],
            [
              -89.40275965853256,
              43.07356451055478
            ],
            [
              -89.40275991442975,
              43.073566246943535
            ],
            [
              -89.40276,
              43.073568
            ],
            [
              -89.40276,
              43.07357325173585
            ],
            [
              -89.40302616084303,
              43.07357700048012
            ],
            [
              -89.40327200337667,
              43.07357793170184
            ],
            [
              -89.40327208778108,
              43.073576224496364
            ],
            [
              -89.40327235026813,
              43.07357446631001
            ],
            [
              -89.403272784901,
              43.07357274258935
            ],
            [
              -89.40327338744054,
              43.07357107014659
            ],
            [
              -89.40327415200989,
              43.07356946529382
            ],
            [
              -89.40327507115185,
              43.07356794368391
            ],
            [
              -89.40327613590163,
              43.073566520157804
            ],
            [
              -89.40327733587425,
              43.073565208599796
            ],
            [
              -89.40327865936581,
              43.073564021802106
            ],
            [
              -89.40328009346771,
              43.07356297134011
            ],
            [
              -89.40328162419252,
              43.07356206745943
            ],
            [
              -89.40328323661035,
              43.07356131897603
            ],
            [
              -89.40328491499459,
              43.07356073319022
            ],
            [
              -89.40328664297519,
              43.07356031581541
            ],
            [
              -89.40328840369837,
              43.07356007092247
            ],
            [
              -89.403290179991,
              43.07356000089993
            ],
            [
              -89.40349017999101,
              43.07356200089993
            ],
            [
              -89.40349195178,
              43.0735621061308
            ],
            [
              -89.40349370459148,
              43.07356238534695
            ],
            [
              -89.40349542138257,
              43.07356283583351
            ],
            [
              -89.40349708546059,
              43.073563453210326
            ],
            [
              -89.4034986806454,
              43.07356423147453
            ],
            [
              -89.40350019142674,
              43.07356516305891
            ],
            [
              -89.40350160311505,
              43.073566238905514
            ],
            [
              -89.40350290198418,
              43.073567448553696
            ],
            [
              -89.40350407540502,
              43.07356878024183
            ],
            [
              -89.4035051119682,
              43.07357022102167
            ],
            [
              -89.40350600159502,
              43.073571756884256
            ],
            [
              -89.40350673563546,
              43.07357337289613
            ],
            [
              -89.40350730695235,
              43.07357505334452
            ],
            [
              -89.40350770999065,
              43.07357678189012
            ],
            [
              -89.40350794083156,
              43.07357854172597
            ],
            [
              -89.40350799723056,
              43.073580315740884
            ],
            [
              -89.40350399723056,
              43.073808315740884
            ],
            [
              -89.40350388059866,
              43.0738100698289
            ],
            [
              -89.40350359341522,
              43.073811804174156
            ],
            [
              -89.4035031384195,
              43.07381350223383
            ],
            [
              -89.4035025199514,
              43.07381514781124
            ],
            [
              -89.40350174391013,
              43.073816725210264
            ],
            [
              -89.40350081769779,
              43.07381821938512
            ],
            [
              -89.40349975014897,
              43.073819616083824
            ],
            [
              -89.4034985514463,
              43.07382090198418
            ],
            [
              -89.40349723302346,
              43.07382206482079
            ],
            [
              -89.40349580745604,
              43.07382309350212
            ],
            [
              -89.40349428834158,
              43.073823978216225
            ],
            [
              -89.40349269016997,
              43.073824710524406
            ],
            [
              -89.40349102818512,
              43.07382528344163
            ],
            [
              -89.40348931823965,
              43.0738256915032
            ],
            [
              -89.40348757664361,
              43.07382593081691
            ],
            [
              -89.403485820009,
              43.073825999100066
            ]
          ]
        ]
      },
      "properties": {
        "building": "university",
        "name": "Lathrop Hall",
        "@id": "way/39201161",
        "addr:street": "University Avenue",
        "addr:housenumber": "1050",
        "person_counts": [
          0,
          0,
          0,
          0,
          0,
          0,
          0,
          0,
          0,
          0,
          0,
          0,
          0,
          0,
          0,
          0,
          0,
          0,
          0,
          0,
          0,
          0,
          0,
          0,
          0,
          0,
          0,
          0,
          0,
          0,
          0,
          0,
          0,
          0,
          0,
          0,
          0,
          0,
          0,
          0,
          0,
          0,
          0,
          0,
          0,
          0,
          0,
          0,
          0,
          0,
          0,
          0,
          0,
          0,
          0,
          0,
          0,
          0,
          0,
          0,
          0,
          0,
          0,
          0,
          0,
          0,
          0,
          0,
          0,
          0,
          0,
          0
        ],
        "instructor_counts": [
          0,
          0,
          0,
          0,
          0,
          0,
          0,
          0,
          0,
          0,
          0,
          0,
          2,
          2,
          2,
          2,
          2,
          2,
          2,
          2,
          2,
          2,
          2,
          2,
          2,
          2,
          2,
          2,
          2,
          2,
          2,
          2,
          2,
          2,
          2,
          2,
          2,
          2,
          2,
          2,
          2,
          2,
          2,
          2,
          2,
          2,
          2,
          2,
          2,
          2,
          2,
          2,
          2,
          2,
          2,
          0,
          0,
          0,
          0,
          0,
          0,
          0,
          0,
          0,
          0,
          0,
          0,
          0,
          0,
          0,
          0,
          0
        ]
      }
    },
    {
      "type": "Feature",
      "geometry": {
        "type": "Polygon",
        "coordinates": [
          [
            [
              -89.39588627042771,
              43.0687350727041
            ],
            [
              -89.39576104120474,
              43.06916142563115
            ],
            [
              -89.39584181636496,
              43.06917422169614
            ],
            [
              -89.39584350529451,
              43.06917457294284
            ],
            [
              -89.39584515284407,
              43.06917508425261
            ],
            [
              -89.39584674388135,
              43.069175750929205
            ],
            [
              -89.39584826379304,
              43.069176566849364
            ],
            [
              -89.39584969861916,
              43.06917752451908
            ],
            [
              -89.3958510351812,
              43.06917861514238
            ],
            [
              -89.39585226120316,
              43.069179828702175
            ],
            [
              -89.39585336542436,
              43.069181154052245
            ],
            [
              -89.39585433770281,
              43.06918257901957
            ],
            [
              -89.39585516910837,
              43.069184090516195
            ],
            [
              -89.39585585200481,
              43.06918567465941
            ],
            [
              -89.39585638011988,
              43.06918731689926
            ],
            [
              -89.395856748603,
              43.06918900215219
            ],
            [
              -89.39585695406973,
              43.069190714939594
            ],
            [
              -89.39585699463291,
              43.06919243952995
            ],
            [
              -89.39585686991997,
              43.069194160083335
            ],
            [
              -89.39585658107639,
              43.0691958607969
            ],
            [
              -89.39585613075512,
              43.06919752605004
            ],
            [
              -89.39576613075512,
              43.06947652605004
            ],
            [
              -89.39576552741194,
              43.06947813054376
            ],
            [
              -89.39576477417826,
              43.0694796703691
            ],
            [
              -89.39576387788527,
              43.06948113156106
            ],
            [
              -89.39576284666168,
              43.06948250086781
            ],
            [
              -89.39576168985984,
              43.0694837658708
            ],
            [
              -89.39576041797103,
              43.06948491509747
            ],
            [
              -89.39575904253027,
              43.06948593812523
            ],
            [
              -89.39575757601175,
              43.06948682567605
            ],
            [
              -89.39575603171558,
              43.06948756970054
            ],
            [
              -89.39575442364733,
              43.06948816345098
            ],
            [
              -89.39575276639091,
              43.06948860154253
            ],
            [
              -89.3957510749763,
              43.06948888000205
            ],
            [
              -89.39574936474331,
              43.06948899630413
            ],
            [
              -89.39574765120238,
              43.069488949394
            ],
            [
              -89.39574594989398,
              43.0694887396971
            ],
            [
              -89.39525583395096,
              43.06940447075038
            ],
            [
              -89.39524329632518,
              43.06944798368691
            ],
            [
              -89.39524273314102,
              43.06944963339971
            ],
            [
              -89.3952420130202,
              43.069451220899225
            ],
            [
              -89.39524114271659,
              43.06945273129664
            ],
            [
              -89.39524013039258,
              43.06945415042624
            ],
            [
              -89.39523898554256,
              43.06945546497831
            ],
            [
              -89.39523771890383,
              43.069456662623935
            ],
            [
              -89.39523634235594,
              43.06945773213065
            ],
            [
              -89.39523486880924,
              43.06945866346777
            ],
            [
              -89.39523331208382,
              43.06945944790048
            ],
            [
              -89.39523168677988,
              43.06946007807174
            ],
            [
              -89.39523000814081,
              43.069460548071326
            ],
            [
              -89.39522829191023,
              43.06946085349119
            ],
            [
              -89.39522655418429,
              43.06946099146686
            ],
            [
              -89.39522481126077,
              43.069460960704305
            ],
            [
              -89.3952230794862,
              43.06946076149203
            ],
            [
              -89.3949250794862,
              43.069411761492034
            ],
            [
              -89.39492331064409,
              43.06941137843322
            ],
            [
              -89.39492158920986,
              43.069410819684
            ],
            [
              -89.39491993258667,
              43.06941009089316
            ],
            [
              -89.39491835752247,
              43.06940919942852
            ],
            [
              -89.39491687994062,
              43.069408154302515
            ],
            [
              -89.39491551477903,
              43.06940696608103
            ],
            [
              -89.39491427583901,
              43.06940564677662
            ],
            [
              -89.3949131756459,
              43.06940420972702
            ],
            [
              -89.39491222532226,
              43.06940266946033
            ],
            [
              -89.39491143447557,
              43.069401041548176
            ],
            [
              -89.39491081110104,
              43.069399342448214
            ],
            [
              -89.39491036150079,
              43.06939758933781
            ],
            [
              -89.39491009022014,
              43.06939579994035
            ],
            [
              -89.39491000000162,
              43.069393992346065
            ],
            [
              -89.39491009175734,
              43.06939218482916
            ],
            [
              -89.39491036455968,
              43.069390395663056
            ],
            [
              -89.39491081565068,
              43.06938864293564
            ],
            [
              -89.39498065130618,
              43.06916462466407
            ],
            [
              -89.39461772096377,
              43.06915899783706
            ],
            [
              -89.39461598242693,
              43.06915888657036
            ],
            [
              -89.3946142627886,
              43.0691586077611
            ],
            [
              -89.39461257815653,
              43.0691581640209
            ],
            [
              -89.39461094431056,
              43.06915755950623
            ],
            [
              -89.39460937655487,
              43.06915679987956
            ],
            [
              -89.39460788957452,
              43.06915589225626
            ],
            [
              -89.39460649729797,
              43.069154845138
            ],
            [
              -89.39460521276663,
              43.06915366833308
            ],
            [
              -89.39460404801262,
              43.06915237286456
            ],
            [
              -89.39460301394612,
              43.06915097086703
            ],
            [
              -89.39460212025318,
              43.06914947547292
            ],
            [
              -89.39460137530499,
              43.069147900689515
            ],
            [
              -89.39460078607941,
              43.06914626126772
            ],
            [
              -89.3946003580957,
              43.06914457256391
            ],
            [
              -89.39460009536276,
              43.069142850396084
            ],
            [
              -89.3946000003416,
              43.06914111089571
            ],
            [
              -89.39460007392228,
              43.06913937035657
            ],
            [
              -89.39460307392228,
              43.069106370356565
            ],
            [
              -89.39460331141478,
              43.0691046662404
            ],
            [
              -89.39460371052934,
              43.06910299258507
            ],
            [
              -89.3946042676192,
              43.0691013646829
            ],
            [
              -89.39460497759421,
              43.06909979740817
            ],
            [
              -89.39460583396725,
              43.0690983050812
            ],
            [
              -89.39460682891358,
              43.06909690133749
            ],
            [
              -89.39460795334229,
              43.06909559900317
            ],
            [
              -89.39460919697937,
              43.06909440997778
            ],
            [
              -89.39461054846163,
              43.06909334512554
            ],
            [
              -89.39512654846163,
              43.068725345125536
            ],
            [
              -89.3951265788281,
              43.068725323516226
            ],
            [
              -89.3952955788281,
              43.06860532351623
            ],
            [
              -89.3952971164311,
              43.06860434489849
            ],
            [
              -89.3952987451158,
              43.06860352678978
            ],
            [
              -89.39530044818355,
              43.06860287757804
            ],
            [
              -89.39530220817312,
              43.068602403919506
            ],
            [
              -89.39530400703963,
              43.06860211067053
            ],
            [
              -89.39530582633961,
              43.06860200083774
            ],
            [
              -89.39530764742011,
              43.06860207554723
            ],
            [
              -89.39530945160989,
              43.06860233403303
            ],
            [
              -89.39587245160989,
              43.06871233403303
            ],
            [
              -89.39587416104045,
              43.0687127557644
            ],
            [
              -89.39587582109053,
              43.06871334248746
            ],
            [
              -89.39587741587687,
              43.06871408858848
            ],
            [
              -89.39587893014067,
              43.06871498692882
            ],
            [
              -89.39588034939355,
              43.06871602891321
            ],
            [
              -89.39588166005619,
              43.06871720457202
            ],
            [
              -89.39588284958826,
              43.068718502656615
            ],
            [
              -89.39588390660842,
              43.06871991074703
            ],
            [
              -89.39588482100314,
              43.06872141537073
            ],
            [
              -89.39588558402357,
              43.06872300213159
            ],
            [
              -89.39588618836918,
              43.06872465584758
            ],
            [
              -89.39588662825763,
              43.06872636069607
            ],
            [
              -89.39588689948009,
              43.06872810036517
            ],
            [
              -89.39588699944154,
              43.06872985820985
            ],
            [
              -89.39588692718554,
              43.06873161741117
            ],
            [
              -89.39588668340343,
              43.0687333611372
            ],
            [
              -89.39588627042771,
              43.0687350727041
            ]
          ]
        ]
      },
      "properties": {
        "building": "university",
        "name": "Art Lofts",
        "@id": "way/102234779",
        "addr:street": "North Frances Street",
        "addr:housenumber": "111",
        "person_counts": [
          0,
          0,
          0,
          0,
          0,
          0,
          0,
          0,
          0,
          0,
          0,
          0,
          0,
          0,
          0,
          0,
          0,
          0,
          0,
          0,
          0,
          0,
          0,
          0,
          0,
          0,
          0,
          0,
          0,
          0,
          0,
          0,
          0,
          0,
          0,
          0,
          0,
          0,
          0,
          0,
          0,
          0,
          0,
          0,
          0,
          0,
          0,
          0,
          0,
          0,
          0,
          0,
          0,
          0,
          0,
          0,
          0,
          0,
          0,
          0,
          0,
          0,
          0,
          0,
          0,
          0,
          0,
          0,
          0,
          0,
          0,
          0
        ],
        "instructor_counts": [
          0,
          0,
          0,
          0,
          0,
          0,
          0,
          0,
          0,
          0,
          0,
          0,
          0,
          0,
          0,
          0,
          0,
          0,
          0,
          0,
          0,
          0,
          0,
          0,
          0,
          0,
          0,
          0,
          0,
          0,
          0,
          0,
          0,
          0,
          0,
          0,
          0,
          0,
          0,
          0,
          0,
          0,
          0,
          0,
          0,
          0,
          0,
          0,
          0,
          0,
          0,
          0,
          0,
          0,
          0,
          0,
          0,
          0,
          0,
          0,
          0,
          0,
          0,
          0,
          0,
          0,
          0,
          0,
          0,
          0,
          0,
          0
        ]
      }
    },
    {
      "type": "Feature",
      "geometry": {
        "type": "Polygon",
        "coordinates": [
          [
            [
              -89.4003969960124,
              43.07356937886342
            ],
            [
              -89.40039499601241,
              43.07366437886342
            ],
            [
              -89.40039479069056,
              43.07366673702933
            ],
            [
              -89.40039295566243,
              43.073678664712155
            ],
            [
              -89.40039150168211,
              43.07372373810197
            ],
            [
              -89.40039215999869,
              43.073724141520046
            ],
            [
              -89.40039359206301,
              43.07372522959424
            ],
            [
              -89.40039490839584,
              43.073726455147806
            ],
            [
              -89.40039609585533,
              43.07372780594522
            ],
            [
              -89.40039714258624,
              43.073729268500536
            ],
            [
              -89.40039803813835,
              43.07373082821208
            ],
            [
              -89.40039877357076,
              43.073732469508165
            ],
            [
              -89.40039934154113,
              43.07373417600262
            ],
            [
              -89.40039973637904,
              43.07373593065834
            ],
            [
              -89.40039995414254,
              43.0737377159574
            ],
            [
              -89.40039999265755,
              43.07373951407593
            ],
            [
              -89.40038799244331,
              43.074159521520095
            ],
            [
              -89.40038599244332,
              43.07422852152009
            ],
            [
              -89.4003859766179,
              43.07422891717438
            ],
            [
              -89.40038097990542,
              43.07432685273886
            ],
            [
              -89.40036498273084,
              43.07469178828409
            ],
            [
              -89.40036496893872,
              43.07469205699639
            ],
            [
              -89.400364,
              43.074708528954694
            ],
            [
              -89.400364,
              43.074727
            ],
            [
              -89.40036396013284,
              43.07472819734219
            ],
            [
              -89.40036296794437,
              43.07474308016919
            ],
            [
              -89.40035997422638,
              43.074798962904985
            ],
            [
              -89.40035980011874,
              43.07480067502766
            ],
            [
              -89.40035946330056,
              43.07480236269796
            ],
            [
              -89.4003589668507,
              43.074804010488926
            ],
            [
              -89.4003583153072,
              43.074805603338135
            ],
            [
              -89.40035751462581,
              43.07480712668538
            ],
            [
              -89.40035657212553,
              43.074808566605775
            ],
            [
              -89.40035549642174,
              43.07480990993704
            ],
            [
              -89.40035429734742,
              43.0748111443998
            ],
            [
              -89.40035298586331,
              43.074812258709876
            ],
            [
              -89.40035157395764,
              43.074813242681365
            ],
            [
              -89.4003500745366,
              43.07481408731981
            ],
            [
              -89.4003485013064,
              43.07481478490438
            ],
            [
              -89.40034686864787,
              43.07481532905848
            ],
            [
              -89.40034519148514,
              43.074815714808004
            ],
            [
              -89.40034348514911,
              43.07481593862682
            ],
            [
              -89.40034176523736,
              43.074815998469006
            ],
            [
              -89.39988176523737,
              43.07480999846901
            ],
            [
              -89.39988172730403,
              43.074809997934246
            ],
            [
              -89.39981572730403,
              43.07480899793424
            ],
            [
              -89.39981560009873,
              43.0748089955572
            ],
            [
              -89.39972560009873,
              43.0748069955572
            ],
            [
              -89.39972383178828,
              43.07480686893556
            ],
            [
              -89.39972208451051,
              43.0748065689767
            ],
            [
              -89.39972037521487,
              43.07480609859036
            ],
            [
              -89.39971872048233,
              43.074805462339526
            ],
            [
              -89.39971713636459,
              43.07480466639612
            ],
            [
              -89.39971563822836,
              43.074803718481185
            ],
            [
              -89.39971424060626,
              43.07480262778995
            ],
            [
              -89.3997129570559,
              43.07480140490263
            ],
            [
              -89.39971180002834,
              43.07480006168183
            ],
            [
              -89.3997107807473,
              43.074798611157426
            ],
            [
              -89.39970990910027,
              43.0747970674002
            ],
            [
              -89.39970919354268,
              43.074795445385334
            ],
            [
              -89.39970864101575,
              43.07479376084714
            ],
            [
              -89.39970825687926,
              43.07479203012647
            ],
            [
              -89.39970804485954,
              43.074790270012116
            ],
            [
              -89.39970800701325,
              43.074788497578034
            ],
            [
              -89.39972400701325,
              43.07421549757803
            ],
            [
              -89.39972401006604,
              43.0742153981063
            ],
            [
              -89.39974200752306,
              43.07367747411289
            ],
            [
              -89.39974500562236,
              43.073557550140556
            ],
            [
              -89.39974513576934,
              43.073555793359276
            ],
            [
              -89.39974543701699,
              43.07355405771284
            ],
            [
              -89.39974590647999,
              43.07355235982499
            ],
            [
              -89.39974653966193,
              43.07355071595779
            ],
            [
              -89.39974733049827,
              43.07354914185596
            ],
            [
              -89.39974827141452,
              43.07354765259598
            ],
            [
              -89.39974935339873,
              43.073546262441724
            ],
            [
              -89.39975056608786,
              43.07354498470787
            ],
            [
              -89.39975189786695,
              43.07354383163235
            ],
            [
              -89.39975333598044,
              43.07354281425912
            ],
            [
              -89.3997548666543,
              43.07354194233242
            ],
            [
              -89.39975647522803,
              43.07354122420342
            ],
            [
              -89.39975814629496,
              43.07354066675023
            ],
            [
              -89.39975986384985,
              43.07354027531206
            ],
            [
              -89.39976161144229,
              43.07354005363804
            ],
            [
              -89.3997633723341,
              43.07354000385132
            ],
            [
              -89.3999083390119,
              43.073543003161895
            ],
            [
              -89.40037930568839,
              43.07355100259589
            ],
            [
              -89.40038107281441,
              43.073551119747194
            ],
            [
              -89.4003828198747,
              43.073551409987
            ],
            [
              -89.40038452995695,
              43.07355187050567
            ],
            [
              -89.40038618650686,
              43.073552496845174
            ],
            [
              -89.4003877734883,
              43.07355328294229
            ],
            [
              -89.40038927553863,
              43.07355422118726
            ],
            [
              -89.40039067811733,
              43.07355530249747
            ],
            [
              -89.40039196764685,
              43.07355651640537
            ],
            [
              -89.40039313164401,
              43.073557851159805
            ],
            [
              -89.4003941588408,
              43.0735592938398
            ],
            [
              -89.4003950392935,
              43.07356083047958
            ],
            [
              -89.40039576447899,
              43.07356244620381
            ],
            [
              -89.40039632737712,
              43.073564125371604
            ],
            [
              -89.40039672253883,
              43.073565851727885
            ],
            [
              -89.40039694613877,
              43.073567608560786
            ],
            [
              -89.4003969960124,
              43.07356937886342
            ]
          ],
          [
            [
              -89.40017900000001,
              43.074353863128145
            ],
            [
              -89.40017900000001,
              43.07427880350851
            ],
            [
              -89.40017707369375,
              43.074277305270314
            ],
            [
              -89.40016984487566,
              43.07427188365674
            ],
            [
              -89.39992580944936,
              43.074267135885805
            ],
            [
              -89.39992010811028,
              43.074272318921324
            ],
            [
              -89.3999188,
              43.074273399999996
            ],
            [
              -89.39991752788838,
              43.074274354083705
            ],
            [
              -89.39991344633401,
              43.07435108730586
            ],
            [
              -89.40017900000001,
              43.074353863128145
            ]
          ]
        ]
      },
      "properties": {
        "building": "university",
        "name": "Mosse Humanities Building",
        "@id": "relation/2075103",
        "addr:street": "North Park Street",
        "addr:housenumber": "455",
        "person_counts": [
          0,
          0,
          0,
          0,
          0,
          0,
          0,
          0,
          0,
          0,
          0,
          0,
          0,
          0,
          0,
          0,
          0,
          0,
          0,
          0,
          0,
          0,
          0,
          0,
          0,
          0,
          0,
          0,
          0,
          0,
          0,
          0,
          0,
          0,
          0,
          0,
          0,
          0,
          0,
          0,
          0,
          0,
          0,
          0,
          0,
          0,
          0,
          0,
          0,
          0,
          0,
          0,
          0,
          0,
          0,
          0,
          0,
          0,
          0,
          0,
          0,
          0,
          0,
          0,
          0,
          0,
          0,
          0,
          0,
          0,
          0,
          0
        ],
        "instructor_counts": [
          0,
          0,
          0,
          0,
          0,
          0,
          0,
          0,
          0,
          0,
          0,
          0,
          0,
          0,
          0,
          0,
          0,
          0,
          0,
          0,
          0,
          0,
          0,
          0,
          0,
          0,
          0,
          0,
          0,
          0,
          0,
          0,
          0,
          0,
          0,
          0,
          0,
          0,
          0,
          0,
          0,
          0,
          0,
          0,
          0,
          0,
          0,
          0,
          0,
          0,
          0,
          0,
          0,
          0,
          0,
          0,
          0,
          0,
          0,
          0,
          0,
          0,
          0,
          0,
          0,
          0,
          0,
          0,
          0,
          0,
          0,
          0
        ]
      }
    },
    {
      "type": "Feature",
      "geometry": {
        "type": "Polygon",
        "coordinates": [
          [
            [
              -89.40718797677422,
              43.07321099998502
            ],
            [
              -89.40641297677422,
              43.07320999998502
            ],
            [
              -89.40641113360218,
              43.07320990297627
            ],
            [
              -89.40640931005436,
              43.073209617726896
            ],
            [
              -89.40640752530442,
              43.07320914723617
            ],
            [
              -89.40640579811809,
              43.07320849645104
            ],
            [
              -89.40640414665586,
              43.07320767221419
            ],
            [
              -89.406402588282,
              43.07320668319204
            ],
            [
              -89.40635238591064,
              43.07317108514689
            ],
            [
              -89.40622326663741,
              43.073172998025015
            ],
            [
              -89.40622143623143,
              43.07317293194434
            ],
            [
              -89.40621962201699,
              43.073172680193174
            ],
            [
              -89.40621784277877,
              43.073172245378196
            ],
            [
              -89.40621611693932,
              43.073171632001554
            ],
            [
              -89.4062144623683,
              43.07317084641426
            ],
            [
              -89.4062128961974,
              43.073169896750414
            ],
            [
              -89.40621143464304,
              43.07316879284301
            ],
            [
              -89.4062100928384,
              43.0731675461221
            ],
            [
              -89.40607109283842,
              43.0730245461221
            ],
            [
              -89.40606990652016,
              43.073023197045394
            ],
            [
              -89.40606886058683,
              43.073021736435095
            ],
            [
              -89.40606796545696,
              43.073020178840316
            ],
            [
              -89.40606723004692,
              43.073018539776236
            ],
            [
              -89.40606666168212,
              43.07301683556955
            ],
            [
              -89.40606626602404,
              43.07301508319582
            ],
            [
              -89.40606604701382,
              43.07301330011043
            ],
            [
              -89.40606600683303,
              43.073011504074664
            ],
            [
              -89.40606614588188,
              43.0730097129788
            ],
            [
              -89.40606646277533,
              43.07300794466392
            ],
            [
              -89.4060669543568,
              43.073006216744176
            ],
            [
              -89.40606761572967,
              43.073004546431356
            ],
            [
              -89.406068440306,
              43.07300295036342
            ],
            [
              -89.4060694198722,
              43.073001444438766
            ],
            [
              -89.40607054467081,
              43.0730000436579
            ],
            [
              -89.40607180349777,
              43.07299876197397
            ],
            [
              -89.40607318381389,
              43.07299761215382
            ],
            [
              -89.40607467186986,
              43.07299660565077
            ],
            [
              -89.4060762528432,
              43.072995752490606
            ],
            [
              -89.4063778190733,
              43.072851959321284
            ],
            [
              -89.40664,
              43.072709302052345
            ],
            [
              -89.40664,
              43.072353
            ],
            [
              -89.40664008688076,
              43.07235123360272
            ],
            [
              -89.40664034668437,
              43.0723494842572
            ],
            [
              -89.40664077690282,
              43.072347768850626
            ],
            [
              -89.40664137338304,
              43.07234610394253
            ],
            [
              -89.40664213036695,
              43.07234450560495
            ],
            [
              -89.40664304054708,
              43.072342989267334
            ],
            [
              -89.40664409513707,
              43.072341569567506
            ],
            [
              -89.40664528395651,
              43.07234026021043
            ],
            [
              -89.40664659552925,
              43.07233907383588
            ],
            [
              -89.40664801719413,
              43.072338021896414
            ],
            [
              -89.4066495352272,
              43.072337114546855
            ],
            [
              -89.40665113497427,
              43.07233636054623
            ],
            [
              -89.4066528009923,
              43.072335767173215
            ],
            [
              -89.40665451719855,
              43.07233534015589
            ],
            [
              -89.40665626702572,
              43.07233508361643
            ],
            [
              -89.40665803358202,
              43.07233500003132
            ],
            [
              -89.40719403358203,
              43.07233600003132
            ],
            [
              -89.40719580364222,
              43.07233609059256
            ],
            [
              -89.40719755621537,
              43.07233635479293
            ],
            [
              -89.40719927430952,
              43.07233679007091
            ],
            [
              -89.40720094126705,
              43.07233739220629
            ],
            [
              -89.40720254092612,
              43.07233815536112
            ],
            [
              -89.40720405777738,
              43.0723390721363
            ],
            [
              -89.40720547711429,
              43.072340133643316
            ],
            [
              -89.40720678517583,
              43.07234132959041
            ],
            [
              -89.40720796927978,
              43.07234264838238
            ],
            [
              -89.40720901794577,
              43.072344077233
            ],
            [
              -89.40720992100654,
              43.07234560228896
            ],
            [
              -89.40721066970656,
              43.072347208764214
            ],
            [
              -89.40721125678684,
              43.072348881083315
            ],
            [
              -89.40721167655542,
              43.07235060303243
            ],
            [
              -89.40721192494246,
              43.072352357916564
            ],
            [
              -89.40721199953974,
              43.07235412872138
            ],
            [
              -89.40720599953974,
              43.073193128721385
            ],
            [
              -89.40720590094213,
              43.07319488580784
            ],
            [
              -89.4072056312317,
              43.073196624868096
            ],
            [
              -89.40720519298661,
              43.07319832927871
            ],
            [
              -89.40720459039598,
              43.07319998274743
            ],
            [
              -89.40720382921988,
              43.07320156946897
            ],
            [
              -89.4072029167343,
              43.07320307427606
            ],
            [
              -89.40720186166158,
              43.07320448278443
            ],
            [
              -89.40720067408702,
              43.073205781530355
            ],
            [
              -89.4071993653625,
              43.07320695809928
            ],
            [
              -89.40719794799794,
              43.07320800124452
            ],
            [
              -89.40719643554175,
              43.07320890099479
            ],
            [
              -89.4071948424513,
              43.07320964874951
            ],
            [
              -89.40719318395475,
              43.073210237360975
            ],
            [
              -89.40719147590544,
              43.07321066120272
            ],
            [
              -89.40718973463038,
              43.07321091622331
            ],
            [
              -89.40718797677422,
              43.07321099998502
            ]
          ]
        ]
      },
      "properties": {
        "building": "university",
        "name": "Morgridge Hall",
        "@id": "way/1391651477",
        "person_counts": [
          0,
          0,
          0,
          0,
          0,
          0,
          0,
          0,
          0,
          0,
          0,
          0,
          0,
          0,
          0,
          0,
          0,
          0,
          0,
          0,
          0,
          0,
          0,
          0,
          0,
          0,
          0,
          0,
          0,
          0,
          0,
          0,
          0,
          0,
          0,
          0,
          0,
          0,
          0,
          0,
          0,
          0,
          0,
          0,
          0,
          0,
          0,
          0,
          0,
          0,
          0,
          0,
          0,
          0,
          0,
          0,
          0,
          0,
          0,
          0,
          0,
          0,
          0,
          0,
          0,
          0,
          0,
          0,
          0,
          0,
          0,
          0
        ],
        "instructor_counts": [
          0,
          0,
          0,
          0,
          0,
          0,
          0,
          0,
          0,
          0,
          0,
          0,
          0,
          0,
          0,
          0,
          0,
          0,
          0,
          0,
          0,
          0,
          0,
          0,
          0,
          0,
          0,
          0,
          0,
          0,
          0,
          0,
          0,
          0,
          0,
          0,
          0,
          0,
          0,
          0,
          0,
          0,
          0,
          0,
          0,
          0,
          0,
          0,
          0,
          0,
          0,
          0,
          0,
          0,
          0,
          0,
          0,
          0,
          0,
          0,
          0,
          0,
          0,
          0,
          0,
          0,
          0,
          0,
          0,
          0,
          0,
          0
        ]
      }
    },
    {
      "type": "Feature",
      "geometry": {
        "type": "Polygon",
        "coordinates": [
          [
            [
              -89.428225,
              43.077676
            ],
            [
              -89.428225,
              43.077619999999996
            ],
            [
              -89.42789889972224,
              43.077619999999996
            ],
            [
              -89.42789699971912,
              43.077960100557085
            ],
            [
              -89.4278969038391,
              43.07796185810271
            ],
            [
              -89.42789663675862,
              43.07796359788074
            ],
            [
              -89.42789620103154,
              43.07796530325505
            ],
            [
              -89.4278956008244,
              43.077966957918456
            ],
            [
              -89.42789484187652,
              43.0779685460487
            ],
            [
              -89.42789393144511,
              43.077970052459754
            ],
            [
              -89.42789287823592,
              43.07797146274696
            ],
            [
              -89.42789169231997,
              43.077972763424846
            ],
            [
              -89.42789038503726,
              43.07797394205604
            ],
            [
              -89.4278889688883,
              43.07797498737022
            ],
            [
              -89.42788745741463,
              43.07797588937185
            ],
            [
              -89.4278858650693,
              43.077976639435796
            ],
            [
              -89.42788420707865,
              43.07797723038978
            ],
            [
              -89.42788249929677,
              43.077977656582966
            ],
            [
              -89.42788075805383,
              43.07797791394001
            ],
            [
              -89.427879,
              43.077977999999995
            ],
            [
              -89.42778362890583,
              43.077977999999995
            ],
            [
              -89.42778299609502,
              43.078008374918646
            ],
            [
              -89.4277828754575,
              43.07801011376891
            ],
            [
              -89.4277825872015,
              43.078011832798325
            ],
            [
              -89.42778213403001,
              43.07801351588753
            ],
            [
              -89.42778152019243,
              43.07801514725415
            ],
            [
              -89.4277807514447,
              43.07801671160085
            ],
            [
              -89.42777983499542,
              43.07801819425872
            ],
            [
              -89.42777877943811,
              43.07801958132484
            ],
            [
              -89.42777759467077,
              43.07802085979268
            ],
            [
              -89.427776291803,
              43.078022017674016
            ],
            [
              -89.42777488305178,
              43.07802304411138
            ],
            [
              -89.42777338162702,
              43.078023929479855
            ],
            [
              -89.42777180160759,
              43.078024665477315
            ],
            [
              -89.42777015780936,
              43.0780252452023
            ],
            [
              -89.42776846564628,
              43.078025663218725
            ],
            [
              -89.42776674098576,
              43.07802591560684
            ],
            [
              -89.427765,
              43.078025999999994
            ],
            [
              -89.42771,
              43.078025999999994
            ],
            [
              -89.42770821237171,
              43.07802591101295
            ],
            [
              -89.42770644241851,
              43.07802564493167
            ],
            [
              -89.4277047076407,
              43.078025204387025
            ],
            [
              -89.42770302519084,
              43.078024593734874
            ],
            [
              -89.42770141170405,
              43.078023819013005
            ],
            [
              -89.4276998831336,
              43.078022887881446
            ],
            [
              -89.42769845459314,
              43.07802180954671
            ],
            [
              -89.42769714020733,
              43.07802059467078
            ],
            [
              -89.42769595297206,
              43.07801925526569
            ],
            [
              -89.42769490462607,
              43.07801780457472
            ],
            [
              -89.42769400553482,
              43.07801625694152
            ],
            [
              -89.42769326458803,
              43.07801462766822
            ],
            [
              -89.4276926891118,
              43.07801293286419
            ],
            [
              -89.42769228479608,
              43.07801118928671
            ],
            [
              -89.42769205563854,
              43.07800941417533
            ],
            [
              -89.42769200390498,
              43.078007625081355
            ],
            [
              -89.42769262109417,
              43.077977999999995
            ],
            [
              -89.427551,
              43.077977999999995
            ],
            [
              -89.42754923218185,
              43.077977912979065
            ],
            [
              -89.42754748145673,
              43.07797765275767
            ],
            [
              -89.42754576475237,
              43.07797722185188
            ],
            [
              -89.42754409866758,
              43.07797662442814
            ],
            [
              -89.42754249931174,
              43.07797586626292
            ],
            [
              -89.42754098214898,
              43.07797495468692
            ],
            [
              -89.42753956184875,
              43.077973898514166
            ],
            [
              -89.42753825214392,
              43.077972707956775
            ],
            [
              -89.42753706569802,
              43.077971394526244
            ],
            [
              -89.42753601398279,
              43.077969970922126
            ],
            [
              -89.42753510716723,
              43.07796845090923
            ],
            [
              -89.42753435401937,
              43.077966849184556
            ],
            [
              -89.42753376182138,
              43.077965181235164
            ],
            [
              -89.4275333362992,
              43.07796346318845
            ],
            [
              -89.42753308156722,
              43.077961711656194
            ],
            [
              -89.42753300008843,
              43.077959943573944
            ],
            [
              -89.42753400008844,
              43.07764094357395
            ],
            [
              -89.42753409193733,
              43.07763918305438
            ],
            [
              -89.42753435556352,
              43.07763743996328
            ],
            [
              -89.42753478843828,
              43.077635731020685
            ],
            [
              -89.42753538640937,
              43.07763407261907
            ],
            [
              -89.42753614374098,
              43.07763248066612
            ],
            [
              -89.42753705316862,
              43.077630970432125
            ],
            [
              -89.42753810596892,
              43.07762955640352
            ],
            [
              -89.42753929204322,
              43.077628252143924
            ],
            [
              -89.4275406000145,
              43.07762707016402
            ],
            [
              -89.42754201733645,
              43.077626021801564
            ],
            [
              -89.42754353041389,
              43.07762511711264
            ],
            [
              -89.42754512473307,
              43.07762436477518
            ],
            [
              -89.42754678500106,
              43.07762377200575
            ],
            [
              -89.42754849529221,
              43.077623344490284
            ],
            [
              -89.42755023920117,
              43.077623086329595
            ],
            [
              -89.427552,
              43.077623
            ],
            [
              -89.42756412631422,
              43.077623
            ],
            [
              -89.4275648727931,
              43.077517
            ],
            [
              -89.427558,
              43.077517
            ],
            [
              -89.42755623569148,
              43.077516913325084
            ],
            [
              -89.42755448837421,
              43.07751665413505
            ],
            [
              -89.42755277487582,
              43.07751622492604
            ],
            [
              -89.42755111169822,
              43.07751562983159
            ],
            [
              -89.42754951485874,
              43.07751487458276
            ],
            [
              -89.42754799973581,
              43.077513966453026
            ],
            [
              -89.42754658092089,
              43.07751291418816
            ],
            [
              -89.42754527207795,
              43.077511727922065
            ],
            [
              -89.42754408581185,
              43.07751041907912
            ],
            [
              -89.42754303354698,
              43.0775090002642
            ],
            [
              -89.42754212541725,
              43.07750748514127
            ],
            [
              -89.42754137016841,
              43.077505888301786
            ],
            [
              -89.42754077507396,
              43.077504225124194
            ],
            [
              -89.42754034586495,
              43.0775025116258
            ],
            [
              -89.42754008667492,
              43.07750076430853
            ],
            [
              -89.42754000000001,
              43.077499
            ],
            [
              -89.42754000000001,
              43.077442
            ],
            [
              -89.42754008667492,
              43.07744023569147
            ],
            [
              -89.42754034586495,
              43.0774384883742
            ],
            [
              -89.42754077507396,
              43.07743677487581
            ],
            [
              -89.42754137016841,
              43.077435111698215
            ],
            [
              -89.42754212541725,
              43.07743351485873
            ],
            [
              -89.42754303354698,
              43.0774319997358
            ],
            [
              -89.42754408581185,
              43.07743058092088
            ],
            [
              -89.42754527207795,
              43.077429272077936
            ],
            [
              -89.42754658092089,
              43.07742808581184
            ],
            [
              -89.42754799973581,
              43.077427033546975
            ],
            [
              -89.42754951485874,
              43.07742612541724
            ],
            [
              -89.42755111169822,
              43.07742537016841
            ],
            [
              -89.427552,
              43.077425052328955
            ],
            [
              -89.427552,
              43.077245
            ],
            [
              -89.42755208756645,
              43.077243226663
            ],
            [
              -89.42755234941379,
              43.077241470579864
            ],
            [
              -89.42755278299437,
              43.0772397488366
            ],
            [
              -89.4275533840896,
              43.077238078185076
            ],
            [
              -89.4275541468511,
              43.07723647488008
            ],
            [
              -89.42755506385745,
              43.07723495452113
            ],
            [
              -89.42755612618657,
              43.07723353190072
            ],
            [
              -89.42755732350243,
              43.07723222086039
            ],
            [
              -89.42755864415558,
              43.077231034156036
            ],
            [
              -89.42756007529663,
              43.07722998333382
            ],
            [
              -89.42756160300111,
              43.07722907861785
            ],
            [
              -89.42756321240508,
              43.07722832881062
            ],
            [
              -89.42756488784967,
              43.07722774120749
            ],
            [
              -89.42756661303345,
              43.077227321525584
            ],
            [
              -89.42756837117109,
              43.077227073848256
            ],
            [
              -89.42757014515658,
              43.077227000585296
            ],
            [
              -89.42769414515658,
              43.0772280005853
            ],
            [
              -89.4276958996873,
              43.07722810052548
            ],
            [
              -89.4276976361102,
              43.07722837108334
            ],
            [
              -89.42769933787372,
              43.07722880967993
            ],
            [
              -89.42770098875667,
              43.07722941213455
            ],
            [
              -89.42770257302281,
              43.0772301727046
            ],
            [
              -89.42770407557097,
              43.07723108414034
            ],
            [
              -89.42770548207885,
              43.07723213775396
            ],
            [
              -89.42770677913961,
              43.077233323502426
            ],
            [
              -89.4277079543897,
              43.07723463008319
            ],
            [
              -89.42770899662662,
              43.077236045041936
            ],
            [
              -89.4277098959158,
              43.07723755489128
            ],
            [
              -89.42771064368519,
              43.07723914523936
            ],
            [
              -89.42771123280707,
              43.077240800926965
            ],
            [
              -89.42771165766595,
              43.07724250617211
            ],
            [
              -89.42771191421205,
              43.0772442447204
            ],
            [
              -89.427712,
              43.077246
            ],
            [
              -89.427712,
              43.07724601763841
            ],
            [
              -89.42871401764705,
              43.07724700000865
            ],
            [
              -89.42871578404552,
              43.077247088629825
            ],
            [
              -89.42871753322015,
              43.07724735017407
            ],
            [
              -89.42871924828376,
              43.07724778211634
            ],
            [
              -89.42872091267846,
              43.077248380286505
            ],
            [
              -89.42872251033558,
              43.07724913890961
            ],
            [
              -89.42872402583073,
              43.07725005066161
            ],
            [
              -89.42872544453276,
              43.07725110674013
            ],
            [
              -89.42872675274499,
              43.07725229694937
            ],
            [
              -89.42872793783744,
              43.077253609798625
            ],
            [
              -89.4287289883688,
              43.07725503261314
            ],
            [
              -89.42872989419683,
              43.07725655165654
            ],
            [
              -89.42873064657634,
              43.07725815226341
            ],
            [
              -89.42873123824356,
              43.0772598189809
            ],
            [
              -89.42873166348633,
              43.07726153571788
            ],
            [
              -89.42873191819919,
              43.07726328590034
            ],
            [
              -89.42873199992306,
              43.077265052631354
            ],
            [
              -89.42873099992306,
              43.07760705263136
            ],
            [
              -89.42873090842143,
              43.07760881340621
            ],
            [
              -89.42873064509288,
              43.07761055678187
            ],
            [
              -89.42873021246399,
              43.07761226603108
            ],
            [
              -89.42872961468574,
              43.07761392475402
            ],
            [
              -89.42872885749362,
              43.07761551703563
            ],
            [
              -89.42872794815275,
              43.07761702759838
            ],
            [
              -89.42872689538802,
              43.07761844194877
            ],
            [
              -89.42872570930045,
              43.077619746516476
            ],
            [
              -89.42872440127024,
              43.07762092878447
            ],
            [
              -89.42872298384765,
              43.077621977409194
            ],
            [
              -89.42872147063248,
              43.077622882329344
            ],
            [
              -89.42871987614367,
              43.077623634862434
            ],
            [
              -89.42871821567995,
              43.0776242277881
            ],
            [
              -89.42871650517304,
              43.07762465541735
            ],
            [
              -89.42871476103487,
              43.077624913647206
            ],
            [
              -89.428713,
              43.077625
            ],
            [
              -89.42861574469377,
              43.077625
            ],
            [
              -89.42861499816354,
              43.077677257116626
            ],
            [
              -89.42861488773785,
              43.077679007195606
            ],
            [
              -89.42861460754594,
              43.077680738225
            ],
            [
              -89.42861416024697,
              43.077682433776204
            ],
            [
              -89.42861355008613,
              43.077684077757354
            ],
            [
              -89.42861278285422,
              43.07768565456599
            ],
            [
              -89.42861186583279,
              43.07768714923718
            ],
            [
              -89.42861080772497,
              43.07768854758552
            ],
            [
              -89.42860961857286,
              43.07768983633978
            ],
            [
              -89.42860830966231,
              43.077691003268846
            ],
            [
              -89.42860689341573,
              43.0776920372978
            ],
            [
              -89.4286053832742,
              43.07769292861305
            ],
            [
              -89.42860379356998,
              43.07769366875541
            ],
            [
              -89.42860213939035,
              43.077694250700475
            ],
            [
              -89.42860043643459,
              43.07769466892519
            ],
            [
              -89.42859870086482,
              43.07769491946034
            ],
            [
              -89.42859694915275,
              43.077694999928184
            ],
            [
              -89.42824294915275,
              43.07769399992818
            ],
            [
              -89.4282411882579,
              43.07769390858985
            ],
            [
              -89.42823944474846,
              43.07769364540128
            ],
            [
              -89.4282377353551,
              43.07769321288802
            ],
            [
              -89.4282360764811,
              43.07769261520045
            ],
            [
              -89.42823448404496,
              43.07769185807396
            ],
            [
              -89.42823297332765,
              43.07769094877392
            ],
            [
              -89.42823155882596,
              43.07768989602593
            ],
            [
              -89.42823025411339,
              43.077688709932126
            ],
            [
              -89.42822907170994,
              43.077687401874236
            ],
            [
              -89.4282280229619,
              43.07768598440433
            ],
            [
              -89.42822711793303,
              43.077684471124414
            ],
            [
              -89.42822636530795,
              43.07768287655586
            ],
            [
              -89.42822577230883,
              43.07768121600011
            ],
            [
              -89.42822534462607,
              43.077679505391785
            ],
            [
              -89.4282250863637,
              43.07767776114584
            ],
            [
              -89.428225,
              43.077676
            ]
          ]
        ]
      },
      "properties": {
        "building": "university",
        "name": "Signe Skott Cooper Hall",
        "@id": "way/174188355",
        "addr:street": "Highland Avenue",
        "addr:housenumber": "701",
        "person_counts": [
          0,
          0,
          0,
          0,
          0,
          0,
          0,
          0,
          0,
          0,
          0,
          0,
          0,
          0,
          0,
          0,
          0,
          0,
          0,
          0,
          0,
          0,
          0,
          0,
          0,
          0,
          0,
          0,
          0,
          0,
          0,
          0,
          0,
          0,
          0,
          0,
          0,
          0,
          0,
          0,
          0,
          0,
          0,
          0,
          0,
          0,
          0,
          0,
          0,
          0,
          0,
          0,
          0,
          0,
          0,
          0,
          0,
          0,
          0,
          0,
          0,
          0,
          0,
          0,
          0,
          0,
          0,
          0,
          0,
          0,
          0,
          0
        ],
        "instructor_counts": [
          0,
          0,
          0,
          0,
          0,
          0,
          0,
          0,
          0,
          0,
          0,
          0,
          0,
          0,
          0,
          0,
          0,
          0,
          0,
          0,
          0,
          0,
          0,
          0,
          0,
          0,
          0,
          0,
          0,
          0,
          0,
          0,
          0,
          0,
          0,
          0,
          0,
          0,
          0,
          0,
          0,
          0,
          0,
          0,
          0,
          0,
          0,
          0,
          0,
          0,
          0,
          0,
          0,
          0,
          0,
          0,
          0,
          0,
          0,
          0,
          0,
          0,
          0,
          0,
          0,
          0,
          0,
          0,
          0,
          0,
          0,
          0
        ]
      }
    }
  ],
  "metadata": {
    "total_buildings": 5,
    "total_meetings": 19,
    "max_persons": 0,
    "total_chunks": 72,
    "chunk_duration_minutes": 5,
    "start_time": 1780405200000,
    "end_time": 1780426800000,
    "total_persons": [
      0,
      0,
      0,
      0,
      0,
      0,
      0,
      0,
      0,
      0,
      0,
      0,
      0,
      0,
      0,
      0,
      0,
      0,
      0,
      0,
      0,
      0,
      0,
      0,
      0,
      0,
      0,
      0,
      0,
      0,
      0,
      0,
      0,
      0,
      0,
      0,
      0,
      0,
      0,
      0,
      0,
      0,
      0,
      0,
      0,
      0,
      0,
      0,
      0,
      0,
      0,
      0,
      0,
      0,
      0,
      0,
      0,
      0,
      0,
      0,
      0,
      0,
      0,
      0,
      0,
      0,
      0,
      0,
      0,
      0,
      0,
      0
    ],
    "total_instructors": [
      0,
      0,
      0,
      0,
      0,
      0,
      0,
      0,
      0,
      0,
      0,
      0,
      2,
      2,
      2,
      2,
      2,
      2,
      2,
      2,
      2,
      2,
      2,
      2,
      2,
      2,
      2,
      2,
      2,
      2,
      2,
      2,
      2,
      2,
      2,
      2,
      2,
      2,
      2,
      2,
      2,
      2,
      2,
      2,
      2,
      2,
      2,
      2,
      2,
      2,
      2,
      2,
      2,
      2,
      2,
      0,
      0,
      0,
      0,
      0,
      0,
      0,
      0,
      0,
      0,
      0,
      0,
      0,
      0,
      0,
      0,
      0
    ]
  }
}