{
  "type": "FeatureCollection",
  "features": [
    {
      "type": "Feature",
      "geometry": {
        "type": "Polygon",
        "coordinates": [
          [
            [
              -89.403485820009,
              43.073825999100066
            ],
            [
              -89.40328582000899,
              43.073823999100064
            ],
            [
              -89.40328406783962,
              43.07382389599833
            ],
            [
              -89.40328233404205,
              43.07382362273396
            ],
            [
              -89.40328063510194,
              43.07382318190527
            ],
            [
              -89.40327898717352,
              43.073822577703844
            ],
            [
              -89.40327740592598,
              43.07382181587468
            ],
            [
              -89.4032759063945,
              43.07382090366156
            ],
            [
              -89.40327450283723,
              43.07381984973821
            ],
            [
              -89.4032732085998,
              43.073818664125746
            ],
            [
              -89.40327203598834,
              43.073817358097486
            ],
            [
              -89.40327099615254,
              43.07381594407168
            ],
            [
              -89.4032700989796,
              43.073814435493496
            ],
            [
              -89.40326935300021,
              43.073812846707106
            ],
            [
              -89.40326876530744,
              43.07381119281936
            ],
            [
              -89.40326834148935,
              43.07380948955612
            ],
            [
              -89.40326808557576,
              43.073807753112725
            ],
            [
              -89.403268,
              43.073806
            ],
            [
              -89.403268,
              43.07380190649414
            ],
            [
              -89.403112,
              43.073801093994135
            ],
            [
              -89.403112,
              43.073828
            ],
            [
              -89.4031119120956,
              43.073829776747395
            ],
            [
              -89.40311164924096,
              43.07383153614102
            ],
            [
              -89.40311121400345,
              43.07383326099661
            ],
            [
              -89.40311061063407,
              43.07383493446722
            ],
            [
              -89.40310984502604,
              43.073836540207814
            ],
            [
              -89.40310892465718,
              43.07383806253487
            ],
            [
              -89.40310785851686,
              43.07383948657957
            ],
            [
              -89.40310665701826,
              43.07384079843306
            ],
            [
              -89.40310533189657,
              43.073841985282264
            ],
            [
              -89.40310389609449,
              43.073843035535035
            ],
            [
              -89.40310236363571,
              43.073843938933386
            ],
            [
              -89.403100749488,
              43.0738446866537
            ],
            [
              -89.40309906941698,
              43.07384527139286
            ],
            [
              -89.40309733983219,
              43.073845687439636
            ],
            [
              -89.40309557762673,
              43.073845930730435
            ],
            [
              -89.40309380001234,
              43.07384599888899
            ],
            [
              -89.40300390000276,
              43.073845
            ],
            [
              -89.402926,
              43.073845
            ],
            [
              -89.40292421187571,
              43.073844910963444
            ],
            [
              -89.40292244144126,
              43.07384464473462
            ],
            [
              -89.40292070621146,
              43.07384420394731
            ],
            [
              -89.40291902335284,
              43.0738435929622
            ],
            [
              -89.40291740951385,
              43.07384281782374
            ],
            [
              -89.4029158806601,
              43.07384188620033
            ],
            [
              -89.40291445191649,
              43.07384080730848
            ],
            [
              -89.40291313741749,
              43.07383959182161
            ],
            [
              -89.4029119501674,
              43.07383825176447
            ],
            [
              -89.40291090191158,
              43.07383680039419
            ],
            [
              -89.40291000302041,
              43.073835252069095
            ],
            [
              -89.40290926238657,
              43.07383362210668
            ],
            [
              -89.4029086873371,
              43.0738319266321
            ],
            [
              -89.40290828356096,
              43.0738301824186
            ],
            [
              -89.40290805505268,
              43.073828406721574
            ],
            [
              -89.40290800407286,
              43.07382661710793
            ],
            [
              -89.40290861706497,
              43.07379780647937
            ],
            [
              -89.40275515456149,
              43.073796182537535
            ],
            [
              -89.40275497962648,
              43.07379985617269
            ],
            [
              -89.40275481520574,
              43.07380157263382
            ],
            [
              -89.40275448729896,
              43.07380326548649
            ],
            [
              -89.4027539989153,
              43.07380491919577
            ],
            [
              -89.40275335453653,
              43.07380651858597
            ],
            [
              -89.40275256007597,
              43.073808048979835
            ],
            [
              -89.40275162282418,
              43.07380949633332
            ],
            [
              -89.40275055138213,
              43.07381084736437
            ],
            [
              -89.40274935558217,
              43.07381208967491
            ],
            [
              -89.4027480463979,
              43.07381321186453
            ],
            [
              -89.4027466358434,
              43.07381420363516
            ],
            [
              -89.40274513686299,
              43.07381505588555
            ],
            [
              -89.40274356321247,
              43.073815760794794
            ],
            [
              -89.40274192933288,
              43.073816311894106
            ],
            [
              -89.40274025021793,
              43.07381670412617
            ],
            [
              -89.40273854127648,
              43.07381693389157
            ],
            [
              -89.4027368181911,
              43.0738169990818
            ],
            [
              -89.4025388181911,
              43.0738149990818
            ],
            [
              -89.40253704678044,
              43.07381489371212
            ],
            [
              -89.40253529435337,
              43.0738146144311
            ],
            [
              -89.40253357794197,
              43.07381416395312
            ],
            [
              -89.40253191422825,
              43.07381354665642
            ],
            [
              -89.40253031938208,
              43.07381276854059
            ],
            [
              -89.40252880890398,
              43.07381183716826
            ],
            [
              -89.40252739747449,
              43.07381076159153
            ],
            [
              -89.40252609881145,
              43.073809552264095
            ],
            [
              -89.40252492553677,
              43.073808220939554
            ],
            [
              -89.40252388905363,
              43.07380678055723
            ],
            [
              -89.40252299943577,
              43.07380524511638
            ],
            [
              -89.4025222653295,
              43.07380362954017
            ],
            [
              -89.40252169386967,
              43.07380194953059
            ],
            [
              -89.40252129061041,
              43.073800221415866
            ],
            [
              -89.40252105947103,
              43.07379846199178
            ],
            [
              -89.402521002698,
              43.07379668835841
            ],
            [
              -89.40252500269798,
              43.07356568835841
            ],
            [
              -89.40252511896625,
              43.073563933933166
            ],
            [
              -89.40252540585082,
              43.07356219922181
            ],
            [
              -89.40252586061432,
              43.07356050077652
            ],
            [
              -89.40252647891752,
              43.07355885480344
            ],
            [
              -89.40252725486071,
              43.073557277008014
            ],
            [
              -89.40252818104005,
              43.07355578244518
            ],
            [
              -89.40252924861818,
              43.07355438537567
            ],
            [
              -89.40253044740851,
              43.07355309912999
            ],
            [
              -89.40253176597251,
              43.07355193598114
            ],
            [
              -89.40253319172876,
              43.07355090702762
            ],
            [
              -89.40253471107306,
              43.073550022087424
            ],
            [
              -89.4025363095082,
              43.07354928960444
            ],
            [
              -89.40253797178234,
              43.07354871656784
            ],
            [
              -89.40253968203446,
              43.07354830844538
            ],
            [
              -89.40254142394576,
              43.07354806913128
            ],
            [
              -89.40254318089538,
              43.073548000909
            ],
            [
              -89.40274218089539,
              43.073550000909
            ],
            [
              -89.40274393300336,
              43.0735501040927
            ],
            [
              -89.40274566673273,
              43.07355037742723
            ],
            [
              -89.4027473655995,
              43.07355081831376
            ],
            [
              -89.4027490134512,
              43.07355142256044
            ],
            [
              -89.40275059462036,
              43.073552184422205
            ],
            [
              -89.40275209407352,
              43.07355309665542
            ],
            [
              -89.4027534975542,
              43.073554150586745
            ],
            [
              -89.40275479171835,
              43.07355533619562
            ],
            [
              -89.40275596426133,
              43.07355664220948
            ],
            [
              -89.40275700403483,
              43.07355805621102
            ],
            [
              -89.40275790115284,
              43.07355956475618
            ],
            [
              -89.40275864708579,
              43.073561153502006
            ],
            [
              -89.40275923474147,
              43.07356280734301
            ],
            [
              -89.40275965853256,
              43.07356451055478
            ],
            [
              -89.40275991442975,
              43.073566246943535
            ],
            [
              -89.40276,
              43.073568
            ],
            [
              -89.40276,
              43.07357325173585
            ],
            [
              -89.40302616084303,
              43.07357700048012
            ],
            [
              -89.40327200337667,
              43.07357793170184
            ],
            [
              -89.40327208778108,
              43.073576224496364
            ],
            [
              -89.40327235026813,
              43.07357446631001
            ],
            [
              -89.403272784901,
              43.07357274258935
            ],
            [
              -89.40327338744054,
              43.07357107014659
            ],
            [
              -89.40327415200989,
              43.07356946529382
            ],
            [
              -89.40327507115185,
              43.07356794368391
            ],
            [
              -89.40327613590163,
              43.073566520157804
            ],
            [
              -89.40327733587425,
              43.073565208599796
            ],
            [
              -89.40327865936581,
              43.073564021802106
            ],
            [
              -89.40328009346771,
              43.07356297134011
            ],
            [
              -89.40328162419252,
              43.07356206745943
            ],
            [
              -89.40328323661035,
              43.07356131897603
            ],
            [
              -89.40328491499459,
              43.07356073319022
            ],
            [
              -89.40328664297519,
              43.07356031581541
            ],
            [
              -89.40328840369837,
              43.07356007092247
            ],
            [
              -89.403290179991,
              43.07356000089993
            ],
            [
              -89.40349017999101,
              43.07356200089993
            ],
            [
              -89.40349195178,
              43.0735621061308
            ],
            [
              -89.40349370459148,
              43.07356238534695
            ],
            [
              -89.40349542138257,
              43.07356283583351
            ],
            [
              -89.40349708546059,
              43.073563453210326
            ],
            [
              -89.4034986806454,
              43.07356423147453
            ],
            [
              -89.40350019142674,
              43.07356516305891
            ],
            [
              -89.40350160311505,
              43.073566238905514
            ],
            [
              -89.40350290198418,
              43.073567448553696
            ],
            [
              -89.40350407540502,
              43.07356878024183
            ],
            [
              -89.4035051119682,
              43.07357022102167
            ],
            [
              -89.40350600159502,
              43.073571756884256
            ],
            [
              -89.40350673563546,
              43.07357337289613
            ],
            [
              -89.40350730695235,
              43.07357505334452
            ],
            [
              -89.40350770999065,
              43.07357678189012
            ],
            [
              -89.40350794083156,
              43.07357854172597
            ],
            [
              -89.40350799723056,
              43.073580315740884
            ],
            [
              -89.40350399723056,
              43.073808315740884
            ],
            [
              -89.40350388059866,
              43.0738100698289
            ],
            [
              -89.40350359341522,
              43.073811804174156
            ],
            [
              -89.4035031384195,
              43.07381350223383
            ],
            [
              -89.4035025199514,
              43.07381514781124
            ],
            [
              -89.40350174391013,
              43.073816725210264
            ],
            [
              -89.40350081769779,
              43.07381821938512
            ],
            [
              -89.40349975014897,
              43.073819616083824
            ],
            [
              -89.4034985514463,
              43.07382090198418
            ],
            [
              -89.40349723302346,
              43.07382206482079
            ],
            [
              -89.40349580745604,
              43.07382309350212
            ],
            [
              -89.40349428834158,
              43.073823978216225
            ],
            [
              -89.40349269016997,
              43.073824710524406
            ],
            [
              -89.40349102818512,
              43.07382528344163
            ],
            [
              -89.40348931823965,
              43.0738256915032
            ],
            [
              -89.40348757664361,
              43.07382593081691
            ],
            [
              -89.403485820009,
              43.073825999100066
            ]
          ]
        ]
      },
      "properties": {
        "building": "university",
        "name": "Lathrop Hall",
        "@id": "way/39201161",
        "addr:street": "University Avenue",
        "addr:housenumber": "1050",
        "person_counts": [
          0,
          0,
          0,
          0,
          0,
          0,
          0,
          0,
          0,
          0,
          0,
          0,
          0,
          0,
          0,
          0,
          0,
          0,
          0,
          0,
          0,
          0,
          0,
          0,
          0,
          0,
          0,
          0,
          0,
          0,
          0,
          0,
          0,
          0,
          0,
          0,
          0,
          0,
          0,
          0,
          0,
          0,
          0,
          0,
          0,
          0,
          0,
          0,
          0,
          0,
          0,
          0,
          0,
          0,
          0,
          0,
          0,
          0,
          0,
          0,
          0,
          0,
          0,
          0,
          0,
          0,
          0,
          0,
          0,
          0,
          0,
          0,
          0,
          0,
          0,
          0,
          0,
          0
        ],
        "instructor_counts": [
          0,
          0,
          0,
          0,
          0,
          0,
          0,
          0,
          0,
          0,
          0,
          0,
          0,
          0,
          0,
          0,
          0,
          0,
          0,
          0,
          0,
          0,
          0,
          0,
          0,
          0,
          0,
          0,
          0,
          0,
          0,
          0,
          0,
          0,
          0,
          0,
          0,
          0,
          0,
          0,
          0,
          0,
          0,
          0,
          0,
          0,
          0,
          0,
          0,
          0,
          0,
          0,
          0,
          0,
          0,
          0,
          0,
          0,
          0,
          0,
          0,
          0,
          0,
          0,
          0,
          0,
          0,
          0,
          0,
          0,
          0,
          0,
          0,
          0,
          0,
          0,
          0,
          0
        ]
      }
    },
    {
      "type": "Feature",
      "geometry": {
        "type": "Polygon",
        "coordinates": [
          [
            [
              -89.40426100548446,
              43.07167855569098
            ],
            [
              -89.40426255006942,
              43.071616
            ],
            [
              -89.404257,
              43.071616
            ],
            [
              -89.40425522220367,
              43.07161591199152
            ],
            [
              -89.40425346179192,
              43.07161564882669
            ],
            [
              -89.40425173597933,
              43.071615213078935
            ],
            [
              -89.4042500616421,
              43.071614609009295
            ],
            [
              -89.40424845515315,
              43.071613842524805
            ],
            [
              -89.40424693222185,
              43.0716129211207
            ],
            [
              -89.40424550774054,
              43.07161185380715
            ],
            [
              -89.40424419563881,
              43.07161065102108
            ],
            [
              -89.40424300874734,
              43.07160932452423
            ],
            [
              -89.40424195867242,
              43.071607887288025
            ],
            [
              -89.40424105568242,
              43.0716063533668
            ],
            [
              -89.40424030860744,
              43.071604737760346
            ],
            [
              -89.40423972475291,
              43.071603056267215
            ],
            [
              -89.40423930982818,
              43.07160132533026
            ],
            [
              -89.4042390678907,
              43.07159956187584
            ],
            [
              -89.4042390013063,
              43.07159778314827
            ],
            [
              -89.40424100130629,
              43.07143178314827
            ],
            [
              -89.40424110774428,
              43.07143003348386
            ],
            [
              -89.40424138386354,
              43.0714283024689
            ],
            [
              -89.40424182704544,
              43.071426606519495
            ],
            [
              -89.4042424330871,
              43.07142496171917
            ],
            [
              -89.40424319624111,
              43.071423383666385
            ],
            [
              -89.4042441092701,
              43.07142188732662
            ],
            [
              -89.40424516351534,
              43.07142048689042
            ],
            [
              -89.40424634897892,
              43.07141919563881
            ],
            [
              -89.40424765441847,
              43.07141802581738
            ],
            [
              -89.40424906745388,
              43.07141698852014
            ],
            [
              -89.4042505746846,
              43.071416093584304
            ],
            [
              -89.40425216181681,
              43.07141534949698
            ],
            [
              -89.40425381379895,
              43.07141476331474
            ],
            [
              -89.40425551496443,
              43.07141434059664
            ],
            [
              -89.40425724918026,
              43.07141408535152
            ],
            [
              -89.404259,
              43.071414000000004
            ],
            [
              -89.40426626275962,
              43.071414000000004
            ],
            [
              -89.40426700194605,
              43.07136373532274
            ],
            [
              -89.4042671137044,
              43.071361979992595
            ],
            [
              -89.40426739624785,
              43.07136024395024
            ],
            [
              -89.40426784687853,
              43.07135854377206
            ],
            [
              -89.40426846129365,
              43.07135689569199
            ],
            [
              -89.40426923362658,
              43.07135531544653
            ],
            [
              -89.40427015650276,
              43.07135381812446
            ],
            [
              -89.40427122111024,
              43.071352418022755
            ],
            [
              -89.40427241728374,
              43.07135112851013
            ],
            [
              -89.40427373360176,
              43.07134996189933
            ],
            [
              -89.40427515749556,
              43.071348929329595
            ],
            [
              -89.40427667536932,
              43.07134804066029
            ],
            [
              -89.40427827272977,
              43.071347304376765
            ],
            [
              -89.40427993432473,
              43.07134672750933
            ],
            [
              -89.40428164428867,
              43.07134631556613
            ],
            [
              -89.4042833862942,
              43.07134607248055
            ],
            [
              -89.404285143708,
              43.071346000573676
            ],
            [
              -89.404786143708,
              43.07135000057367
            ],
            [
              -89.40478793974702,
              43.07135010482239
            ],
            [
              -89.40478971640881,
              43.07135038783643
            ],
            [
              -89.40479145594522,
              43.07135084678859
            ],
            [
              -89.40479314097904,
              43.071351477094126
            ],
            [
              -89.40479475467745,
              43.07135227245656
            ],
            [
              -89.40479628092034,
              43.071353224930554
            ],
            [
              -89.40479770446113,
              43.07135432500129
            ],
            [
              -89.40479901107926,
              43.07135556167952
            ],
            [
              -89.40480018772219,
              43.07135692261135
            ],
            [
              -89.40480122263571,
              43.07135839420165
            ],
            [
              -89.40480210548151,
              43.07135996174984
            ],
            [
              -89.40480282744029,
              43.07136160959678
            ],
            [
              -89.40480338130001,
              43.07136332128116
            ],
            [
              -89.40480376152784,
              43.07136507970398
            ],
            [
              -89.40480396432547,
              43.07136686729933
            ],
            [
              -89.40480398766701,
              43.071368666209885
            ],
            [
              -89.40480299537278,
              43.0713954581541
            ],
            [
              -89.40479899826414,
              43.07168324997589
            ],
            [
              -89.40479888783922,
              43.071685006292164
            ],
            [
              -89.40479860643964,
              43.071686743432004
            ],
            [
              -89.40479815675508,
              43.07168844479155
            ],
            [
              -89.40479754308369,
              43.071690094108966
            ],
            [
              -89.40479677129102,
              43.07169167561983
            ],
            [
              -89.40479584875399,
              43.071693174207816
            ],
            [
              -89.40479478429036,
              43.0716945755492
            ],
            [
              -89.4047935880744,
              43.071695866249755
            ],
            [
              -89.40479227153975,
              43.07169703397277
            ],
            [
              -89.40479084727004,
              43.071698067556966
            ],
            [
              -89.40478932887864,
              43.071698957123196
            ],
            [
              -89.40478773087857,
              43.071699694168856
            ],
            [
              -89.40478606854374,
              43.07170027164915
            ],
            [
              -89.40478435776303,
              43.07170068404443
            ],
            [
              -89.40478261488832,
              43.07170092741297
            ],
            [
              -89.40478085657826,
              43.07170099942861
            ],
            [
              -89.40427885657826,
              43.07169699942861
            ],
            [
              -89.40427707431506,
              43.071696896696274
            ],
            [
              -89.40427531099381,
              43.07169661792364
            ],
            [
              -89.40427358395937,
              43.07169616585284
            ],
            [
              -89.40427191019963,
              43.07169554493066
            ],
            [
              -89.40427030617849,
              43.07169476126478
            ],
            [
              -89.40426878767386,
              43.07169382256371
            ],
            [
              -89.40426736962246,
              43.07169273806094
            ],
            [
              -89.40426606597292,
              43.07169151842416
            ],
            [
              -89.40426488954853,
              43.07169017565028
            ],
            [
              -89.40426385192116,
              43.07168872294747
            ],
            [
              -89.40426296329741,
              43.07168717460518
            ],
            [
              -89.40426223241818,
              43.07168554585365
            ],
            [
              -89.40426166647276,
              43.07168385271402
            ],
            [
              -89.40426127102805,
              43.07168211184082
            ],
            [
              -89.40426104997381,
              43.07168034035809
            ],
            [
              -89.40426100548446,
              43.07167855569098
            ]
          ]
        ]
      },
      "properties": {
        "building": "university",
        "name": "Noland Hall",
        "@id": "way/139958467",
        "addr:street": "North Mills Street",
        "addr:housenumber": "250",
        "person_counts": [
          0,
          0,
          0,
          0,
          0,
          0,
          0,
          0,
          0,
          0,
          0,
          0,
          0,
          0,
          0,
          0,
          0,
          0,
          0,
          0,
          0,
          0,
          0,
          0,
          0,
          0,
          0,
          0,
          0,
          0,
          0,
          0,
          0,
          0,
          0,
          0,
          0,
          0,
          0,
          0,
          0,
          0,
          0,
          0,
          0,
          0,
          0,
          0,
          0,
          0,
          0,
          0,
          0,
          0,
          0,
          0,
          0,
          0,
          0,
          0,
          0,
          0,
          0,
          0,
          0,
          0,
          0,
          0,
          0,
          0,
          0,
          0,
          0,
          0,
          0,
          0,
          0,
          0
        ],
        "instructor_counts": [
          0,
          0,
          0,
          0,
          0,
          0,
          0,
          0,
          0,
          0,
          0,
          0,
          0,
          0,
          0,
          0,
          0,
          0,
          0,
          0,
          0,
          0,
          0,
          0,
          0,
          0,
          0,
          0,
          0,
          0,
          0,
          0,
          0,
          0,
          0,
          0,
          0,
          0,
          0,
          0,
          0,
          0,
          0,
          0,
          0,
          0,
          0,
          0,
          0,
          0,
          0,
          0,
          0,
          0,
          0,
          0,
          0,
          0,
          0,
          0,
          0,
          0,
          0,
          0,
          0,
          0,
          0,
          0,
          0,
          0,
          0,
          0,
          0,
          0,
          0,
          0,
          0,
          0
        ]
      }
    }
  ],
  "metadata": {
    "total_buildings": 2,
    "total_meetings": 2,
    "max_persons": 0,
    "total_chunks": 78,
    "chunk_duration_minutes": 5,
    "start_time": 1780668000000,
    "end_time": 1780691400000,
    "total_persons": [
      0,
      0,
      0,
      0,
      0,
      0,
      0,
      0,
      0,
      0,
      0,
      0,
      0,
      0,
      0,
      0,
      0,
      0,
      0,
      0,
      0,
      0,
      0,
      0,
      0,
      0,
      0,
      0,
      0,
      0,
      0,
      0,
      0,
      0,
      0,
      0,
      0,
      0,
      0,
      0,
      0,
      0,
      0,
      0,
      0,
      0,
      0,
      0,
      0,
      0,
      0,
      0,
      0,
      0,
      0,
      0,
      0,
      0,
      0,
      0,
      0,
      0,
      0,
      0,
      0,
      0,
      0,
      0,
      0,
      0,
      0,
      0,
      0,
      0,
      0,
      0,
      0,
      0
    ],
    "total_instructors": [
      0,
      0,
      0,
      0,
      0,
      0,
      0,
      0,
      0,
      0,
      0,
      0,
      0,
      0,
      0,
      0,
      0,
      0,
      0,
      0,
      0,
      0,
      0,
      0,
      0,
      0,
      0,
      0,
      0,
      0,
      0,
      0,
      0,
      0,
      0,
      0,
      0,
      0,
      0,
      0,
      0,
      0,
      0,
      0,
      0,
      0,
      0,
      0,
      0,
      0,
      0,
      0,
      0,
      0,
      0,
      0,
      0,
      0,
      0,
      0,
      0,
      0,
      0,
      0,
      0,
      0,
      0,
      0,
      0,
      0,
      0,
      0,
      0,
      0,
      0,
      0,
      0,
      0
    ]
  }
}