{
  "type": "FeatureCollection",
  "features": [
    {
      "type": "Feature",
      "geometry": {
        "type": "Polygon",
        "coordinates": [
          [
            [
              -89.4112647926405,
              43.07213899880558
            ],
            [
              -89.410849,
              43.07213420856778
            ],
            [
              -89.410849,
              43.072146
            ],
            [
              -89.41084891182867,
              43.07214777943647
            ],
            [
              -89.41084864817843,
              43.072149541440126
            ],
            [
              -89.41084821163224,
              43.072151268748954
            ],
            [
              -89.41084760646687,
              43.07215294444081
            ],
            [
              -89.410846838611,
              43.07215455209926
            ],
            [
              -89.41084591558716,
              43.07215607597438
            ],
            [
              -89.41084484643807,
              43.07215750113702
            ],
            [
              -89.41084364163798,
              43.072158813625144
            ],
            [
              -89.41084231299008,
              43.07216000058054
            ],
            [
              -89.4108408735109,
              43.072161050374824
            ],
            [
              -89.41083933730276,
              43.07216195272336
            ],
            [
              -89.4108377194156,
              43.072162698786
            ],
            [
              -89.41083603569956,
              43.072163281253715
            ],
            [
              -89.41083430264969,
              43.07216369442016
            ],
            [
              -89.41083253724437,
              43.072163934237636
            ],
            [
              -89.41083075677896,
              43.072163998356686
            ],
            [
              -89.41077448626133,
              43.07216323794429
            ],
            [
              -89.41077399265757,
              43.07218051407593
            ],
            [
              -89.41077385821892,
              43.07218225477661
            ],
            [
              -89.41077355577451,
              43.072183974264895
            ],
            [
              -89.41077308816969,
              43.07218565636427
            ],
            [
              -89.41077245980357,
              43.07218728524996
            ],
            [
              -89.41077167658763,
              43.0721888455978
            ],
            [
              -89.4107707458902,
              43.07219032272843
            ],
            [
              -89.41076967646705,
              43.07219170274536
            ],
            [
              -89.41076847837907,
              43.072192972665725
            ],
            [
              -89.41076716289754,
              43.072194120542434
            ],
            [
              -89.41076574239821,
              43.07219513557654
            ],
            [
              -89.41076423024478,
              43.07219600821886
            ],
            [
              -89.41076264066324,
              43.07219673025977
            ],
            [
              -89.41076098860795,
              43.0721972949065
            ],
            [
              -89.41075928962107,
              43.07219769684699
            ],
            [
              -89.41075755968623,
              43.07219793229988
            ],
            [
              -89.41075581507826,
              43.07219799905009
            ],
            [
              -89.40987981507826,
              43.072188999050084
            ],
            [
              -89.4098780632436,
              43.07218889550152
            ],
            [
              -89.40987632981798,
              43.07218862185472
            ],
            [
              -89.40987463127773,
              43.07218818071073
            ],
            [
              -89.40987298376766,
              43.07218757626265
            ],
            [
              -89.40987140294743,
              43.072186814255815
            ],
            [
              -89.40986990384292,
              43.07218590193317
            ],
            [
              -89.40986850070323,
              43.072184847966405
            ],
            [
              -89.40986720686529,
              43.07218366237356
            ],
            [
              -89.40986603462717,
              43.07218235642381
            ],
            [
              -89.40986499513109,
              43.0721809425303
            ],
            [
              -89.40986409825753,
              43.07217943413222
            ],
            [
              -89.40986335253135,
              43.072177845567005
            ],
            [
              -89.40986276504076,
              43.072176191934105
            ],
            [
              -89.40986234136987,
              43.07217448895144
            ],
            [
              -89.40986208554575,
              43.072172752806004
            ],
            [
              -89.409862,
              43.072171
            ],
            [
              -89.409862,
              43.07215373724038
            ],
            [
              -89.40981173532273,
              43.07215299805395
            ],
            [
              -89.40980998891794,
              43.072152887301336
            ],
            [
              -89.40980826152034,
              43.072152607491866
            ],
            [
              -89.40980656945594,
              43.0721521612701
            ],
            [
              -89.40980492871681,
              43.07215155285335
            ],
            [
              -89.40980335480994,
              43.07215078799192
            ],
            [
              -89.40980186261068,
              43.072149873914675
            ],
            [
              -89.40980046622214,
              43.072148819260775
            ],
            [
              -89.4097991788419,
              43.072147633997965
            ],
            [
              -89.40979801263724,
              43.07214632932845
            ],
            [
              -89.40979697863027,
              43.07214491758293
            ],
            [
              -89.40979608659359,
              43.07214341210415
            ],
            [
              -89.40979534495803,
              43.072141827120696
            ],
            [
              -89.40979476073298,
              43.07214017761262
            ],
            [
              -89.40979433944005,
              43.07213847916977
            ],
            [
              -89.409794085061,
              43.07213674784452
            ],
            [
              -89.409794,
              43.072135
            ],
            [
              -89.409794,
              43.072123797531745
            ],
            [
              -89.40936979639311,
              43.07211899884842
            ],
            [
              -89.40936802938356,
              43.07211889180458
            ],
            [
              -89.40936628143413,
              43.07211861170826
            ],
            [
              -89.40936456945128,
              43.07211816126863
            ],
            [
              -89.40936290999359,
              43.07211754484238
            ],
            [
              -89.40936131911161,
              43.0721167683917
            ],
            [
              -89.4093598121926,
              43.07211583942656
            ],
            [
              -89.40935840381174,
              43.072114766932046
            ],
            [
              -89.4093571075911,
              43.07211356128151
            ],
            [
              -89.40935593606797,
              43.0721122341362
            ],
            [
              -89.40935490057349,
              43.07211079833248
            ],
            [
              -89.40935401112314,
              43.07210926775768
            ],
            [
              -89.40935327631983,
              43.072107657215774
            ],
            [
              -89.4093527032707,
              43.072105982284185
            ],
            [
              -89.40935229751837,
              43.072104259163126
            ],
            [
              -89.40935206298734,
              43.07210250451891
            ],
            [
              -89.40935200194605,
              43.072100735322735
            ],
            [
              -89.40935400194606,
              43.07196473532273
            ],
            [
              -89.40935411431059,
              43.07196297463238
            ],
            [
              -89.40935439850229,
              43.07196123339966
            ],
            [
              -89.40935485179094,
              43.071959528352544
            ],
            [
              -89.40935546982182,
              43.07195787587134
            ],
            [
              -89.40935624665752,
              43.071956291831384
            ],
            [
              -89.40935717483502,
              43.07195479145049
            ],
            [
              -89.40935824543735,
              43.071953389142756
            ],
            [
              -89.40935944817925,
              43.071952098380116
            ],
            [
              -89.40936077150604,
              43.07195093156287
            ],
            [
              -89.40936220270457,
              43.07194989990059
            ],
            [
              -89.40936372802537,
              43.07194901330442
            ],
            [
              -89.40936533281473,
              43.071948280291856
            ],
            [
              -89.40936700165548,
              43.071947707904926
            ],
            [
              -89.40936871851517,
              43.071947301642524
            ],
            [
              -89.40937046689996,
              43.071947065407606
            ],
            [
              -89.40937223001318,
              43.071947001469674
            ],
            [
              -89.40966739480437,
              43.07195077354368
            ],
            [
              -89.40966960566652,
              43.07184981083915
            ],
            [
              -89.40930081396343,
              43.071845999038594
            ],
            [
              -89.40929903874535,
              43.0718458928332
            ],
            [
              -89.40929728267176,
              43.07184561196953
            ],
            [
              -89.40929556288434,
              43.071845159189174
            ],
            [
              -89.40929389617052,
              43.0718445389119
            ],
            [
              -89.40929229879971,
              43.07184375719244
            ],
            [
              -89.4092907863644,
              43.071842821661434
            ],
            [
              -89.409289373628,
              43.071841741450946
            ],
            [
              -89.40928807438074,
              43.07184052710529
            ],
            [
              -89.40928690130504,
              43.07183919047811
            ],
            [
              -89.40928586585169,
              43.07183774461671
            ],
            [
              -89.40928497812813,
              43.071836203634646
            ],
            [
              -89.40928424679973,
              43.071834582574006
            ],
            [
              -89.40928367900526,
              43.071832897258524
            ],
            [
              -89.40928328028716,
              43.07183116413917
            ],
            [
              -89.40928305453745,
              43.07182940013353
            ],
            [
              -89.40928300395977,
              43.07182762246069
            ],
            [
              -89.40928600395978,
              43.071684622460694
            ],
            [
              -89.40928612620554,
              43.07168287221438
            ],
            [
              -89.40928641826926,
              43.07168114218405
            ],
            [
              -89.40928687737603,
              43.07167944880661
            ],
            [
              -89.40928749916391,
              43.071677808170755
            ],
            [
              -89.40928827772531,
              43.071676235864075
            ],
            [
              -89.4092892056632,
              43.07167474682496
            ],
            [
              -89.40929027416125,
              43.07167335520071
            ],
            [
              -89.40929147306775,
              43.07167207421305
            ],
            [
              -89.40929279099194,
              43.07167091603258
            ],
            [
              -89.4092942154123,
              43.07166989166311
            ],
            [
              -89.4092957327955,
              43.07166901083712
            ],
            [
              -89.40929732872495,
              43.07166828192329
            ],
            [
              -89.4092989880378,
              43.07166771184698
            ],
            [
              -89.40930069496905,
              43.071667306024466
            ],
            [
              -89.4093024333012,
              43.071667068311434
            ],
            [
              -89.40930418651848,
              43.07166700096639
            ],
            [
              -89.40967227345918,
              43.071670815338834
            ],
            [
              -89.40967372781456,
              43.07157482788315
            ],
            [
              -89.40937482966062,
              43.07157199919399
            ],
            [
              -89.40937305599739,
              43.07157189471581
            ],
            [
              -89.40937130127499,
              43.07157161588582
            ],
            [
              -89.40936958258999,
              43.07157116542073
            ],
            [
              -89.4093679166879,
              43.0715705477095
            ],
            [
              -89.40936631979994,
              43.07156976877063
            ],
            [
              -89.40936480748492,
              43.07156883619346
            ],
            [
              -89.40936339447761,
              43.07156775906429
            ],
            [
              -89.40936209454523,
              43.071566547877794
            ],
            [
              -89.40936092035328,
              43.07156521443481
            ],
            [
              -89.40935988334215,
              43.07156377172735
            ],
            [
              -89.40935899361564,
              43.07156223381199
            ],
            [
              -89.40935825984255,
              43.071560615672944
            ],
            [
              -89.40935768917215,
              43.071558933076076
            ],
            [
              -89.40935728716464,
              43.071557202415256
            ],
            [
              -89.40935705773681,
              43.071555440552665
            ],
            [
              -89.40935700312406,
              43.07155366465448
            ],
            [
              -89.40936000312406,
              43.07139266465448
            ],
            [
              -89.40936012159243,
              43.07139091132991
            ],
            [
              -89.4093604104675,
              43.07138917791334
            ],
            [
              -89.4093608669959,
              43.0713874809267
            ],
            [
              -89.40936148682623,
              43.0713858365447
            ],
            [
              -89.40936226405064,
              43.07138426044064
            ],
            [
              -89.4093631912611,
              43.07138276763703
            ],
            [
              -89.40936425961993,
              43.07138137236243
            ],
            [
              -89.40936545894418,
              43.07138008791579
            ],
            [
              -89.40936677780256,
              43.071378926539715
            ],
            [
              -89.40936820362447,
              43.071377899303776
            ],
            [
              -89.4093697228198,
              43.071377015999
            ],
            [
              -89.40937132090848,
              43.07137628504453
            ],
            [
              -89.4093729826584,
              43.07137571340741
            ],
            [
              -89.40937469223074,
              43.07137530653616
            ],
            [
              -89.40937643333085,
              43.071375068308846
            ],
            [
              -89.40937818936354,
              43.0713750009961
            ],
            [
              -89.41127918936353,
              43.0713950009961
            ],
            [
              -89.41128096240098,
              43.07139510729248
            ],
            [
              -89.4112827163295,
              43.0713953878197
            ],
            [
              -89.41128443407014,
              43.071395839846105
            ],
            [
              -89.41128609889633,
              43.07139645897008
            ],
            [
              -89.41128769459678,
              43.071397239162884
            ],
            [
              -89.41128920563332,
              43.07139817282736
            ],
            [
              -89.41129061729215,
              43.07139925087193
            ],
            [
              -89.41129191582722,
              43.071400462799076
            ],
            [
              -89.411293088594,
              43.07140179680764
            ],
            [
              -89.41129412417261,
              43.07140323990767
            ],
            [
              -89.41129501247912,
              43.07140477804691
            ],
            [
              -89.41129574486355,
              43.071406396247696
            ],
            [
              -89.41129631419433,
              43.07140807875274
            ],
            [
              -89.41129671492756,
              43.0714098091786
            ],
            [
              -89.4112969431611,
              43.071411570675174
            ],
            [
              -89.41129699667252,
              43.071413346089855
            ],
            [
              -89.41129399667253,
              43.07156934608985
            ],
            [
              -89.41129387762544,
              43.07157109535407
            ],
            [
              -89.41129358895624,
              43.071572824737665
            ],
            [
              -89.41129313340382,
              43.07157451783232
            ],
            [
              -89.41129251529043,
              43.07157615857402
            ],
            [
              -89.4112917404807,
              43.07157773139549
            ],
            [
              -89.41129081632599,
              43.07157922137388
            ],
            [
              -89.41128975159465,
              43.07158061437233
            ],
            [
              -89.41128855638878,
              43.07158189717413
            ],
            [
              -89.41128724204847,
              43.07158305760812
            ],
            [
              -89.4112858210441,
              43.07158408466415
            ],
            [
              -89.41128430685811,
              43.07158496859757
            ],
            [
              -89.411282713857,
              43.07158570102164
            ],
            [
              -89.41128105715514,
              43.07158627498717
            ],
            [
              -89.41127935247121,
              43.071586685048395
            ],
            [
              -89.41127761597919,
              43.07158692731467
            ],
            [
              -89.41127586415482,
              43.07158699948738
            ],
            [
              -89.41102860148048,
              43.07158513335399
            ],
            [
              -89.41102639989187,
              43.07168420484122
            ],
            [
              -89.41127620147992,
              43.07168700112765
            ],
            [
              -89.4112779759794,
              43.071687108786925
            ],
            [
              -89.41127973120429,
              43.071687390964975
            ],
            [
              -89.41128145003339,
              43.07168784490933
            ],
            [
              -89.41128311570044,
              43.07168846619199
            ],
            [
              -89.41128471195782,
              43.07168924875272
            ],
            [
              -89.41128622323491,
              43.07169018495806
            ],
            [
              -89.41128763479007,
              43.071691265675845
            ],
            [
              -89.41128893285435,
              43.07169248036429
            ],
            [
              -89.41129010476587,
              43.07169381717479
            ],
            [
              -89.41129113909328,
              43.07169526306749
            ],
            [
              -89.4112920257473,
              43.07169680393853
            ],
            [
              -89.4112927560791,
              43.07169842475757
            ],
            [
              -89.41129332296472,
              43.07170010971442
            ],
            [
              -89.41129372087451,
              43.07170184237327
            ],
            [
              -89.41129394592707,
              43.071703605833015
            ],
            [
              -89.41129399592714,
              43.07170538289207
            ],
            [
              -89.41129099592713,
              43.07184638289207
            ],
            [
              -89.41129087310611,
              43.07184813355982
            ],
            [
              -89.41129058038453,
              43.07184986394609
            ],
            [
              -89.41129012054498,
              43.07185155760195
            ],
            [
              -89.41128949795865,
              43.07185319842761
            ],
            [
              -89.41128871854383,
              43.071854770825496
            ],
            [
              -89.41128778970956,
              43.07185625984849
            ],
            [
              -89.41128672028529,
              43.07185765134204
            ],
            [
              -89.41128552043689,
              43.07185893207871
            ],
            [
              -89.41128420157006,
              43.07186008988389
            ],
            [
              -89.41128277622184,
              43.071861113751574
            ],
            [
              -89.4112812579415,
              43.07186199394893
            ],
            [
              -89.4112796611617,
              43.07186272210886
            ],
            [
              -89.41127800106136,
              43.07186329130953
            ],
            [
              -89.41127629342125,
              43.071863696140156
            ],
            [
              -89.41127455447409,
              43.07186393275244
            ],
            [
              -89.41127280075021,
              43.07186399889718
            ],
            [
              -89.41101967792682,
              43.0718611967995
            ],
            [
              -89.41101832186557,
              43.071937136229124
            ],
            [
              -89.41126813432463,
              43.0719390005012
            ],
            [
              -89.41126991005048,
              43.07193910162836
            ],
            [
              -89.41127166712724,
              43.07193937750932
            ],
            [
              -89.41127338839937,
              43.07193982545044
            ],
            [
              -89.41127505706095,
              43.071940441078205
            ],
            [
              -89.41127665681972,
              43.071941218381816
            ],
            [
              -89.41127817205616,
              43.07194214977193
            ],
            [
              -89.411279587976,
              43.07194322615477
            ],
            [
              -89.41128089075467,
              43.07194443702088
            ],
            [
              -89.41128206767227,
              43.07194577054778
            ],
            [
              -89.41128310723776,
              43.07194721371534
            ],
            [
              -89.41128399930118,
              43.07194875243295
            ],
            [
              -89.41128473515269,
              43.07195037167708
            ],
            [
              -89.4112853076077,
              43.07195205563797
            ],
            [
              -89.41128571107694,
              43.07195378787397
            ],
            [
              -89.41128594162109,
              43.07195555147212
            ],
            [
              -89.41128599698916,
              43.07195732921321
            ],
            [
              -89.41128299698916,
              43.07212132921322
            ],
            [
              -89.41128287894368,
              43.072123084076075
            ],
            [
              -89.4112825901941,
              43.07212481904064
            ],
            [
              -89.41128213349735,
              43.07212651754188
            ],
            [
              -89.41128151321386,
              43.07212816336288
            ],
            [
              -89.41128073526598,
              43.07212974078972
            ],
            [
              -89.41127980708133,
              43.072131234761486
            ],
            [
              -89.41127873752204,
              43.07213263101408
            ],
            [
              -89.4112775368,
              43.07213391621639
            ],
            [
              -89.41127621637945,
              43.0721350780976
            ],
            [
              -89.41127478886746,
              43.07213610556433
            ],
            [
              -89.41127326789359,
              43.07213698880658
            ],
            [
              -89.41127166797975,
              43.07213771939132
            ],
            [
              -89.41127000440156,
              43.07213829034312
            ],
            [
              -89.41126829304247,
              43.07213869621065
            ],
            [
              -89.41126655024216,
              43.07213893311879
            ],
            [
              -89.4112647926405,
              43.07213899880558
            ]
          ]
        ]
      },
      "properties": {
        "building": "university",
        "name": "Engineering Hall",
        "@id": "way/56997838",
        "addr:street": "Engineering Drive",
        "addr:housenumber": "1415",
        "person_counts": [
          0,
          0,
          0,
          0,
          0,
          0,
          0,
          0,
          0,
          0,
          0,
          0,
          0,
          0,
          0,
          0,
          0,
          0,
          0,
          0,
          0,
          0,
          0,
          0,
          0,
          0,
          0,
          0,
          0,
          0,
          0,
          0,
          0,
          0,
          0,
          0,
          0,
          0,
          0,
          0,
          0,
          0,
          0,
          0,
          0,
          0,
          0,
          0,
          0,
          0,
          0,
          0,
          0,
          0,
          0,
          0,
          0,
          0,
          0,
          0,
          0,
          0,
          0,
          0,
          0,
          0,
          0,
          0,
          0,
          0,
          0,
          0
        ],
        "instructor_counts": [
          0,
          0,
          0,
          0,
          0,
          0,
          0,
          0,
          0,
          0,
          0,
          0,
          0,
          0,
          0,
          0,
          0,
          0,
          0,
          0,
          0,
          0,
          0,
          0,
          0,
          0,
          0,
          0,
          0,
          0,
          0,
          0,
          0,
          0,
          0,
          0,
          1,
          1,
          1,
          1,
          1,
          1,
          1,
          1,
          1,
          1,
          1,
          1,
          1,
          1,
          1,
          1,
          1,
          1,
          1,
          1,
          1,
          1,
          1,
          0,
          0,
          0,
          0,
          0,
          0,
          0,
          0,
          0,
          0,
          0,
          0,
          0
        ]
      }
    },
    {
      "type": "Feature",
      "geometry": {
        "type": "Polygon",
        "coordinates": [
          [
            [
              -89.428225,
              43.077676
            ],
            [
              -89.428225,
              43.077619999999996
            ],
            [
              -89.42789889972224,
              43.077619999999996
            ],
            [
              -89.42789699971912,
              43.077960100557085
            ],
            [
              -89.4278969038391,
              43.07796185810271
            ],
            [
              -89.42789663675862,
              43.07796359788074
            ],
            [
              -89.42789620103154,
              43.07796530325505
            ],
            [
              -89.4278956008244,
              43.077966957918456
            ],
            [
              -89.42789484187652,
              43.0779685460487
            ],
            [
              -89.42789393144511,
              43.077970052459754
            ],
            [
              -89.42789287823592,
              43.07797146274696
            ],
            [
              -89.42789169231997,
              43.077972763424846
            ],
            [
              -89.42789038503726,
              43.07797394205604
            ],
            [
              -89.4278889688883,
              43.07797498737022
            ],
            [
              -89.42788745741463,
              43.07797588937185
            ],
            [
              -89.4278858650693,
              43.077976639435796
            ],
            [
              -89.42788420707865,
              43.07797723038978
            ],
            [
              -89.42788249929677,
              43.077977656582966
            ],
            [
              -89.42788075805383,
              43.07797791394001
            ],
            [
              -89.427879,
              43.077977999999995
            ],
            [
              -89.42778362890583,
              43.077977999999995
            ],
            [
              -89.42778299609502,
              43.078008374918646
            ],
            [
              -89.4277828754575,
              43.07801011376891
            ],
            [
              -89.4277825872015,
              43.078011832798325
            ],
            [
              -89.42778213403001,
              43.07801351588753
            ],
            [
              -89.42778152019243,
              43.07801514725415
            ],
            [
              -89.4277807514447,
              43.07801671160085
            ],
            [
              -89.42777983499542,
              43.07801819425872
            ],
            [
              -89.42777877943811,
              43.07801958132484
            ],
            [
              -89.42777759467077,
              43.07802085979268
            ],
            [
              -89.427776291803,
              43.078022017674016
            ],
            [
              -89.42777488305178,
              43.07802304411138
            ],
            [
              -89.42777338162702,
              43.078023929479855
            ],
            [
              -89.42777180160759,
              43.078024665477315
            ],
            [
              -89.42777015780936,
              43.0780252452023
            ],
            [
              -89.42776846564628,
              43.078025663218725
            ],
            [
              -89.42776674098576,
              43.07802591560684
            ],
            [
              -89.427765,
              43.078025999999994
            ],
            [
              -89.42771,
              43.078025999999994
            ],
            [
              -89.42770821237171,
              43.07802591101295
            ],
            [
              -89.42770644241851,
              43.07802564493167
            ],
            [
              -89.4277047076407,
              43.078025204387025
            ],
            [
              -89.42770302519084,
              43.078024593734874
            ],
            [
              -89.42770141170405,
              43.078023819013005
            ],
            [
              -89.4276998831336,
              43.078022887881446
            ],
            [
              -89.42769845459314,
              43.07802180954671
            ],
            [
              -89.42769714020733,
              43.07802059467078
            ],
            [
              -89.42769595297206,
              43.07801925526569
            ],
            [
              -89.42769490462607,
              43.07801780457472
            ],
            [
              -89.42769400553482,
              43.07801625694152
            ],
            [
              -89.42769326458803,
              43.07801462766822
            ],
            [
              -89.4276926891118,
              43.07801293286419
            ],
            [
              -89.42769228479608,
              43.07801118928671
            ],
            [
              -89.42769205563854,
              43.07800941417533
            ],
            [
              -89.42769200390498,
              43.078007625081355
            ],
            [
              -89.42769262109417,
              43.077977999999995
            ],
            [
              -89.427551,
              43.077977999999995
            ],
            [
              -89.42754923218185,
              43.077977912979065
            ],
            [
              -89.42754748145673,
              43.07797765275767
            ],
            [
              -89.42754576475237,
              43.07797722185188
            ],
            [
              -89.42754409866758,
              43.07797662442814
            ],
            [
              -89.42754249931174,
              43.07797586626292
            ],
            [
              -89.42754098214898,
              43.07797495468692
            ],
            [
              -89.42753956184875,
              43.077973898514166
            ],
            [
              -89.42753825214392,
              43.077972707956775
            ],
            [
              -89.42753706569802,
              43.077971394526244
            ],
            [
              -89.42753601398279,
              43.077969970922126
            ],
            [
              -89.42753510716723,
              43.07796845090923
            ],
            [
              -89.42753435401937,
              43.077966849184556
            ],
            [
              -89.42753376182138,
              43.077965181235164
            ],
            [
              -89.4275333362992,
              43.07796346318845
            ],
            [
              -89.42753308156722,
              43.077961711656194
            ],
            [
              -89.42753300008843,
              43.077959943573944
            ],
            [
              -89.42753400008844,
              43.07764094357395
            ],
            [
              -89.42753409193733,
              43.07763918305438
            ],
            [
              -89.42753435556352,
              43.07763743996328
            ],
            [
              -89.42753478843828,
              43.077635731020685
            ],
            [
              -89.42753538640937,
              43.07763407261907
            ],
            [
              -89.42753614374098,
              43.07763248066612
            ],
            [
              -89.42753705316862,
              43.077630970432125
            ],
            [
              -89.42753810596892,
              43.07762955640352
            ],
            [
              -89.42753929204322,
              43.077628252143924
            ],
            [
              -89.4275406000145,
              43.07762707016402
            ],
            [
              -89.42754201733645,
              43.077626021801564
            ],
            [
              -89.42754353041389,
              43.07762511711264
            ],
            [
              -89.42754512473307,
              43.07762436477518
            ],
            [
              -89.42754678500106,
              43.07762377200575
            ],
            [
              -89.42754849529221,
              43.077623344490284
            ],
            [
              -89.42755023920117,
              43.077623086329595
            ],
            [
              -89.427552,
              43.077623
            ],
            [
              -89.42756412631422,
              43.077623
            ],
            [
              -89.4275648727931,
              43.077517
            ],
            [
              -89.427558,
              43.077517
            ],
            [
              -89.42755623569148,
              43.077516913325084
            ],
            [
              -89.42755448837421,
              43.07751665413505
            ],
            [
              -89.42755277487582,
              43.07751622492604
            ],
            [
              -89.42755111169822,
              43.07751562983159
            ],
            [
              -89.42754951485874,
              43.07751487458276
            ],
            [
              -89.42754799973581,
              43.077513966453026
            ],
            [
              -89.42754658092089,
              43.07751291418816
            ],
            [
              -89.42754527207795,
              43.077511727922065
            ],
            [
              -89.42754408581185,
              43.07751041907912
            ],
            [
              -89.42754303354698,
              43.0775090002642
            ],
            [
              -89.42754212541725,
              43.07750748514127
            ],
            [
              -89.42754137016841,
              43.077505888301786
            ],
            [
              -89.42754077507396,
              43.077504225124194
            ],
            [
              -89.42754034586495,
              43.0775025116258
            ],
            [
              -89.42754008667492,
              43.07750076430853
            ],
            [
              -89.42754000000001,
              43.077499
            ],
            [
              -89.42754000000001,
              43.077442
            ],
            [
              -89.42754008667492,
              43.07744023569147
            ],
            [
              -89.42754034586495,
              43.0774384883742
            ],
            [
              -89.42754077507396,
              43.07743677487581
            ],
            [
              -89.42754137016841,
              43.077435111698215
            ],
            [
              -89.42754212541725,
              43.07743351485873
            ],
            [
              -89.42754303354698,
              43.0774319997358
            ],
            [
              -89.42754408581185,
              43.07743058092088
            ],
            [
              -89.42754527207795,
              43.077429272077936
            ],
            [
              -89.42754658092089,
              43.07742808581184
            ],
            [
              -89.42754799973581,
              43.077427033546975
            ],
            [
              -89.42754951485874,
              43.07742612541724
            ],
            [
              -89.42755111169822,
              43.07742537016841
            ],
            [
              -89.427552,
              43.077425052328955
            ],
            [
              -89.427552,
              43.077245
            ],
            [
              -89.42755208756645,
              43.077243226663
            ],
            [
              -89.42755234941379,
              43.077241470579864
            ],
            [
              -89.42755278299437,
              43.0772397488366
            ],
            [
              -89.4275533840896,
              43.077238078185076
            ],
            [
              -89.4275541468511,
              43.07723647488008
            ],
            [
              -89.42755506385745,
              43.07723495452113
            ],
            [
              -89.42755612618657,
              43.07723353190072
            ],
            [
              -89.42755732350243,
              43.07723222086039
            ],
            [
              -89.42755864415558,
              43.077231034156036
            ],
            [
              -89.42756007529663,
              43.07722998333382
            ],
            [
              -89.42756160300111,
              43.07722907861785
            ],
            [
              -89.42756321240508,
              43.07722832881062
            ],
            [
              -89.42756488784967,
              43.07722774120749
            ],
            [
              -89.42756661303345,
              43.077227321525584
            ],
            [
              -89.42756837117109,
              43.077227073848256
            ],
            [
              -89.42757014515658,
              43.077227000585296
            ],
            [
              -89.42769414515658,
              43.0772280005853
            ],
            [
              -89.4276958996873,
              43.07722810052548
            ],
            [
              -89.4276976361102,
              43.07722837108334
            ],
            [
              -89.42769933787372,
              43.07722880967993
            ],
            [
              -89.42770098875667,
              43.07722941213455
            ],
            [
              -89.42770257302281,
              43.0772301727046
            ],
            [
              -89.42770407557097,
              43.07723108414034
            ],
            [
              -89.42770548207885,
              43.07723213775396
            ],
            [
              -89.42770677913961,
              43.077233323502426
            ],
            [
              -89.4277079543897,
              43.07723463008319
            ],
            [
              -89.42770899662662,
              43.077236045041936
            ],
            [
              -89.4277098959158,
              43.07723755489128
            ],
            [
              -89.42771064368519,
              43.07723914523936
            ],
            [
              -89.42771123280707,
              43.077240800926965
            ],
            [
              -89.42771165766595,
              43.07724250617211
            ],
            [
              -89.42771191421205,
              43.0772442447204
            ],
            [
              -89.427712,
              43.077246
            ],
            [
              -89.427712,
              43.07724601763841
            ],
            [
              -89.42871401764705,
              43.07724700000865
            ],
            [
              -89.42871578404552,
              43.077247088629825
            ],
            [
              -89.42871753322015,
              43.07724735017407
            ],
            [
              -89.42871924828376,
              43.07724778211634
            ],
            [
              -89.42872091267846,
              43.077248380286505
            ],
            [
              -89.42872251033558,
              43.07724913890961
            ],
            [
              -89.42872402583073,
              43.07725005066161
            ],
            [
              -89.42872544453276,
              43.07725110674013
            ],
            [
              -89.42872675274499,
              43.07725229694937
            ],
            [
              -89.42872793783744,
              43.077253609798625
            ],
            [
              -89.4287289883688,
              43.07725503261314
            ],
            [
              -89.42872989419683,
              43.07725655165654
            ],
            [
              -89.42873064657634,
              43.07725815226341
            ],
            [
              -89.42873123824356,
              43.0772598189809
            ],
            [
              -89.42873166348633,
              43.07726153571788
            ],
            [
              -89.42873191819919,
              43.07726328590034
            ],
            [
              -89.42873199992306,
              43.077265052631354
            ],
            [
              -89.42873099992306,
              43.07760705263136
            ],
            [
              -89.42873090842143,
              43.07760881340621
            ],
            [
              -89.42873064509288,
              43.07761055678187
            ],
            [
              -89.42873021246399,
              43.07761226603108
            ],
            [
              -89.42872961468574,
              43.07761392475402
            ],
            [
              -89.42872885749362,
              43.07761551703563
            ],
            [
              -89.42872794815275,
              43.07761702759838
            ],
            [
              -89.42872689538802,
              43.07761844194877
            ],
            [
              -89.42872570930045,
              43.077619746516476
            ],
            [
              -89.42872440127024,
              43.07762092878447
            ],
            [
              -89.42872298384765,
              43.077621977409194
            ],
            [
              -89.42872147063248,
              43.077622882329344
            ],
            [
              -89.42871987614367,
              43.077623634862434
            ],
            [
              -89.42871821567995,
              43.0776242277881
            ],
            [
              -89.42871650517304,
              43.07762465541735
            ],
            [
              -89.42871476103487,
              43.077624913647206
            ],
            [
              -89.428713,
              43.077625
            ],
            [
              -89.42861574469377,
              43.077625
            ],
            [
              -89.42861499816354,
              43.077677257116626
            ],
            [
              -89.42861488773785,
              43.077679007195606
            ],
            [
              -89.42861460754594,
              43.077680738225
            ],
            [
              -89.42861416024697,
              43.077682433776204
            ],
            [
              -89.42861355008613,
              43.077684077757354
            ],
            [
              -89.42861278285422,
              43.07768565456599
            ],
            [
              -89.42861186583279,
              43.07768714923718
            ],
            [
              -89.42861080772497,
              43.07768854758552
            ],
            [
              -89.42860961857286,
              43.07768983633978
            ],
            [
              -89.42860830966231,
              43.077691003268846
            ],
            [
              -89.42860689341573,
              43.0776920372978
            ],
            [
              -89.4286053832742,
              43.07769292861305
            ],
            [
              -89.42860379356998,
              43.07769366875541
            ],
            [
              -89.42860213939035,
              43.077694250700475
            ],
            [
              -89.42860043643459,
              43.07769466892519
            ],
            [
              -89.42859870086482,
              43.07769491946034
            ],
            [
              -89.42859694915275,
              43.077694999928184
            ],
            [
              -89.42824294915275,
              43.07769399992818
            ],
            [
              -89.4282411882579,
              43.07769390858985
            ],
            [
              -89.42823944474846,
              43.07769364540128
            ],
            [
              -89.4282377353551,
              43.07769321288802
            ],
            [
              -89.4282360764811,
              43.07769261520045
            ],
            [
              -89.42823448404496,
              43.07769185807396
            ],
            [
              -89.42823297332765,
              43.07769094877392
            ],
            [
              -89.42823155882596,
              43.07768989602593
            ],
            [
              -89.42823025411339,
              43.077688709932126
            ],
            [
              -89.42822907170994,
              43.077687401874236
            ],
            [
              -89.4282280229619,
              43.07768598440433
            ],
            [
              -89.42822711793303,
              43.077684471124414
            ],
            [
              -89.42822636530795,
              43.07768287655586
            ],
            [
              -89.42822577230883,
              43.07768121600011
            ],
            [
              -89.42822534462607,
              43.077679505391785
            ],
            [
              -89.4282250863637,
              43.07767776114584
            ],
            [
              -89.428225,
              43.077676
            ]
          ]
        ]
      },
      "properties": {
        "building": "university",
        "name": "Signe Skott Cooper Hall",
        "@id": "way/174188355",
        "addr:street": "Highland Avenue",
        "addr:housenumber": "701",
        "person_counts": [
          0,
          0,
          0,
          0,
          0,
          0,
          0,
          0,
          0,
          0,
          0,
          0,
          0,
          0,
          0,
          0,
          0,
          0,
          0,
          0,
          0,
          0,
          0,
          0,
          0,
          0,
          0,
          0,
          0,
          0,
          0,
          0,
          0,
          0,
          0,
          0,
          0,
          0,
          0,
          0,
          0,
          0,
          0,
          0,
          0,
          0,
          0,
          0,
          0,
          0,
          0,
          0,
          0,
          0,
          0,
          0,
          0,
          0,
          0,
          0,
          0,
          0,
          0,
          0,
          0,
          0,
          0,
          0,
          0,
          0,
          0,
          0
        ],
        "instructor_counts": [
          0,
          0,
          0,
          0,
          0,
          0,
          0,
          0,
          0,
          0,
          0,
          0,
          0,
          0,
          0,
          0,
          0,
          0,
          0,
          0,
          0,
          0,
          0,
          0,
          0,
          0,
          0,
          0,
          0,
          0,
          0,
          0,
          0,
          0,
          0,
          0,
          0,
          0,
          0,
          0,
          0,
          0,
          0,
          0,
          0,
          0,
          0,
          0,
          0,
          0,
          0,
          0,
          0,
          0,
          0,
          0,
          0,
          0,
          0,
          0,
          0,
          0,
          0,
          0,
          0,
          0,
          0,
          0,
          0,
          0,
          0,
          0
        ]
      }
    },
    {
      "type": "Feature",
      "geometry": {
        "type": "Polygon",
        "coordinates": [
          [
            [
              -89.41200300367197,
              43.072512636437814
            ],
            [
              -89.41200500367198,
              43.072413636437815
            ],
            [
              -89.41200512474377,
              43.072411884529735
            ],
            [
              -89.4120054159527,
              43.07241015275676
            ],
            [
              -89.41200587452705,
              43.07240845760194
            ],
            [
              -89.4120064961021,
              43.072406815199805
            ],
            [
              -89.41200727476166,
              43.072405241182786
            ],
            [
              -89.41200820309444,
              43.072403750532416
            ],
            [
              -89.41200927226456,
              43.07240235743674
            ],
            [
              -89.4120104720956,
              43.07240107515527
            ],
            [
              -89.41201179116757,
              43.07239991589281
            ],
            [
              -89.41201321692549,
              43.072398890683246
            ],
            [
              -89.41201473579895,
              43.07239800928454
            ],
            [
              -89.41201633333131,
              43.07239728008587
            ],
            [
              -89.41201799431717,
              43.07239671002778
            ],
            [
              -89.41201970294726,
              43.072396304536085
            ],
            [
              -89.41202144295879,
              43.072396067470265
            ],
            [
              -89.41202319779026,
              43.07239600108673
            ],
            [
              -89.4121873998782,
              43.072397805505275
            ],
            [
              -89.4121880044428,
              43.07237060009873
            ],
            [
              -89.41218812865044,
              43.07236885177631
            ],
            [
              -89.41218842230819,
              43.07236712382263
            ],
            [
              -89.41218888263171,
              43.07236543262155
            ],
            [
              -89.41218950525632,
              43.072363794208485
            ],
            [
              -89.41219028427855,
              43.0723622241183
            ],
            [
              -89.41219121231195,
              43.07236073723807
            ],
            [
              -89.41219228055722,
              43.072359347665895
            ],
            [
              -89.41219347888563,
              43.072358068577216
            ],
            [
              -89.41219479593502,
              43.072356912099934
            ],
            [
              -89.41219621921759,
              43.07235588919937
            ],
            [
              -89.41219773523824,
              43.07235500957433
            ],
            [
              -89.41219932962257,
              43.07235428156512
            ],
            [
              -89.41220098725316,
              43.07235371207447
            ],
            [
              -89.41220269241293,
              43.0723533065021
            ],
            [
              -89.41220442893415,
              43.072353068693516
            ],
            [
              -89.41220618035166,
              43.07235300090354
            ],
            [
              -89.41270518035167,
              43.07235800090354
            ],
            [
              -89.41270693249655,
              43.07235810403797
            ],
            [
              -89.41270866626692,
              43.07235837733031
            ],
            [
              -89.41271036517779,
              43.07235881818207
            ],
            [
              -89.4127120130756,
              43.07235942240155
            ],
            [
              -89.41271359429189,
              43.07236018424371
            ],
            [
              -89.41271509379214,
              43.07236109646484
            ],
            [
              -89.41271649731887,
              43.07236215039138
            ],
            [
              -89.41271779152709,
              43.072363336002404
            ],
            [
              -89.41271896411122,
              43.07236464202493
            ],
            [
              -89.41272000392217,
              43.072366056041055
            ],
            [
              -89.41272090107321,
              43.07236756460607
            ],
            [
              -89.41272164703409,
              43.072369153376286
            ],
            [
              -89.41272223471205,
              43.072370807245385
            ],
            [
              -89.41272265851939,
              43.0723725104881
            ],
            [
              -89.41272291442644,
              43.0723742469097
            ],
            [
              -89.412723,
              43.072376
            ],
            [
              -89.412723,
              43.07240319564636
            ],
            [
              -89.41288819670956,
              43.072405001074884
            ],
            [
              -89.41288996912378,
              43.07240510803109
            ],
            [
              -89.41289172237617,
              43.07240538909669
            ],
            [
              -89.41289343940556,
              43.07240584153658
            ],
            [
              -89.4128951035033,
              43.07240646094801
            ],
            [
              -89.4128966984758,
              43.0724072413034
            ],
            [
              -89.41289820880216,
              43.072408175008995
            ],
            [
              -89.41289961978515,
              43.07240925297876
            ],
            [
              -89.41290091769429,
              43.072410464722815
            ],
            [
              -89.41290208989945,
              43.07241179844951
            ],
            [
              -89.4129031249937,
              43.072413241180136
            ],
            [
              -89.41290401290443,
              43.072414778875284
            ],
            [
              -89.41290474499121,
              43.072416396571406
            ],
            [
              -89.41290531413001,
              43.072418078526475
            ],
            [
              -89.41290571478247,
              43.07241980837312
            ],
            [
              -89.41290594304975,
              43.07242156927796
            ],
            [
              -89.41290599671056,
              43.07242334410537
            ],
            [
              -89.412896,
              43.07294617206822
            ],
            [
              -89.412896,
              43.072975
            ],
            [
              -89.41289599423447,
              43.07297545555024
            ],
            [
              -89.41289199423447,
              43.07313345555024
            ],
            [
              -89.41289186548832,
              43.07313519643513
            ],
            [
              -89.41289156871528,
              43.073136916662314
            ],
            [
              -89.41289110670652,
              43.07313860005285
            ],
            [
              -89.41289048380732,
              43.07314023077427
            ],
            [
              -89.41288970587607,
              43.07314179348946
            ],
            [
              -89.41288878022934,
              43.07314327350091
            ],
            [
              -89.41288771557291,
              43.07314465688895
            ],
            [
              -89.41288652192,
              43.07314593064266
            ],
            [
              -89.41288521049705,
              43.073147082782256
            ],
            [
              -89.41288379363813,
              43.07314810247172
            ],
            [
              -89.41288228466898,
              43.07314898012077
            ],
            [
              -89.41288069778159,
              43.073149707475025
            ],
            [
              -89.41287904790083,
              43.07315027769363
            ],
            [
              -89.41287735054401,
              43.073150685413616
            ],
            [
              -89.41287562167494,
              43.07315092680034
            ],
            [
              -89.41287387755385,
              43.07315099958352
            ],
            [
              -89.41274440603641,
              43.0731501188249
            ],
            [
              -89.41274399000834,
              43.073162599666944
            ],
            [
              -89.41274384948026,
              43.07316432294096
            ],
            [
              -89.412743544262,
              43.07316602478212
            ],
            [
              -89.4127430771697,
              43.07316768948817
            ],
            [
              -89.412742452513,
              43.07316930169955
            ],
            [
              -89.41274167605539,
              43.07317084654099
            ],
            [
              -89.41274075496095,
              43.07317230975885
            ],
            [
              -89.41273969772824,
              43.073173677852594
            ],
            [
              -89.41273851411194,
              43.07317493819936
            ],
            [
              -89.41273721503282,
              43.0731760791704
            ],
            [
              -89.41273581247697,
              43.07317709023843
            ],
            [
              -89.41273431938522,
              43.07317796207473
            ],
            [
              -89.41273274953376,
              43.0731786866352
            ],
            [
              -89.41273111740698,
              43.0731792572346
            ],
            [
              -89.41272943806389,
              43.07317966860823
            ],
            [
              -89.41272772699912,
              43.07317991696052
            ],
            [
              -89.412726,
              43.07318
            ],
            [
              -89.412656,
              43.07318
            ],
            [
              -89.41265579311711,
              43.073179998811064
            ],
            [
              -89.41222089655463,
              43.073175
            ],
            [
              -89.412153,
              43.073175
            ],
            [
              -89.41215123569148,
              43.07317491332508
            ],
            [
              -89.41214948837421,
              43.07317465413505
            ],
            [
              -89.41214777487582,
              43.07317422492604
            ],
            [
              -89.41214611169822,
              43.07317362983159
            ],
            [
              -89.41214451485874,
              43.07317287458276
            ],
            [
              -89.4121429997358,
              43.073171966453025
            ],
            [
              -89.41214158092089,
              43.07317091418816
            ],
            [
              -89.41214027207795,
              43.073169727922064
            ],
            [
              -89.41213908581184,
              43.07316841907912
            ],
            [
              -89.41213803354698,
              43.0731670002642
            ],
            [
              -89.41213712541725,
              43.07316548514127
            ],
            [
              -89.41213637016841,
              43.073163888301785
            ],
            [
              -89.41213577507396,
              43.07316222512419
            ],
            [
              -89.41213534586495,
              43.0731605116258
            ],
            [
              -89.41213508667492,
              43.07315876430853
            ],
            [
              -89.412135,
              43.073157
            ],
            [
              -89.412135,
              43.07314387543403
            ],
            [
              -89.41200887500301,
              43.07314299956599
            ],
            [
              -89.41200709479129,
              43.07314289888767
            ],
            [
              -89.41200533327466,
              43.07314262257431
            ],
            [
              -89.41200360773823,
              43.07314217333727
            ],
            [
              -89.41200193511402,
              43.07314155558474
            ],
            [
              -89.41200033181488,
              43.0731407753785
            ],
            [
              -89.41199881357338,
              43.07313984037441
            ],
            [
              -89.41199739528744,
              43.07313875974732
            ],
            [
              -89.41199609087417,
              43.07313754410102
            ],
            [
              -89.4119949131333,
              43.07313620536418
            ],
            [
              -89.41199387362153,
              43.073134756673326
            ],
            [
              -89.41199298253922,
              43.07313321224391
            ],
            [
              -89.41199224863021,
              43.07313158723084
            ],
            [
              -89.41199167909608,
              43.073129897579754
            ],
            [
              -89.41199127952545,
              43.07312815987057
            ],
            [
              -89.41199105383917,
              43.073126391154766
            ],
            [
              -89.4119910042518,
              43.07312460878808
            ],
            [
              -89.41199900320655,
              43.07275665687043
            ],
            [
              -89.41200300241822,
              43.072512704957674
            ],
            [
              -89.41200300367197,
              43.072512636437814
            ]
          ]
        ]
      },
      "properties": {
        "building": "university",
        "name": "Mechanical Engineering Building",
        "@id": "way/56997835",
        "addr:street": "University Avenue",
        "addr:housenumber": "1513",
        "person_counts": [
          0,
          0,
          0,
          0,
          0,
          0,
          0,
          0,
          0,
          0,
          0,
          0,
          0,
          0,
          0,
          0,
          0,
          0,
          0,
          0,
          0,
          0,
          0,
          0,
          0,
          0,
          0,
          0,
          0,
          0,
          0,
          0,
          0,
          0,
          0,
          0,
          0,
          0,
          0,
          0,
          0,
          0,
          0,
          0,
          0,
          0,
          0,
          0,
          0,
          0,
          0,
          0,
          0,
          0,
          0,
          0,
          0,
          0,
          0,
          0,
          0,
          0,
          0,
          0,
          0,
          0,
          0,
          0,
          0,
          0,
          0,
          0
        ],
        "instructor_counts": [
          1,
          1,
          1,
          1,
          1,
          1,
          1,
          1,
          1,
          1,
          1,
          0,
          1,
          1,
          1,
          1,
          1,
          1,
          1,
          1,
          1,
          1,
          1,
          1,
          1,
          1,
          1,
          1,
          1,
          1,
          1,
          0,
          0,
          0,
          0,
          0,
          0,
          0,
          0,
          0,
          0,
          0,
          0,
          0,
          0,
          0,
          0,
          0,
          0,
          0,
          0,
          0,
          0,
          0,
          0,
          0,
          0,
          0,
          0,
          0,
          0,
          0,
          0,
          0,
          0,
          0,
          0,
          0,
          0,
          0,
          0,
          0
        ]
      }
    },
    {
      "type": "Feature",
      "geometry": {
        "type": "Polygon",
        "coordinates": [
          [
            [
              -89.41375838812134,
              43.073101174636776
            ],
            [
              -89.41365638812134,
              43.07313317463677
            ],
            [
              -89.41365453009044,
              43.073133650452164
            ],
            [
              -89.41356953009044,
              43.07315065045216
            ],
            [
              -89.41356943565387,
              43.073150669077016
            ],
            [
              -89.41349743565387,
              43.073164669077016
            ],
            [
              -89.41349617524462,
              43.07316486808078
            ],
            [
              -89.41338117524462,
              43.07317886808078
            ],
            [
              -89.41338022048568,
              43.073178958574964
            ],
            [
              -89.41327722048567,
              43.07318595857497
            ],
            [
              -89.41327582353789,
              43.07318599913501
            ],
            [
              -89.41317382353789,
              43.07318499913501
            ],
            [
              -89.41317305394101,
              43.073184975120924
            ],
            [
              -89.413078053941,
              43.07317997512093
            ],
            [
              -89.41307632489848,
              43.07317980010764
            ],
            [
              -89.41307462079236,
              43.07317945916781
            ],
            [
              -89.41307295750771,
              43.073178955479555
            ],
            [
              -89.4130713505491,
              43.073178293738096
            ],
            [
              -89.41306981489609,
              43.07317748011196
            ],
            [
              -89.41306836486348,
              43.07317652218549
            ],
            [
              -89.413067013968,
              43.073175428888156
            ],
            [
              -89.41306577480222,
              43.07317421041129
            ],
            [
              -89.41306465891724,
              43.073172878113134
            ],
            [
              -89.41306367671494,
              43.07317144441291
            ],
            [
              -89.41306283735109,
              43.073169922675085
            ],
            [
              -89.41306214864996,
              43.07316832708478
            ],
            [
              -89.41306161703136,
              43.07316667251554
            ],
            [
              -89.41306124745088,
              43.07316497439071
            ],
            [
              -89.41306104335362,
              43.073163248539615
            ],
            [
              -89.41306100664211,
              43.07316151105006
            ],
            [
              -89.413066,
              43.072977755479734
            ],
            [
              -89.413066,
              43.072947
            ],
            [
              -89.41306600586788,
              43.072946540424915
            ],
            [
              -89.41307900586787,
              43.072437540424914
            ],
            [
              -89.41307914162024,
              43.072435746497675
            ],
            [
              -89.4130794557692,
              43.07243397508183
            ],
            [
              -89.41307994517658,
              43.072432243872974
            ],
            [
              -89.41308060495341,
              43.072430570165054
            ],
            [
              -89.41308142850883,
              43.0724289706776
            ],
            [
              -89.41308240761595,
              43.07242746138872
            ],
            [
              -89.41308353249393,
              43.07242605737548
            ],
            [
              -89.4130847919058,
              43.0724247726633
            ],
            [
              -89.41308617327064,
              43.07242362008583
            ],
            [
              -89.4130876627893,
              43.07242261115676
            ],
            [
              -89.41308924558216,
              43.07242175595481
            ],
            [
              -89.41309090583793,
              43.072421063023036
            ],
            [
              -89.41309262697143,
              43.072420539283485
            ],
            [
              -89.41309439178939,
              43.072420189968064
            ],
            [
              -89.4130961826621,
              43.07242001856628
            ],
            [
              -89.41309978920732,
              43.0724198546324
            ],
            [
              -89.4130991854824,
              43.072410999999995
            ],
            [
              -89.413099,
              43.072410999999995
            ],
            [
              -89.41309725722053,
              43.07241091543244
            ],
            [
              -89.4130955308169,
              43.07241066252441
            ],
            [
              -89.41309383701109,
              43.07241024365232
            ],
            [
              -89.41309219171876,
              43.072409662752065
            ],
            [
              -89.41309061039973,
              43.07240892528201
            ],
            [
              -89.4130891079127,
              43.072408038171716
            ],
            [
              -89.41308769837562,
              43.07240700975682
            ],
            [
              -89.41308639503308,
              43.07240584970072
            ],
            [
              -89.41308521013177,
              43.07240456890376
            ],
            [
              -89.41308415480552,
              43.0724031794008
            ],
            [
              -89.41308323897057,
              43.07240169424818
            ],
            [
              -89.41308247123249,
              43.07240012740097
            ],
            [
              -89.41308185880523,
              43.07239849358188
            ],
            [
              -89.41308140744341,
              43.072396808142926
            ],
            [
              -89.4130811213882,
              43.072395086921155
            ],
            [
              -89.41308100332748,
              43.072393346089854
            ],
            [
              -89.41308000332748,
              43.07234134608986
            ],
            [
              -89.41308006051074,
              43.072339525305196
            ],
            [
              -89.4130803014368,
              43.0723377196249
            ],
            [
              -89.41308072363805,
              43.0723359475434
            ],
            [
              -89.41308132279012,
              43.072334227211016
            ],
            [
              -89.41308209275628,
              43.07233257624802
            ],
            [
              -89.41308302565028,
              43.07233101156418
            ],
            [
              -89.41308411191703,
              43.072329549185554
            ],
            [
              -89.41308534043063,
              43.07232820409037
            ],
            [
              -89.41308669860817,
              43.07232699005558
            ],
            [
              -89.4130881725387,
              43.07232591951578
            ],
            [
              -89.41308974712571,
              43.072325003435814
            ],
            [
              -89.41309140624168,
              43.07232425119852
            ],
            [
              -89.41309270186021,
              43.07232381546927
            ],
            [
              -89.41309005301926,
              43.07228938053698
            ],
            [
              -89.41309000437191,
              43.0722876033011
            ],
            [
              -89.41309013128937,
              43.0722858299354
            ],
            [
              -89.4130904325334,
              43.07228407774079
            ],
            [
              -89.41309090516509,
              43.07228236381162
            ],
            [
              -89.41309154457346,
              43.07228070486892
            ],
            [
              -89.41309234452045,
              43.0722791170973
            ],
            [
              -89.41309329720183,
              43.072277615987
            ],
            [
              -89.41309439332323,
              43.07227621618281
            ],
            [
              -89.41309562219097,
              43.07227493134117
            ],
            [
              -89.41309697181622,
              43.07227377399696
            ],
            [
              -89.41309842903208,
              43.07227275544119
            ],
            [
              -89.41309997962202,
              43.07227188561087
            ],
            [
              -89.4131016084585,
              43.072271172992025
            ],
            [
              -89.41310329965067,
              43.07227062453695
            ],
            [
              -89.4131050366993,
              43.07227024559635
            ],
            [
              -89.41310680265781,
              43.072270039867156
            ],
            [
              -89.41313680265782,
              43.072268039867154
            ],
            [
              -89.4131387133461,
              43.072268014140626
            ],
            [
              -89.41314061599518,
              43.07226819110982
            ],
            [
              -89.41331452922152,
              43.07229373768544
            ],
            [
              -89.41333646990958,
              43.07228934954784
            ],
            [
              -89.4133383177322,
              43.07228907878422
            ],
            [
              -89.41334018366392,
              43.07228900093704
            ],
            [
              -89.41373218366391,
              43.07229300093704
            ],
            [
              -89.41373391596241,
              43.072293102260254
            ],
            [
              -89.41373563045474,
              43.0722933699178
            ],
            [
              -89.4137373112071,
              43.07229380142218
            ],
            [
              -89.41373894259925,
              43.072294392763155
            ],
            [
              -89.4137405094697,
              43.07229513844505
            ],
            [
              -89.4137419972566,
              43.0722960315378
            ],
            [
              -89.41374339213304,
              43.07229706374137
            ],
            [
              -89.41374468113563,
              43.07229822546286
            ],
            [
              -89.41374585228489,
              43.07229950590572
            ],
            [
              -89.41374689469663,
              43.07230089317002
            ],
            [
              -89.41374779868312,
              43.072302374363105
            ],
            [
              -89.41374855584304,
              43.072303935719354
            ],
            [
              -89.41374915913968,
              43.07230556272816
            ],
            [
              -89.41374960296625,
              43.07230724026877
            ],
            [
              -89.413749883198,
              43.07230895275079
            ],
            [
              -89.41374999723055,
              43.072310684259115
            ],
            [
              -89.4137507459944,
              43.0723533637988
            ],
            [
              -89.41376973507575,
              43.07235739178575
            ],
            [
              -89.41377144993344,
              43.07235784487757
            ],
            [
              -89.41377311187246,
              43.07235846454506
            ],
            [
              -89.41377470475544,
              43.07235924477126
            ],
            [
              -89.41377621311554,
              43.0723601779802
            ],
            [
              -89.41377762230663,
              43.07236125511045
            ],
            [
              -89.4137789186455,
              43.07236246570312
            ],
            [
              -89.41378008954477,
              43.072363798003394
            ],
            [
              -89.41378112363503,
              43.07236523907467
            ],
            [
              -89.41378201087531,
              43.07236677492421
            ],
            [
              -89.41378274265053,
              43.07236839063896
            ],
            [
              -89.41378331185516,
              43.072370070530376
            ],
            [
              -89.41378371296227,
              43.07237179828678
            ],
            [
              -89.4137839420771,
              43.07237355713171
            ],
            [
              -89.41378399697498,
              43.07237532998685
            ],
            [
              -89.41377099697499,
              43.07308432998685
            ],
            [
              -89.41377088240554,
              43.073086054159674
            ],
            [
              -89.4137706030366,
              43.073087759401915
            ],
            [
              -89.41377016144273,
              43.073089429998504
            ],
            [
              -89.41376956169354,
              43.073091050553664
            ],
            [
              -89.4137688093162,
              43.07309260613279
            ],
            [
              -89.41376791124438,
              43.073094082400075
            ],
            [
              -89.41376687575448,
              43.07309546575064
            ],
            [
              -89.4137657123893,
              43.07309674343588
            ],
            [
              -89.41376443187012,
              43.073097903681
            ],
            [
              -89.41376304599787,
              43.07309893579348
            ],
            [
              -89.41376156754434,
              43.07309983026165
            ],
            [
              -89.41376001013461,
              43.07310057884232
            ],
            [
              -89.41375838812134,
              43.073101174636776
            ]
          ]
        ]
      },
      "properties": {
        "building": "university",
        "name": "Engineering Centers Building",
        "@id": "way/56997836",
        "addr:street": "Engineering Drive",
        "addr:housenumber": "1550",
        "person_counts": [
          0,
          0,
          0,
          0,
          0,
          0,
          0,
          0,
          0,
          0,
          0,
          0,
          0,
          0,
          0,
          0,
          0,
          0,
          0,
          0,
          0,
          0,
          0,
          0,
          0,
          0,
          0,
          0,
          0,
          0,
          0,
          0,
          0,
          0,
          0,
          0,
          0,
          0,
          0,
          0,
          0,
          0,
          0,
          0,
          0,
          0,
          0,
          0,
          0,
          0,
          0,
          0,
          0,
          0,
          0,
          0,
          0,
          0,
          0,
          0,
          0,
          0,
          0,
          0,
          0,
          0,
          0,
          0,
          0,
          0,
          0,
          0
        ],
        "instructor_counts": [
          0,
          0,
          0,
          0,
          0,
          0,
          0,
          0,
          0,
          0,
          0,
          0,
          0,
          0,
          0,
          0,
          0,
          0,
          0,
          0,
          0,
          0,
          0,
          0,
          0,
          0,
          0,
          0,
          0,
          0,
          0,
          0,
          0,
          0,
          0,
          0,
          0,
          0,
          0,
          0,
          0,
          0,
          0,
          0,
          0,
          0,
          0,
          0,
          0,
          0,
          0,
          0,
          0,
          0,
          0,
          0,
          0,
          0,
          0,
          0,
          1,
          1,
          1,
          1,
          1,
          1,
          1,
          1,
          1,
          1,
          1,
          1
        ]
      }
    }
  ],
  "metadata": {
    "total_buildings": 4,
    "total_meetings": 5,
    "max_persons": 0,
    "total_chunks": 72,
    "chunk_duration_minutes": 5,
    "start_time": 1786631400000,
    "end_time": 1786653000000,
    "total_persons": [
      0,
      0,
      0,
      0,
      0,
      0,
      0,
      0,
      0,
      0,
      0,
      0,
      0,
      0,
      0,
      0,
      0,
      0,
      0,
      0,
      0,
      0,
      0,
      0,
      0,
      0,
      0,
      0,
      0,
      0,
      0,
      0,
      0,
      0,
      0,
      0,
      0,
      0,
      0,
      0,
      0,
      0,
      0,
      0,
      0,
      0,
      0,
      0,
      0,
      0,
      0,
      0,
      0,
      0,
      0,
      0,
      0,
      0,
      0,
      0,
      0,
      0,
      0,
      0,
      0,
      0,
      0,
      0,
      0,
      0,
      0,
      0
    ],
    "total_instructors": [
      1,
      1,
      1,
      1,
      1,
      1,
      1,
      1,
      1,
      1,
      1,
      0,
      1,
      1,
      1,
      1,
      1,
      1,
      1,
      1,
      1,
      1,
      1,
      1,
      1,
      1,
      1,
      1,
      1,
      1,
      1,
      0,
      0,
      0,
      0,
      0,
      1,
      1,
      1,
      1,
      1,
      1,
      1,
      1,
      1,
      1,
      1,
      1,
      1,
      1,
      1,
      1,
      1,
      1,
      1,
      1,
      1,
      1,
      1,
      0,
      1,
      1,
      1,
      1,
      1,
      1,
      1,
      1,
      1,
      1,
      1,
      1
    ]
  }
}