{
  "type": "FeatureCollection",
  "features": [
    {
      "type": "Feature",
      "geometry": {
        "type": "Polygon",
        "coordinates": [
          [
            [
              -89.428225,
              43.077676
            ],
            [
              -89.428225,
              43.077619999999996
            ],
            [
              -89.42789889972224,
              43.077619999999996
            ],
            [
              -89.42789699971912,
              43.077960100557085
            ],
            [
              -89.4278969038391,
              43.07796185810271
            ],
            [
              -89.42789663675862,
              43.07796359788074
            ],
            [
              -89.42789620103154,
              43.07796530325505
            ],
            [
              -89.4278956008244,
              43.077966957918456
            ],
            [
              -89.42789484187652,
              43.0779685460487
            ],
            [
              -89.42789393144511,
              43.077970052459754
            ],
            [
              -89.42789287823592,
              43.07797146274696
            ],
            [
              -89.42789169231997,
              43.077972763424846
            ],
            [
              -89.42789038503726,
              43.07797394205604
            ],
            [
              -89.4278889688883,
              43.07797498737022
            ],
            [
              -89.42788745741463,
              43.07797588937185
            ],
            [
              -89.4278858650693,
              43.077976639435796
            ],
            [
              -89.42788420707865,
              43.07797723038978
            ],
            [
              -89.42788249929677,
              43.077977656582966
            ],
            [
              -89.42788075805383,
              43.07797791394001
            ],
            [
              -89.427879,
              43.077977999999995
            ],
            [
              -89.42778362890583,
              43.077977999999995
            ],
            [
              -89.42778299609502,
              43.078008374918646
            ],
            [
              -89.4277828754575,
              43.07801011376891
            ],
            [
              -89.4277825872015,
              43.078011832798325
            ],
            [
              -89.42778213403001,
              43.07801351588753
            ],
            [
              -89.42778152019243,
              43.07801514725415
            ],
            [
              -89.4277807514447,
              43.07801671160085
            ],
            [
              -89.42777983499542,
              43.07801819425872
            ],
            [
              -89.42777877943811,
              43.07801958132484
            ],
            [
              -89.42777759467077,
              43.07802085979268
            ],
            [
              -89.427776291803,
              43.078022017674016
            ],
            [
              -89.42777488305178,
              43.07802304411138
            ],
            [
              -89.42777338162702,
              43.078023929479855
            ],
            [
              -89.42777180160759,
              43.078024665477315
            ],
            [
              -89.42777015780936,
              43.0780252452023
            ],
            [
              -89.42776846564628,
              43.078025663218725
            ],
            [
              -89.42776674098576,
              43.07802591560684
            ],
            [
              -89.427765,
              43.078025999999994
            ],
            [
              -89.42771,
              43.078025999999994
            ],
            [
              -89.42770821237171,
              43.07802591101295
            ],
            [
              -89.42770644241851,
              43.07802564493167
            ],
            [
              -89.4277047076407,
              43.078025204387025
            ],
            [
              -89.42770302519084,
              43.078024593734874
            ],
            [
              -89.42770141170405,
              43.078023819013005
            ],
            [
              -89.4276998831336,
              43.078022887881446
            ],
            [
              -89.42769845459314,
              43.07802180954671
            ],
            [
              -89.42769714020733,
              43.07802059467078
            ],
            [
              -89.42769595297206,
              43.07801925526569
            ],
            [
              -89.42769490462607,
              43.07801780457472
            ],
            [
              -89.42769400553482,
              43.07801625694152
            ],
            [
              -89.42769326458803,
              43.07801462766822
            ],
            [
              -89.4276926891118,
              43.07801293286419
            ],
            [
              -89.42769228479608,
              43.07801118928671
            ],
            [
              -89.42769205563854,
              43.07800941417533
            ],
            [
              -89.42769200390498,
              43.078007625081355
            ],
            [
              -89.42769262109417,
              43.077977999999995
            ],
            [
              -89.427551,
              43.077977999999995
            ],
            [
              -89.42754923218185,
              43.077977912979065
            ],
            [
              -89.42754748145673,
              43.07797765275767
            ],
            [
              -89.42754576475237,
              43.07797722185188
            ],
            [
              -89.42754409866758,
              43.07797662442814
            ],
            [
              -89.42754249931174,
              43.07797586626292
            ],
            [
              -89.42754098214898,
              43.07797495468692
            ],
            [
              -89.42753956184875,
              43.077973898514166
            ],
            [
              -89.42753825214392,
              43.077972707956775
            ],
            [
              -89.42753706569802,
              43.077971394526244
            ],
            [
              -89.42753601398279,
              43.077969970922126
            ],
            [
              -89.42753510716723,
              43.07796845090923
            ],
            [
              -89.42753435401937,
              43.077966849184556
            ],
            [
              -89.42753376182138,
              43.077965181235164
            ],
            [
              -89.4275333362992,
              43.07796346318845
            ],
            [
              -89.42753308156722,
              43.077961711656194
            ],
            [
              -89.42753300008843,
              43.077959943573944
            ],
            [
              -89.42753400008844,
              43.07764094357395
            ],
            [
              -89.42753409193733,
              43.07763918305438
            ],
            [
              -89.42753435556352,
              43.07763743996328
            ],
            [
              -89.42753478843828,
              43.077635731020685
            ],
            [
              -89.42753538640937,
              43.07763407261907
            ],
            [
              -89.42753614374098,
              43.07763248066612
            ],
            [
              -89.42753705316862,
              43.077630970432125
            ],
            [
              -89.42753810596892,
              43.07762955640352
            ],
            [
              -89.42753929204322,
              43.077628252143924
            ],
            [
              -89.4275406000145,
              43.07762707016402
            ],
            [
              -89.42754201733645,
              43.077626021801564
            ],
            [
              -89.42754353041389,
              43.07762511711264
            ],
            [
              -89.42754512473307,
              43.07762436477518
            ],
            [
              -89.42754678500106,
              43.07762377200575
            ],
            [
              -89.42754849529221,
              43.077623344490284
            ],
            [
              -89.42755023920117,
              43.077623086329595
            ],
            [
              -89.427552,
              43.077623
            ],
            [
              -89.42756412631422,
              43.077623
            ],
            [
              -89.4275648727931,
              43.077517
            ],
            [
              -89.427558,
              43.077517
            ],
            [
              -89.42755623569148,
              43.077516913325084
            ],
            [
              -89.42755448837421,
              43.07751665413505
            ],
            [
              -89.42755277487582,
              43.07751622492604
            ],
            [
              -89.42755111169822,
              43.07751562983159
            ],
            [
              -89.42754951485874,
              43.07751487458276
            ],
            [
              -89.42754799973581,
              43.077513966453026
            ],
            [
              -89.42754658092089,
              43.07751291418816
            ],
            [
              -89.42754527207795,
              43.077511727922065
            ],
            [
              -89.42754408581185,
              43.07751041907912
            ],
            [
              -89.42754303354698,
              43.0775090002642
            ],
            [
              -89.42754212541725,
              43.07750748514127
            ],
            [
              -89.42754137016841,
              43.077505888301786
            ],
            [
              -89.42754077507396,
              43.077504225124194
            ],
            [
              -89.42754034586495,
              43.0775025116258
            ],
            [
              -89.42754008667492,
              43.07750076430853
            ],
            [
              -89.42754000000001,
              43.077499
            ],
            [
              -89.42754000000001,
              43.077442
            ],
            [
              -89.42754008667492,
              43.07744023569147
            ],
            [
              -89.42754034586495,
              43.0774384883742
            ],
            [
              -89.42754077507396,
              43.07743677487581
            ],
            [
              -89.42754137016841,
              43.077435111698215
            ],
            [
              -89.42754212541725,
              43.07743351485873
            ],
            [
              -89.42754303354698,
              43.0774319997358
            ],
            [
              -89.42754408581185,
              43.07743058092088
            ],
            [
              -89.42754527207795,
              43.077429272077936
            ],
            [
              -89.42754658092089,
              43.07742808581184
            ],
            [
              -89.42754799973581,
              43.077427033546975
            ],
            [
              -89.42754951485874,
              43.07742612541724
            ],
            [
              -89.42755111169822,
              43.07742537016841
            ],
            [
              -89.427552,
              43.077425052328955
            ],
            [
              -89.427552,
              43.077245
            ],
            [
              -89.42755208756645,
              43.077243226663
            ],
            [
              -89.42755234941379,
              43.077241470579864
            ],
            [
              -89.42755278299437,
              43.0772397488366
            ],
            [
              -89.4275533840896,
              43.077238078185076
            ],
            [
              -89.4275541468511,
              43.07723647488008
            ],
            [
              -89.42755506385745,
              43.07723495452113
            ],
            [
              -89.42755612618657,
              43.07723353190072
            ],
            [
              -89.42755732350243,
              43.07723222086039
            ],
            [
              -89.42755864415558,
              43.077231034156036
            ],
            [
              -89.42756007529663,
              43.07722998333382
            ],
            [
              -89.42756160300111,
              43.07722907861785
            ],
            [
              -89.42756321240508,
              43.07722832881062
            ],
            [
              -89.42756488784967,
              43.07722774120749
            ],
            [
              -89.42756661303345,
              43.077227321525584
            ],
            [
              -89.42756837117109,
              43.077227073848256
            ],
            [
              -89.42757014515658,
              43.077227000585296
            ],
            [
              -89.42769414515658,
              43.0772280005853
            ],
            [
              -89.4276958996873,
              43.07722810052548
            ],
            [
              -89.4276976361102,
              43.07722837108334
            ],
            [
              -89.42769933787372,
              43.07722880967993
            ],
            [
              -89.42770098875667,
              43.07722941213455
            ],
            [
              -89.42770257302281,
              43.0772301727046
            ],
            [
              -89.42770407557097,
              43.07723108414034
            ],
            [
              -89.42770548207885,
              43.07723213775396
            ],
            [
              -89.42770677913961,
              43.077233323502426
            ],
            [
              -89.4277079543897,
              43.07723463008319
            ],
            [
              -89.42770899662662,
              43.077236045041936
            ],
            [
              -89.4277098959158,
              43.07723755489128
            ],
            [
              -89.42771064368519,
              43.07723914523936
            ],
            [
              -89.42771123280707,
              43.077240800926965
            ],
            [
              -89.42771165766595,
              43.07724250617211
            ],
            [
              -89.42771191421205,
              43.0772442447204
            ],
            [
              -89.427712,
              43.077246
            ],
            [
              -89.427712,
              43.07724601763841
            ],
            [
              -89.42871401764705,
              43.07724700000865
            ],
            [
              -89.42871578404552,
              43.077247088629825
            ],
            [
              -89.42871753322015,
              43.07724735017407
            ],
            [
              -89.42871924828376,
              43.07724778211634
            ],
            [
              -89.42872091267846,
              43.077248380286505
            ],
            [
              -89.42872251033558,
              43.07724913890961
            ],
            [
              -89.42872402583073,
              43.07725005066161
            ],
            [
              -89.42872544453276,
              43.07725110674013
            ],
            [
              -89.42872675274499,
              43.07725229694937
            ],
            [
              -89.42872793783744,
              43.077253609798625
            ],
            [
              -89.4287289883688,
              43.07725503261314
            ],
            [
              -89.42872989419683,
              43.07725655165654
            ],
            [
              -89.42873064657634,
              43.07725815226341
            ],
            [
              -89.42873123824356,
              43.0772598189809
            ],
            [
              -89.42873166348633,
              43.07726153571788
            ],
            [
              -89.42873191819919,
              43.07726328590034
            ],
            [
              -89.42873199992306,
              43.077265052631354
            ],
            [
              -89.42873099992306,
              43.07760705263136
            ],
            [
              -89.42873090842143,
              43.07760881340621
            ],
            [
              -89.42873064509288,
              43.07761055678187
            ],
            [
              -89.42873021246399,
              43.07761226603108
            ],
            [
              -89.42872961468574,
              43.07761392475402
            ],
            [
              -89.42872885749362,
              43.07761551703563
            ],
            [
              -89.42872794815275,
              43.07761702759838
            ],
            [
              -89.42872689538802,
              43.07761844194877
            ],
            [
              -89.42872570930045,
              43.077619746516476
            ],
            [
              -89.42872440127024,
              43.07762092878447
            ],
            [
              -89.42872298384765,
              43.077621977409194
            ],
            [
              -89.42872147063248,
              43.077622882329344
            ],
            [
              -89.42871987614367,
              43.077623634862434
            ],
            [
              -89.42871821567995,
              43.0776242277881
            ],
            [
              -89.42871650517304,
              43.07762465541735
            ],
            [
              -89.42871476103487,
              43.077624913647206
            ],
            [
              -89.428713,
              43.077625
            ],
            [
              -89.42861574469377,
              43.077625
            ],
            [
              -89.42861499816354,
              43.077677257116626
            ],
            [
              -89.42861488773785,
              43.077679007195606
            ],
            [
              -89.42861460754594,
              43.077680738225
            ],
            [
              -89.42861416024697,
              43.077682433776204
            ],
            [
              -89.42861355008613,
              43.077684077757354
            ],
            [
              -89.42861278285422,
              43.07768565456599
            ],
            [
              -89.42861186583279,
              43.07768714923718
            ],
            [
              -89.42861080772497,
              43.07768854758552
            ],
            [
              -89.42860961857286,
              43.07768983633978
            ],
            [
              -89.42860830966231,
              43.077691003268846
            ],
            [
              -89.42860689341573,
              43.0776920372978
            ],
            [
              -89.4286053832742,
              43.07769292861305
            ],
            [
              -89.42860379356998,
              43.07769366875541
            ],
            [
              -89.42860213939035,
              43.077694250700475
            ],
            [
              -89.42860043643459,
              43.07769466892519
            ],
            [
              -89.42859870086482,
              43.07769491946034
            ],
            [
              -89.42859694915275,
              43.077694999928184
            ],
            [
              -89.42824294915275,
              43.07769399992818
            ],
            [
              -89.4282411882579,
              43.07769390858985
            ],
            [
              -89.42823944474846,
              43.07769364540128
            ],
            [
              -89.4282377353551,
              43.07769321288802
            ],
            [
              -89.4282360764811,
              43.07769261520045
            ],
            [
              -89.42823448404496,
              43.07769185807396
            ],
            [
              -89.42823297332765,
              43.07769094877392
            ],
            [
              -89.42823155882596,
              43.07768989602593
            ],
            [
              -89.42823025411339,
              43.077688709932126
            ],
            [
              -89.42822907170994,
              43.077687401874236
            ],
            [
              -89.4282280229619,
              43.07768598440433
            ],
            [
              -89.42822711793303,
              43.077684471124414
            ],
            [
              -89.42822636530795,
              43.07768287655586
            ],
            [
              -89.42822577230883,
              43.07768121600011
            ],
            [
              -89.42822534462607,
              43.077679505391785
            ],
            [
              -89.4282250863637,
              43.07767776114584
            ],
            [
              -89.428225,
              43.077676
            ]
          ]
        ]
      },
      "properties": {
        "building": "university",
        "name": "Signe Skott Cooper Hall",
        "@id": "way/174188355",
        "addr:street": "Highland Avenue",
        "addr:housenumber": "701",
        "person_counts": [
          0,
          0,
          0,
          0,
          0,
          0,
          0,
          0,
          0,
          0,
          0,
          0,
          0,
          0,
          0,
          0,
          0,
          0,
          0,
          0,
          0,
          0,
          0,
          0,
          0,
          0,
          0,
          0,
          0,
          0,
          0,
          0,
          0,
          0,
          0,
          0,
          0,
          0,
          0,
          0,
          0,
          0,
          0,
          0,
          0,
          0,
          0,
          0,
          0,
          0,
          0,
          0,
          0,
          0,
          0,
          0,
          0,
          0,
          0,
          0,
          0,
          0,
          0,
          0,
          0,
          0,
          0,
          0,
          0,
          0,
          0,
          0
        ],
        "instructor_counts": [
          0,
          0,
          0,
          0,
          0,
          0,
          0,
          0,
          0,
          0,
          0,
          0,
          0,
          0,
          0,
          0,
          0,
          0,
          0,
          0,
          0,
          0,
          0,
          0,
          0,
          0,
          0,
          0,
          0,
          0,
          0,
          0,
          0,
          0,
          0,
          0,
          0,
          0,
          0,
          0,
          0,
          0,
          0,
          0,
          0,
          0,
          0,
          0,
          0,
          0,
          0,
          0,
          0,
          0,
          0,
          0,
          0,
          0,
          0,
          0,
          0,
          0,
          0,
          0,
          0,
          0,
          0,
          0,
          0,
          0,
          0,
          0
        ]
      }
    },
    {
      "type": "Feature",
      "geometry": {
        "type": "Polygon",
        "coordinates": [
          [
            [
              -89.41200300367197,
              43.072512636437814
            ],
            [
              -89.41200500367198,
              43.072413636437815
            ],
            [
              -89.41200512474377,
              43.072411884529735
            ],
            [
              -89.4120054159527,
              43.07241015275676
            ],
            [
              -89.41200587452705,
              43.07240845760194
            ],
            [
              -89.4120064961021,
              43.072406815199805
            ],
            [
              -89.41200727476166,
              43.072405241182786
            ],
            [
              -89.41200820309444,
              43.072403750532416
            ],
            [
              -89.41200927226456,
              43.07240235743674
            ],
            [
              -89.4120104720956,
              43.07240107515527
            ],
            [
              -89.41201179116757,
              43.07239991589281
            ],
            [
              -89.41201321692549,
              43.072398890683246
            ],
            [
              -89.41201473579895,
              43.07239800928454
            ],
            [
              -89.41201633333131,
              43.07239728008587
            ],
            [
              -89.41201799431717,
              43.07239671002778
            ],
            [
              -89.41201970294726,
              43.072396304536085
            ],
            [
              -89.41202144295879,
              43.072396067470265
            ],
            [
              -89.41202319779026,
              43.07239600108673
            ],
            [
              -89.4121873998782,
              43.072397805505275
            ],
            [
              -89.4121880044428,
              43.07237060009873
            ],
            [
              -89.41218812865044,
              43.07236885177631
            ],
            [
              -89.41218842230819,
              43.07236712382263
            ],
            [
              -89.41218888263171,
              43.07236543262155
            ],
            [
              -89.41218950525632,
              43.072363794208485
            ],
            [
              -89.41219028427855,
              43.0723622241183
            ],
            [
              -89.41219121231195,
              43.07236073723807
            ],
            [
              -89.41219228055722,
              43.072359347665895
            ],
            [
              -89.41219347888563,
              43.072358068577216
            ],
            [
              -89.41219479593502,
              43.072356912099934
            ],
            [
              -89.41219621921759,
              43.07235588919937
            ],
            [
              -89.41219773523824,
              43.07235500957433
            ],
            [
              -89.41219932962257,
              43.07235428156512
            ],
            [
              -89.41220098725316,
              43.07235371207447
            ],
            [
              -89.41220269241293,
              43.0723533065021
            ],
            [
              -89.41220442893415,
              43.072353068693516
            ],
            [
              -89.41220618035166,
              43.07235300090354
            ],
            [
              -89.41270518035167,
              43.07235800090354
            ],
            [
              -89.41270693249655,
              43.07235810403797
            ],
            [
              -89.41270866626692,
              43.07235837733031
            ],
            [
              -89.41271036517779,
              43.07235881818207
            ],
            [
              -89.4127120130756,
              43.07235942240155
            ],
            [
              -89.41271359429189,
              43.07236018424371
            ],
            [
              -89.41271509379214,
              43.07236109646484
            ],
            [
              -89.41271649731887,
              43.07236215039138
            ],
            [
              -89.41271779152709,
              43.072363336002404
            ],
            [
              -89.41271896411122,
              43.07236464202493
            ],
            [
              -89.41272000392217,
              43.072366056041055
            ],
            [
              -89.41272090107321,
              43.07236756460607
            ],
            [
              -89.41272164703409,
              43.072369153376286
            ],
            [
              -89.41272223471205,
              43.072370807245385
            ],
            [
              -89.41272265851939,
              43.0723725104881
            ],
            [
              -89.41272291442644,
              43.0723742469097
            ],
            [
              -89.412723,
              43.072376
            ],
            [
              -89.412723,
              43.07240319564636
            ],
            [
              -89.41288819670956,
              43.072405001074884
            ],
            [
              -89.41288996912378,
              43.07240510803109
            ],
            [
              -89.41289172237617,
              43.07240538909669
            ],
            [
              -89.41289343940556,
              43.07240584153658
            ],
            [
              -89.4128951035033,
              43.07240646094801
            ],
            [
              -89.4128966984758,
              43.0724072413034
            ],
            [
              -89.41289820880216,
              43.072408175008995
            ],
            [
              -89.41289961978515,
              43.07240925297876
            ],
            [
              -89.41290091769429,
              43.072410464722815
            ],
            [
              -89.41290208989945,
              43.07241179844951
            ],
            [
              -89.4129031249937,
              43.072413241180136
            ],
            [
              -89.41290401290443,
              43.072414778875284
            ],
            [
              -89.41290474499121,
              43.072416396571406
            ],
            [
              -89.41290531413001,
              43.072418078526475
            ],
            [
              -89.41290571478247,
              43.07241980837312
            ],
            [
              -89.41290594304975,
              43.07242156927796
            ],
            [
              -89.41290599671056,
              43.07242334410537
            ],
            [
              -89.412896,
              43.07294617206822
            ],
            [
              -89.412896,
              43.072975
            ],
            [
              -89.41289599423447,
              43.07297545555024
            ],
            [
              -89.41289199423447,
              43.07313345555024
            ],
            [
              -89.41289186548832,
              43.07313519643513
            ],
            [
              -89.41289156871528,
              43.073136916662314
            ],
            [
              -89.41289110670652,
              43.07313860005285
            ],
            [
              -89.41289048380732,
              43.07314023077427
            ],
            [
              -89.41288970587607,
              43.07314179348946
            ],
            [
              -89.41288878022934,
              43.07314327350091
            ],
            [
              -89.41288771557291,
              43.07314465688895
            ],
            [
              -89.41288652192,
              43.07314593064266
            ],
            [
              -89.41288521049705,
              43.073147082782256
            ],
            [
              -89.41288379363813,
              43.07314810247172
            ],
            [
              -89.41288228466898,
              43.07314898012077
            ],
            [
              -89.41288069778159,
              43.073149707475025
            ],
            [
              -89.41287904790083,
              43.07315027769363
            ],
            [
              -89.41287735054401,
              43.073150685413616
            ],
            [
              -89.41287562167494,
              43.07315092680034
            ],
            [
              -89.41287387755385,
              43.07315099958352
            ],
            [
              -89.41274440603641,
              43.0731501188249
            ],
            [
              -89.41274399000834,
              43.073162599666944
            ],
            [
              -89.41274384948026,
              43.07316432294096
            ],
            [
              -89.412743544262,
              43.07316602478212
            ],
            [
              -89.4127430771697,
              43.07316768948817
            ],
            [
              -89.412742452513,
              43.07316930169955
            ],
            [
              -89.41274167605539,
              43.07317084654099
            ],
            [
              -89.41274075496095,
              43.07317230975885
            ],
            [
              -89.41273969772824,
              43.073173677852594
            ],
            [
              -89.41273851411194,
              43.07317493819936
            ],
            [
              -89.41273721503282,
              43.0731760791704
            ],
            [
              -89.41273581247697,
              43.07317709023843
            ],
            [
              -89.41273431938522,
              43.07317796207473
            ],
            [
              -89.41273274953376,
              43.0731786866352
            ],
            [
              -89.41273111740698,
              43.0731792572346
            ],
            [
              -89.41272943806389,
              43.07317966860823
            ],
            [
              -89.41272772699912,
              43.07317991696052
            ],
            [
              -89.412726,
              43.07318
            ],
            [
              -89.412656,
              43.07318
            ],
            [
              -89.41265579311711,
              43.073179998811064
            ],
            [
              -89.41222089655463,
              43.073175
            ],
            [
              -89.412153,
              43.073175
            ],
            [
              -89.41215123569148,
              43.07317491332508
            ],
            [
              -89.41214948837421,
              43.07317465413505
            ],
            [
              -89.41214777487582,
              43.07317422492604
            ],
            [
              -89.41214611169822,
              43.07317362983159
            ],
            [
              -89.41214451485874,
              43.07317287458276
            ],
            [
              -89.4121429997358,
              43.073171966453025
            ],
            [
              -89.41214158092089,
              43.07317091418816
            ],
            [
              -89.41214027207795,
              43.073169727922064
            ],
            [
              -89.41213908581184,
              43.07316841907912
            ],
            [
              -89.41213803354698,
              43.0731670002642
            ],
            [
              -89.41213712541725,
              43.07316548514127
            ],
            [
              -89.41213637016841,
              43.073163888301785
            ],
            [
              -89.41213577507396,
              43.07316222512419
            ],
            [
              -89.41213534586495,
              43.0731605116258
            ],
            [
              -89.41213508667492,
              43.07315876430853
            ],
            [
              -89.412135,
              43.073157
            ],
            [
              -89.412135,
              43.07314387543403
            ],
            [
              -89.41200887500301,
              43.07314299956599
            ],
            [
              -89.41200709479129,
              43.07314289888767
            ],
            [
              -89.41200533327466,
              43.07314262257431
            ],
            [
              -89.41200360773823,
              43.07314217333727
            ],
            [
              -89.41200193511402,
              43.07314155558474
            ],
            [
              -89.41200033181488,
              43.0731407753785
            ],
            [
              -89.41199881357338,
              43.07313984037441
            ],
            [
              -89.41199739528744,
              43.07313875974732
            ],
            [
              -89.41199609087417,
              43.07313754410102
            ],
            [
              -89.4119949131333,
              43.07313620536418
            ],
            [
              -89.41199387362153,
              43.073134756673326
            ],
            [
              -89.41199298253922,
              43.07313321224391
            ],
            [
              -89.41199224863021,
              43.07313158723084
            ],
            [
              -89.41199167909608,
              43.073129897579754
            ],
            [
              -89.41199127952545,
              43.07312815987057
            ],
            [
              -89.41199105383917,
              43.073126391154766
            ],
            [
              -89.4119910042518,
              43.07312460878808
            ],
            [
              -89.41199900320655,
              43.07275665687043
            ],
            [
              -89.41200300241822,
              43.072512704957674
            ],
            [
              -89.41200300367197,
              43.072512636437814
            ]
          ]
        ]
      },
      "properties": {
        "building": "university",
        "name": "Mechanical Engineering Building",
        "@id": "way/56997835",
        "addr:street": "University Avenue",
        "addr:housenumber": "1513",
        "person_counts": [
          0,
          0,
          0,
          0,
          0,
          0,
          0,
          0,
          0,
          0,
          0,
          0,
          0,
          0,
          0,
          0,
          0,
          0,
          0,
          0,
          0,
          0,
          0,
          0,
          0,
          0,
          0,
          0,
          0,
          0,
          0,
          0,
          0,
          0,
          0,
          0,
          0,
          0,
          0,
          0,
          0,
          0,
          0,
          0,
          0,
          0,
          0,
          0,
          0,
          0,
          0,
          0,
          0,
          0,
          0,
          0,
          0,
          0,
          0,
          0,
          0,
          0,
          0,
          0,
          0,
          0,
          0,
          0,
          0,
          0,
          0,
          0
        ],
        "instructor_counts": [
          1,
          1,
          1,
          1,
          1,
          1,
          1,
          1,
          1,
          1,
          1,
          0,
          1,
          1,
          1,
          1,
          1,
          1,
          1,
          1,
          1,
          1,
          1,
          1,
          1,
          1,
          1,
          1,
          1,
          1,
          1,
          0,
          0,
          0,
          0,
          0,
          0,
          0,
          0,
          0,
          0,
          0,
          0,
          0,
          0,
          0,
          0,
          0,
          0,
          0,
          0,
          0,
          0,
          0,
          0,
          0,
          0,
          0,
          0,
          0,
          0,
          0,
          0,
          0,
          0,
          0,
          0,
          0,
          0,
          0,
          0,
          0
        ]
      }
    },
    {
      "type": "Feature",
      "geometry": {
        "type": "Polygon",
        "coordinates": [
          [
            [
              -89.41375838812134,
              43.073101174636776
            ],
            [
              -89.41365638812134,
              43.07313317463677
            ],
            [
              -89.41365453009044,
              43.073133650452164
            ],
            [
              -89.41356953009044,
              43.07315065045216
            ],
            [
              -89.41356943565387,
              43.073150669077016
            ],
            [
              -89.41349743565387,
              43.073164669077016
            ],
            [
              -89.41349617524462,
              43.07316486808078
            ],
            [
              -89.41338117524462,
              43.07317886808078
            ],
            [
              -89.41338022048568,
              43.073178958574964
            ],
            [
              -89.41327722048567,
              43.07318595857497
            ],
            [
              -89.41327582353789,
              43.07318599913501
            ],
            [
              -89.41317382353789,
              43.07318499913501
            ],
            [
              -89.41317305394101,
              43.073184975120924
            ],
            [
              -89.413078053941,
              43.07317997512093
            ],
            [
              -89.41307632489848,
              43.07317980010764
            ],
            [
              -89.41307462079236,
              43.07317945916781
            ],
            [
              -89.41307295750771,
              43.073178955479555
            ],
            [
              -89.4130713505491,
              43.073178293738096
            ],
            [
              -89.41306981489609,
              43.07317748011196
            ],
            [
              -89.41306836486348,
              43.07317652218549
            ],
            [
              -89.413067013968,
              43.073175428888156
            ],
            [
              -89.41306577480222,
              43.07317421041129
            ],
            [
              -89.41306465891724,
              43.073172878113134
            ],
            [
              -89.41306367671494,
              43.07317144441291
            ],
            [
              -89.41306283735109,
              43.073169922675085
            ],
            [
              -89.41306214864996,
              43.07316832708478
            ],
            [
              -89.41306161703136,
              43.07316667251554
            ],
            [
              -89.41306124745088,
              43.07316497439071
            ],
            [
              -89.41306104335362,
              43.073163248539615
            ],
            [
              -89.41306100664211,
              43.07316151105006
            ],
            [
              -89.413066,
              43.072977755479734
            ],
            [
              -89.413066,
              43.072947
            ],
            [
              -89.41306600586788,
              43.072946540424915
            ],
            [
              -89.41307900586787,
              43.072437540424914
            ],
            [
              -89.41307914162024,
              43.072435746497675
            ],
            [
              -89.4130794557692,
              43.07243397508183
            ],
            [
              -89.41307994517658,
              43.072432243872974
            ],
            [
              -89.41308060495341,
              43.072430570165054
            ],
            [
              -89.41308142850883,
              43.0724289706776
            ],
            [
              -89.41308240761595,
              43.07242746138872
            ],
            [
              -89.41308353249393,
              43.07242605737548
            ],
            [
              -89.4130847919058,
              43.0724247726633
            ],
            [
              -89.41308617327064,
              43.07242362008583
            ],
            [
              -89.4130876627893,
              43.07242261115676
            ],
            [
              -89.41308924558216,
              43.07242175595481
            ],
            [
              -89.41309090583793,
              43.072421063023036
            ],
            [
              -89.41309262697143,
              43.072420539283485
            ],
            [
              -89.41309439178939,
              43.072420189968064
            ],
            [
              -89.4130961826621,
              43.07242001856628
            ],
            [
              -89.41309978920732,
              43.0724198546324
            ],
            [
              -89.4130991854824,
              43.072410999999995
            ],
            [
              -89.413099,
              43.072410999999995
            ],
            [
              -89.41309725722053,
              43.07241091543244
            ],
            [
              -89.4130955308169,
              43.07241066252441
            ],
            [
              -89.41309383701109,
              43.07241024365232
            ],
            [
              -89.41309219171876,
              43.072409662752065
            ],
            [
              -89.41309061039973,
              43.07240892528201
            ],
            [
              -89.4130891079127,
              43.072408038171716
            ],
            [
              -89.41308769837562,
              43.07240700975682
            ],
            [
              -89.41308639503308,
              43.07240584970072
            ],
            [
              -89.41308521013177,
              43.07240456890376
            ],
            [
              -89.41308415480552,
              43.0724031794008
            ],
            [
              -89.41308323897057,
              43.07240169424818
            ],
            [
              -89.41308247123249,
              43.07240012740097
            ],
            [
              -89.41308185880523,
              43.07239849358188
            ],
            [
              -89.41308140744341,
              43.072396808142926
            ],
            [
              -89.4130811213882,
              43.072395086921155
            ],
            [
              -89.41308100332748,
              43.072393346089854
            ],
            [
              -89.41308000332748,
              43.07234134608986
            ],
            [
              -89.41308006051074,
              43.072339525305196
            ],
            [
              -89.4130803014368,
              43.0723377196249
            ],
            [
              -89.41308072363805,
              43.0723359475434
            ],
            [
              -89.41308132279012,
              43.072334227211016
            ],
            [
              -89.41308209275628,
              43.07233257624802
            ],
            [
              -89.41308302565028,
              43.07233101156418
            ],
            [
              -89.41308411191703,
              43.072329549185554
            ],
            [
              -89.41308534043063,
              43.07232820409037
            ],
            [
              -89.41308669860817,
              43.07232699005558
            ],
            [
              -89.4130881725387,
              43.07232591951578
            ],
            [
              -89.41308974712571,
              43.072325003435814
            ],
            [
              -89.41309140624168,
              43.07232425119852
            ],
            [
              -89.41309270186021,
              43.07232381546927
            ],
            [
              -89.41309005301926,
              43.07228938053698
            ],
            [
              -89.41309000437191,
              43.0722876033011
            ],
            [
              -89.41309013128937,
              43.0722858299354
            ],
            [
              -89.4130904325334,
              43.07228407774079
            ],
            [
              -89.41309090516509,
              43.07228236381162
            ],
            [
              -89.41309154457346,
              43.07228070486892
            ],
            [
              -89.41309234452045,
              43.0722791170973
            ],
            [
              -89.41309329720183,
              43.072277615987
            ],
            [
              -89.41309439332323,
              43.07227621618281
            ],
            [
              -89.41309562219097,
              43.07227493134117
            ],
            [
              -89.41309697181622,
              43.07227377399696
            ],
            [
              -89.41309842903208,
              43.07227275544119
            ],
            [
              -89.41309997962202,
              43.07227188561087
            ],
            [
              -89.4131016084585,
              43.072271172992025
            ],
            [
              -89.41310329965067,
              43.07227062453695
            ],
            [
              -89.4131050366993,
              43.07227024559635
            ],
            [
              -89.41310680265781,
              43.072270039867156
            ],
            [
              -89.41313680265782,
              43.072268039867154
            ],
            [
              -89.4131387133461,
              43.072268014140626
            ],
            [
              -89.41314061599518,
              43.07226819110982
            ],
            [
              -89.41331452922152,
              43.07229373768544
            ],
            [
              -89.41333646990958,
              43.07228934954784
            ],
            [
              -89.4133383177322,
              43.07228907878422
            ],
            [
              -89.41334018366392,
              43.07228900093704
            ],
            [
              -89.41373218366391,
              43.07229300093704
            ],
            [
              -89.41373391596241,
              43.072293102260254
            ],
            [
              -89.41373563045474,
              43.0722933699178
            ],
            [
              -89.4137373112071,
              43.07229380142218
            ],
            [
              -89.41373894259925,
              43.072294392763155
            ],
            [
              -89.4137405094697,
              43.07229513844505
            ],
            [
              -89.4137419972566,
              43.0722960315378
            ],
            [
              -89.41374339213304,
              43.07229706374137
            ],
            [
              -89.41374468113563,
              43.07229822546286
            ],
            [
              -89.41374585228489,
              43.07229950590572
            ],
            [
              -89.41374689469663,
              43.07230089317002
            ],
            [
              -89.41374779868312,
              43.072302374363105
            ],
            [
              -89.41374855584304,
              43.072303935719354
            ],
            [
              -89.41374915913968,
              43.07230556272816
            ],
            [
              -89.41374960296625,
              43.07230724026877
            ],
            [
              -89.413749883198,
              43.07230895275079
            ],
            [
              -89.41374999723055,
              43.072310684259115
            ],
            [
              -89.4137507459944,
              43.0723533637988
            ],
            [
              -89.41376973507575,
              43.07235739178575
            ],
            [
              -89.41377144993344,
              43.07235784487757
            ],
            [
              -89.41377311187246,
              43.07235846454506
            ],
            [
              -89.41377470475544,
              43.07235924477126
            ],
            [
              -89.41377621311554,
              43.0723601779802
            ],
            [
              -89.41377762230663,
              43.07236125511045
            ],
            [
              -89.4137789186455,
              43.07236246570312
            ],
            [
              -89.41378008954477,
              43.072363798003394
            ],
            [
              -89.41378112363503,
              43.07236523907467
            ],
            [
              -89.41378201087531,
              43.07236677492421
            ],
            [
              -89.41378274265053,
              43.07236839063896
            ],
            [
              -89.41378331185516,
              43.072370070530376
            ],
            [
              -89.41378371296227,
              43.07237179828678
            ],
            [
              -89.4137839420771,
              43.07237355713171
            ],
            [
              -89.41378399697498,
              43.07237532998685
            ],
            [
              -89.41377099697499,
              43.07308432998685
            ],
            [
              -89.41377088240554,
              43.073086054159674
            ],
            [
              -89.4137706030366,
              43.073087759401915
            ],
            [
              -89.41377016144273,
              43.073089429998504
            ],
            [
              -89.41376956169354,
              43.073091050553664
            ],
            [
              -89.4137688093162,
              43.07309260613279
            ],
            [
              -89.41376791124438,
              43.073094082400075
            ],
            [
              -89.41376687575448,
              43.07309546575064
            ],
            [
              -89.4137657123893,
              43.07309674343588
            ],
            [
              -89.41376443187012,
              43.073097903681
            ],
            [
              -89.41376304599787,
              43.07309893579348
            ],
            [
              -89.41376156754434,
              43.07309983026165
            ],
            [
              -89.41376001013461,
              43.07310057884232
            ],
            [
              -89.41375838812134,
              43.073101174636776
            ]
          ]
        ]
      },
      "properties": {
        "building": "university",
        "name": "Engineering Centers Building",
        "@id": "way/56997836",
        "addr:street": "Engineering Drive",
        "addr:housenumber": "1550",
        "person_counts": [
          0,
          0,
          0,
          0,
          0,
          0,
          0,
          0,
          0,
          0,
          0,
          0,
          0,
          0,
          0,
          0,
          0,
          0,
          0,
          0,
          0,
          0,
          0,
          0,
          0,
          0,
          0,
          0,
          0,
          0,
          0,
          0,
          0,
          0,
          0,
          0,
          0,
          0,
          0,
          0,
          0,
          0,
          0,
          0,
          0,
          0,
          0,
          0,
          0,
          0,
          0,
          0,
          0,
          0,
          0,
          0,
          0,
          0,
          0,
          0,
          0,
          0,
          0,
          0,
          0,
          0,
          0,
          0,
          0,
          0,
          0,
          0
        ],
        "instructor_counts": [
          0,
          0,
          0,
          0,
          0,
          0,
          0,
          0,
          0,
          0,
          0,
          0,
          0,
          0,
          0,
          0,
          0,
          0,
          0,
          0,
          0,
          0,
          0,
          0,
          0,
          0,
          0,
          0,
          0,
          0,
          0,
          0,
          0,
          0,
          0,
          0,
          0,
          0,
          0,
          0,
          0,
          0,
          0,
          0,
          0,
          0,
          0,
          0,
          0,
          0,
          0,
          0,
          0,
          0,
          0,
          0,
          0,
          0,
          0,
          0,
          1,
          1,
          1,
          1,
          1,
          1,
          1,
          1,
          1,
          1,
          1,
          1
        ]
      }
    }
  ],
  "metadata": {
    "total_buildings": 3,
    "total_meetings": 12,
    "max_persons": 0,
    "total_chunks": 72,
    "chunk_duration_minutes": 5,
    "start_time": 1786977000000,
    "end_time": 1786998600000,
    "total_persons": [
      0,
      0,
      0,
      0,
      0,
      0,
      0,
      0,
      0,
      0,
      0,
      0,
      0,
      0,
      0,
      0,
      0,
      0,
      0,
      0,
      0,
      0,
      0,
      0,
      0,
      0,
      0,
      0,
      0,
      0,
      0,
      0,
      0,
      0,
      0,
      0,
      0,
      0,
      0,
      0,
      0,
      0,
      0,
      0,
      0,
      0,
      0,
      0,
      0,
      0,
      0,
      0,
      0,
      0,
      0,
      0,
      0,
      0,
      0,
      0,
      0,
      0,
      0,
      0,
      0,
      0,
      0,
      0,
      0,
      0,
      0,
      0
    ],
    "total_instructors": [
      1,
      1,
      1,
      1,
      1,
      1,
      1,
      1,
      1,
      1,
      1,
      0,
      1,
      1,
      1,
      1,
      1,
      1,
      1,
      1,
      1,
      1,
      1,
      1,
      1,
      1,
      1,
      1,
      1,
      1,
      1,
      0,
      0,
      0,
      0,
      0,
      0,
      0,
      0,
      0,
      0,
      0,
      0,
      0,
      0,
      0,
      0,
      0,
      0,
      0,
      0,
      0,
      0,
      0,
      0,
      0,
      0,
      0,
      0,
      0,
      1,
      1,
      1,
      1,
      1,
      1,
      1,
      1,
      1,
      1,
      1,
      1
    ]
  }
}