{
  "type": "FeatureCollection",
  "features": [
    {
      "type": "Feature",
      "geometry": {
        "type": "Polygon",
        "coordinates": [
          [
            [
              -89.40188448660119,
              43.07650807458382
            ],
            [
              -89.40188480161028,
              43.076508090388046
            ],
            [
              -89.40188658512679,
              43.076508360644404
            ],
            [
              -89.40188833263745,
              43.07650880805486
            ],
            [
              -89.40189002659181,
              43.076509428126016
            ],
            [
              -89.4018916499773,
              43.076510214630424
            ],
            [
              -89.40189318649006,
              43.07651115966914
            ],
            [
              -89.40189462069871,
              43.07651225375101
            ],
            [
              -89.40189593819935,
              43.076513485888064
            ],
            [
              -89.40189712576014,
              43.076514843705795
            ],
            [
              -89.40189817145428,
              43.07651631356749
            ],
            [
              -89.40189906477976,
              43.076517880711144
            ],
            [
              -89.40189979676477,
              43.07651952939776
            ],
            [
              -89.40190036005792,
              43.07652124306939
            ],
            [
              -89.401900749002,
              43.07652300451542
            ],
            [
              -89.40190095969079,
              43.076524796045454
            ],
            [
              -89.40190099000833,
              43.07652659966694
            ],
            [
              -89.40189999000833,
              43.07655659966694
            ],
            [
              -89.40189984948026,
              43.076558322940954
            ],
            [
              -89.401899544262,
              43.07656002478211
            ],
            [
              -89.40189907716969,
              43.076561689488166
            ],
            [
              -89.401898452513,
              43.076563301699544
            ],
            [
              -89.40189767605538,
              43.07656484654098
            ],
            [
              -89.40189675496094,
              43.076566309758846
            ],
            [
              -89.40189569772824,
              43.07656767785259
            ],
            [
              -89.40189451411193,
              43.07656893819935
            ],
            [
              -89.40189321503281,
              43.076570079170395
            ],
            [
              -89.40189181247696,
              43.076571090238424
            ],
            [
              -89.40189031938522,
              43.07657196207472
            ],
            [
              -89.40188874953375,
              43.076572686635195
            ],
            [
              -89.40188711740697,
              43.07657325723459
            ],
            [
              -89.40188543806389,
              43.076573668608226
            ],
            [
              -89.40188372699912,
              43.07657391696051
            ],
            [
              -89.40188242415526,
              43.07657397960529
            ],
            [
              -89.40187655670209,
              43.07675419423872
            ],
            [
              -89.40187684476345,
              43.076754226218156
            ],
            [
              -89.40187854036267,
              43.07675458204642
            ],
            [
              -89.40188019389808,
              43.07675509924183
            ],
            [
              -89.40188179005067,
              43.076755773012884
            ],
            [
              -89.40188331403297,
              43.07675659711748
            ],
            [
              -89.40188475172621,
              43.07675756392077
            ],
            [
              -89.40188608981101,
              43.07675866446589
            ],
            [
              -89.40188731589078,
              43.076759888556936
            ],
            [
              -89.4018884186066,
              43.07676122485341
            ],
            [
              -89.40188938774247,
              43.07676266097532
            ],
            [
              -89.4018902143199,
              43.07676418361783
            ],
            [
              -89.40189089068116,
              43.07676577867455
            ],
            [
              -89.40189141056013,
              43.076767431368204
            ],
            [
              -89.40189176914043,
              43.07676912638757
            ],
            [
              -89.40189196310006,
              43.07677084802926
            ],
            [
              -89.40189199064207,
              43.076772580343295
            ],
            [
              -89.40189099064206,
              43.076803580343295
            ],
            [
              -89.40189085181035,
              43.076805304965696
            ],
            [
              -89.40189054803693,
              43.07680700829138
            ],
            [
              -89.40189008212849,
              43.07680867458247
            ],
            [
              -89.40188945838979,
              43.07681028844328
            ],
            [
              -89.40188868258386,
              43.07681183496255
            ],
            [
              -89.40188776187877,
              43.07681329985122
            ],
            [
              -89.40188670478135,
              43.07681466957445
            ],
            [
              -89.40188552105867,
              43.0768159314767
            ],
            [
              -89.40188422164772,
              43.076817073898624
            ],
            [
              -89.4018828185544,
              43.07681808628482
            ],
            [
              -89.40188132474258,
              43.07681895928134
            ],
            [
              -89.40187975401433,
              43.076819684822155
            ],
            [
              -89.4018781208824,
              43.07682025620362
            ],
            [
              -89.4018764404361,
              43.07682066814646
            ],
            [
              -89.4018747282019,
              43.07682091684453
            ],
            [
              -89.40187439231886,
              43.07682093300613
            ],
            [
              -89.401870989308,
              43.076919620320965
            ],
            [
              -89.40187084696962,
              43.07692134215188
            ],
            [
              -89.40187054020988,
              43.07692304240491
            ],
            [
              -89.4018700718549,
              43.076924705415884
            ],
            [
              -89.40186944621955,
              43.07692631586375
            ],
            [
              -89.40186866906774,
              43.07692785891169
            ],
            [
              -89.40186774755922,
              43.07692932034385
            ],
            [
              -89.40186669018371,
              43.07693068669628
            ],
            [
              -89.40186550668267,
              43.07693194538098
            ],
            [
              -89.40186420795949,
              43.07693308480189
            ],
            [
              -89.4018628059791,
              43.07693409446169
            ],
            [
              -89.40186131365776,
              43.076934965058555
            ],
            [
              -89.40185974474397,
              43.0769356885718
            ],
            [
              -89.4018581136919,
              43.07693625833581
            ],
            [
              -89.40185643552817,
              43.07693666910145
            ],
            [
              -89.40185472571345,
              43.07693691708439
            ],
            [
              -89.401853,
              43.076936999999994
            ],
            [
              -89.40181744628693,
              43.076936999999994
            ],
            [
              -89.40181699121737,
              43.076951562225545
            ],
            [
              -89.4018168520826,
              43.07695330285622
            ],
            [
              -89.40181654494245,
              43.07695502181478
            ],
            [
              -89.40181607268742,
              43.07695670292418
            ],
            [
              -89.40181543976186,
              43.07695833036354
            ],
            [
              -89.40181465212224,
              43.076959888817086
            ],
            [
              -89.401813717181,
              43.07696136361825
            ],
            [
              -89.40181264373683,
              43.076962740887744
            ],
            [
              -89.40181144189191,
              43.07696400766412
            ],
            [
              -89.40181012295672,
              43.07696515202578
            ],
            [
              -89.40180869934375,
              43.07696616320318
            ],
            [
              -89.40180718445058,
              43.07696703168016
            ],
            [
              -89.40180559253379,
              43.07696774928352
            ],
            [
              -89.40180393857487,
              43.0769683092599
            ],
            [
              -89.4018022381392,
              43.076968706339386
            ],
            [
              -89.4018005072295,
              43.076968936785086
            ],
            [
              -89.4017987621353,
              43.07696899842828
            ],
            [
              -89.4008907621353,
              43.07695699842828
            ],
            [
              -89.40088901390173,
              43.07695689009262
            ],
            [
              -89.40088728447516,
              43.076956612350074
            ],
            [
              -89.40088559023204,
              43.076956167830694
            ],
            [
              -89.4008839472157,
              43.076955560743755
            ],
            [
              -89.40088237098439,
              43.07695479683797
            ],
            [
              -89.40088087646392,
              43.07695388334698
            ],
            [
              -89.40087947780637,
              43.07695282892093
            ],
            [
              -89.40087818825609,
              43.07695164354451
            ],
            [
              -89.4008770200242,
              43.076950338442416
            ],
            [
              -89.40087598417307,
              43.07694892597307
            ],
            [
              -89.40087509051149,
              43.07694741951158
            ],
            [
              -89.40087434750183,
              43.076945833323116
            ],
            [
              -89.40087376217988,
              43.076944182427766
            ],
            [
              -89.40087334008824,
              43.0769424824584
            ],
            [
              -89.40087308522381,
              43.07694074951254
            ],
            [
              -89.400873,
              43.076939
            ],
            [
              -89.400873,
              43.076918
            ],
            [
              -89.40082,
              43.076918
            ],
            [
              -89.40081939018077,
              43.07691798966705
            ],
            [
              -89.40076039018078,
              43.07691598966705
            ],
            [
              -89.4007586568905,
              43.07691584684392
            ],
            [
              -89.40075694547426,
              43.07691553741204
            ],
            [
              -89.40075527190893,
              43.0769150642601
            ],
            [
              -89.40075365181806,
              43.0769144318052
            ],
            [
              -89.40075210032596,
              43.07691364595161
            ],
            [
              -89.40075063191652,
              43.07691271403564
            ],
            [
              -89.40074926029807,
              43.076911644757175
            ],
            [
              -89.40074799827529,
              43.07691044809843
            ],
            [
              -89.40074685762978,
              43.076909135230785
            ],
            [
              -89.40074584901001,
              43.076907718410475
            ],
            [
              -89.4007449818319,
              43.0769062108642
            ],
            [
              -89.400744264191,
              43.07690462666561
            ],
            [
              -89.40074370278681,
              43.07690298060396
            ],
            [
              -89.4007433028603,
              43.076901288046
            ],
            [
              -89.40074306814499,
              43.07689956479258
            ],
            [
              -89.40074300083205,
              43.07689782693108
            ],
            [
              -89.400744,
              43.07679391346382
            ],
            [
              -89.400744,
              43.07675
            ],
            [
              -89.40074400935794,
              43.07674941965671
            ],
            [
              -89.40074500935793,
              43.07671841965671
            ],
            [
              -89.40074502710927,
              43.07671801247853
            ],
            [
              -89.40075001148625,
              43.07662729681744
            ],
            [
              -89.40075100486553,
              43.076584581508506
            ],
            [
              -89.40075100720465,
              43.076584490769946
            ],
            [
              -89.40075400720465,
              43.076478490769944
            ],
            [
              -89.40075414463567,
              43.076476722728714
            ],
            [
              -89.4007544553771,
              43.076474976791474
            ],
            [
              -89.40075493641274,
              43.0764732699049
            ],
            [
              -89.40075558307353,
              43.07647161863663
            ],
            [
              -89.40075638908273,
              43.076470039014445
            ],
            [
              -89.40075734661696,
              43.07646854637072
            ],
            [
              -89.40075844638201,
              43.07646715519356
            ],
            [
              -89.40075967770323,
              43.076465878986234
            ],
            [
              -89.40076102862895,
              43.076464730136045
            ],
            [
              -89.40076248604663,
              43.076463719794134
            ],
            [
              -89.40076403581007,
              43.07646285776723
            ],
            [
              -89.40076566287671,
              43.07646215242248
            ],
            [
              -89.40076735145368,
              43.07646161060619
            ],
            [
              -89.40076908515107,
              43.076461237577426
            ],
            [
              -89.40077084714099,
              43.076461036956935
            ],
            [
              -89.40077262032096,
              43.07646101069201
            ],
            [
              -89.4008303102528,
              43.076463000000004
            ],
            [
              -89.40088647991355,
              43.076463000000004
            ],
            [
              -89.40088651645746,
              43.076461647875355
            ],
            [
              -89.40085265391014,
              43.076460996672516
            ],
            [
              -89.40085090038203,
              43.07646087712517
            ],
            [
              -89.40084916687256,
              43.07646058712978
            ],
            [
              -89.40084746990975,
              43.0764601294513
            ],
            [
              -89.40084582567314,
              43.07645950845341
            ],
            [
              -89.4008442498396,
              43.076458730056984
            ],
            [
              -89.40084275743375,
              43.076457801683574
            ],
            [
              -89.40084136268484,
              43.076456732184674
            ],
            [
              -89.40084007889101,
              43.076455531757354
            ],
            [
              -89.40083891829245,
              43.07645421184698
            ],
            [
              -89.40083789195484,
              43.076452785038136
            ],
            [
              -89.40083700966368,
              43.07645126493462
            ],
            [
              -89.40083627983111,
              43.07644966602974
            ],
            [
              -89.40083570941567,
              43.07644800356812
            ],
            [
              -89.40083530385596,
              43.07644629340038
            ],
            [
              -89.40083506701872,
              43.076444551831976
            ],
            [
              -89.40083500116208,
              43.07644279546775
            ],
            [
              -89.40083600116208,
              43.07635479546775
            ],
            [
              -89.40083610469091,
              43.07635306146629
            ],
            [
              -89.40083637488249,
              43.0763513455188
            ],
            [
              -89.40083680922044,
              43.07634966360625
            ],
            [
              -89.4008374036597,
              43.07634803139264
            ],
            [
              -89.40083815266411,
              43.07634646407912
            ],
            [
              -89.40083904925805,
              43.076344976262405
            ],
            [
              -89.40084008509136,
              43.07634358179884
            ],
            [
              -89.4008412505171,
              43.07634229367535
            ],
            [
              -89.40084253468143,
              43.076341123888504
            ],
            [
              -89.40084392562464,
              43.07634008333277
            ],
            [
              -89.40084541039262,
              43.07633918169905
            ],
            [
              -89.40084697515738,
              43.07633842738445
            ],
            [
              -89.40084860534596,
              43.07633782741406
            ],
            [
              -89.40085028577607,
              43.07633738737553
            ],
            [
              -89.40085200079753,
              43.07633711136703
            ],
            [
              -89.40085373443797,
              43.07633700195908
            ],
            [
              -89.40085547055165,
              43.07633706017063
            ],
            [
              -89.40085719296978,
              43.07633728545953
            ],
            [
              -89.4008588856511,
              43.07633767572763
            ],
            [
              -89.40086053283136,
              43.07633822734027
            ],
            [
              -89.40086211916999,
              43.07633893516017
            ],
            [
              -89.40086362989311,
              43.07633979259527
            ],
            [
              -89.40086505093103,
              43.07634079166009
            ],
            [
              -89.4008740435814,
              43.0763477859437
            ],
            [
              -89.40114203623193,
              43.07655578023963
            ],
            [
              -89.40114343464892,
              43.076556985411784
            ],
            [
              -89.40114470227144,
              43.07655832747852
            ],
            [
              -89.40114582576594,
              43.07655979232325
            ],
            [
              -89.4011467933149,
              43.07656136453794
            ],
            [
              -89.40114759474108,
              43.07656302758515
            ],
            [
              -89.40114822161466,
              43.076564763972065
            ],
            [
              -89.40114866734184,
              43.07656655543439
            ],
            [
              -89.40114892723423,
              43.076568383128546
            ],
            [
              -89.4011489985581,
              43.07657022782985
            ],
            [
              -89.40114823234654,
              43.0766307585426
            ],
            [
              -89.40128176317839,
              43.07662900155797
            ],
            [
              -89.40128257114084,
              43.076629009063446
            ],
            [
              -89.40138988906197,
              43.07663241598157
            ],
            [
              -89.40138900031887,
              43.07648310714096
            ],
            [
              -89.40138900000001,
              43.076483
            ],
            [
              -89.40138900000001,
              43.076408
            ],
            [
              -89.40138908855377,
              43.076406216718304
            ],
            [
              -89.40138935334375,
              43.076404450982864
            ],
            [
              -89.40138979176457,
              43.076402720167295
            ],
            [
              -89.40139039950252,
              43.076401041301615
            ],
            [
              -89.40139117057785,
              43.07639943090471
            ],
            [
              -89.40139209740371,
              43.076397904821754
            ],
            [
              -89.4013931708608,
              43.076396478068354
            ],
            [
              -89.40139438038703,
              43.07639516468277
            ],
            [
              -89.4013957140815,
              43.07639397758781
            ],
            [
              -89.40139715882158,
              43.076392928463676
            ],
            [
              -89.40139870039204,
              43.076392027633
            ],
            [
              -89.40140032362488,
              43.076391283959346
            ],
            [
              -89.40140201254863,
              43.07639070475994
            ],
            [
              -89.40140375054544,
              43.07639029573371
            ],
            [
              -89.40140552051463,
              43.076390060905176
            ],
            [
              -89.40140730504093,
              43.07639000258491
            ],
            [
              -89.401448,
              43.07639069232997
            ],
            [
              -89.401448,
              43.076377
            ],
            [
              -89.40144808667492,
              43.07637523569147
            ],
            [
              -89.40144834586495,
              43.0763734883742
            ],
            [
              -89.40144877507396,
              43.07637177487581
            ],
            [
              -89.40144937016841,
              43.07637011169822
            ],
            [
              -89.40145012541724,
              43.076368514858736
            ],
            [
              -89.40145103354698,
              43.076366999735804
            ],
            [
              -89.40145208581184,
              43.076365580920886
            ],
            [
              -89.40145327207794,
              43.07636427207794
            ],
            [
              -89.40145458092088,
              43.07636308581184
            ],
            [
              -89.4014559997358,
              43.07636203354698
            ],
            [
              -89.40145751485873,
              43.07636112541724
            ],
            [
              -89.40145911169822,
              43.076360370168416
            ],
            [
              -89.40146077487582,
              43.07635977507396
            ],
            [
              -89.40146248837421,
              43.07635934586495
            ],
            [
              -89.40146423569148,
              43.07635908667492
            ],
            [
              -89.401466,
              43.076359000000004
            ],
            [
              -89.401477,
              43.076359000000004
            ],
            [
              -89.401477320424,
              43.076359002852215
            ],
            [
              -89.401814320424,
              43.076365002852214
            ],
            [
              -89.40181614026199,
              43.076365127695205
            ],
            [
              -89.40181793812005,
              43.07636543608214
            ],
            [
              -89.40181969553463,
              43.076365924845966
            ],
            [
              -89.40182139445754,
              43.0763665889672
            ],
            [
              -89.4018230174413,
              43.076367421625484
            ],
            [
              -89.40182454781826,
              43.076368414269645
            ],
            [
              -89.40182596987187,
              43.07636955670548
            ],
            [
              -89.40182726899799,
              43.07637083720047
            ],
            [
              -89.40182843185494,
              43.07637224260426
            ],
            [
              -89.40182944650047,
              43.07637375848371
            ],
            [
              -89.40183030251444,
              43.07637536927115
            ],
            [
              -89.40183099110583,
              43.07637705842419
            ],
            [
              -89.40183150520294,
              43.076378808595685
            ],
            [
              -89.40183183952615,
              43.07638060181181
            ],
            [
              -89.40183199064207,
              43.07638241965671
            ],
            [
              -89.40183242871765,
              43.076396
            ],
            [
              -89.401869,
              43.076396
            ],
            [
              -89.4018707942877,
              43.076396089652945
            ],
            [
              -89.40187257070171,
              43.07639635771871
            ],
            [
              -89.4018743115464,
              43.07639680152696
            ],
            [
              -89.40187599948045,
              43.07639741665675
            ],
            [
              -89.40187761768959,
              43.07639819698048
            ],
            [
              -89.40187915005417,
              43.076399134725015
            ],
            [
              -89.4018805813096,
              43.07640022054907
            ],
            [
              -89.40188189719854,
              43.07640144363627
            ],
            [
              -89.40188308461282,
              43.07640279180292
            ],
            [
              -89.4018841317241,
              43.07640425161933
            ],
            [
              -89.40188502810166,
              43.076405808543626
            ],
            [
              -89.40188576481626,
              43.076407447066615
            ],
            [
              -89.40188633452918,
              43.07640915086625
            ],
            [
              -89.40188673156527,
              43.076410902970224
            ],
            [
              -89.40188695196946,
              43.07641268592507
            ],
            [
              -89.40188699354621,
              43.07641448196999
            ],
            [
              -89.40188448660119,
              43.07650807458382
            ]
          ]
        ]
      },
      "properties": {
        "building": "university",
        "name": "Helen C. White Hall",
        "@id": "way/37749300",
        "addr:street": "North Park Street",
        "addr:housenumber": "600",
        "person_counts": [
          27,
          27,
          27,
          27,
          27,
          27,
          27,
          27,
          27,
          27,
          27,
          27,
          27,
          27,
          27,
          27,
          0,
          0,
          0,
          0,
          0,
          0,
          0,
          0,
          0,
          0,
          0,
          0,
          0,
          0,
          0,
          0,
          0,
          0,
          0,
          0,
          0,
          0,
          0,
          0,
          0,
          0,
          20,
          20,
          20,
          20,
          20,
          20,
          20,
          20,
          20,
          20,
          20,
          20,
          20,
          20,
          20,
          20,
          0,
          0,
          0,
          0,
          0,
          0,
          0,
          0,
          0,
          0,
          0,
          0,
          0,
          0,
          0,
          0,
          0,
          0,
          0,
          0,
          0,
          0,
          0,
          0,
          0,
          0,
          0,
          0,
          0,
          0,
          0,
          0,
          0,
          0,
          0
        ],
        "instructor_counts": [
          1,
          1,
          1,
          1,
          1,
          1,
          1,
          1,
          1,
          1,
          1,
          1,
          1,
          1,
          1,
          1,
          0,
          0,
          0,
          0,
          0,
          0,
          0,
          0,
          0,
          0,
          0,
          0,
          0,
          0,
          0,
          0,
          0,
          0,
          0,
          0,
          0,
          0,
          0,
          0,
          0,
          0,
          1,
          1,
          1,
          1,
          1,
          1,
          1,
          1,
          1,
          1,
          1,
          1,
          1,
          1,
          1,
          1,
          0,
          0,
          0,
          0,
          0,
          0,
          0,
          0,
          0,
          0,
          0,
          0,
          0,
          0,
          0,
          0,
          0,
          0,
          0,
          0,
          0,
          0,
          0,
          0,
          0,
          0,
          0,
          0,
          0,
          0,
          0,
          0,
          0,
          0,
          0
        ]
      }
    },
    {
      "type": "Feature",
      "geometry": {
        "type": "Polygon",
        "coordinates": [
          [
            [
              -89.4003969960124,
              43.07356937886342
            ],
            [
              -89.40039499601241,
              43.07366437886342
            ],
            [
              -89.40039479069056,
              43.07366673702933
            ],
            [
              -89.40039295566243,
              43.073678664712155
            ],
            [
              -89.40039150168211,
              43.07372373810197
            ],
            [
              -89.40039215999869,
              43.073724141520046
            ],
            [
              -89.40039359206301,
              43.07372522959424
            ],
            [
              -89.40039490839584,
              43.073726455147806
            ],
            [
              -89.40039609585533,
              43.07372780594522
            ],
            [
              -89.40039714258624,
              43.073729268500536
            ],
            [
              -89.40039803813835,
              43.07373082821208
            ],
            [
              -89.40039877357076,
              43.073732469508165
            ],
            [
              -89.40039934154113,
              43.07373417600262
            ],
            [
              -89.40039973637904,
              43.07373593065834
            ],
            [
              -89.40039995414254,
              43.0737377159574
            ],
            [
              -89.40039999265755,
              43.07373951407593
            ],
            [
              -89.40038799244331,
              43.074159521520095
            ],
            [
              -89.40038599244332,
              43.07422852152009
            ],
            [
              -89.4003859766179,
              43.07422891717438
            ],
            [
              -89.40038097990542,
              43.07432685273886
            ],
            [
              -89.40036498273084,
              43.07469178828409
            ],
            [
              -89.40036496893872,
              43.07469205699639
            ],
            [
              -89.400364,
              43.074708528954694
            ],
            [
              -89.400364,
              43.074727
            ],
            [
              -89.40036396013284,
              43.07472819734219
            ],
            [
              -89.40036296794437,
              43.07474308016919
            ],
            [
              -89.40035997422638,
              43.074798962904985
            ],
            [
              -89.40035980011874,
              43.07480067502766
            ],
            [
              -89.40035946330056,
              43.07480236269796
            ],
            [
              -89.4003589668507,
              43.074804010488926
            ],
            [
              -89.4003583153072,
              43.074805603338135
            ],
            [
              -89.40035751462581,
              43.07480712668538
            ],
            [
              -89.40035657212553,
              43.074808566605775
            ],
            [
              -89.40035549642174,
              43.07480990993704
            ],
            [
              -89.40035429734742,
              43.0748111443998
            ],
            [
              -89.40035298586331,
              43.074812258709876
            ],
            [
              -89.40035157395764,
              43.074813242681365
            ],
            [
              -89.4003500745366,
              43.07481408731981
            ],
            [
              -89.4003485013064,
              43.07481478490438
            ],
            [
              -89.40034686864787,
              43.07481532905848
            ],
            [
              -89.40034519148514,
              43.074815714808004
            ],
            [
              -89.40034348514911,
              43.07481593862682
            ],
            [
              -89.40034176523736,
              43.074815998469006
            ],
            [
              -89.39988176523737,
              43.07480999846901
            ],
            [
              -89.39988172730403,
              43.074809997934246
            ],
            [
              -89.39981572730403,
              43.07480899793424
            ],
            [
              -89.39981560009873,
              43.0748089955572
            ],
            [
              -89.39972560009873,
              43.0748069955572
            ],
            [
              -89.39972383178828,
              43.07480686893556
            ],
            [
              -89.39972208451051,
              43.0748065689767
            ],
            [
              -89.39972037521487,
              43.07480609859036
            ],
            [
              -89.39971872048233,
              43.074805462339526
            ],
            [
              -89.39971713636459,
              43.07480466639612
            ],
            [
              -89.39971563822836,
              43.074803718481185
            ],
            [
              -89.39971424060626,
              43.07480262778995
            ],
            [
              -89.3997129570559,
              43.07480140490263
            ],
            [
              -89.39971180002834,
              43.07480006168183
            ],
            [
              -89.3997107807473,
              43.074798611157426
            ],
            [
              -89.39970990910027,
              43.0747970674002
            ],
            [
              -89.39970919354268,
              43.074795445385334
            ],
            [
              -89.39970864101575,
              43.07479376084714
            ],
            [
              -89.39970825687926,
              43.07479203012647
            ],
            [
              -89.39970804485954,
              43.074790270012116
            ],
            [
              -89.39970800701325,
              43.074788497578034
            ],
            [
              -89.39972400701325,
              43.07421549757803
            ],
            [
              -89.39972401006604,
              43.0742153981063
            ],
            [
              -89.39974200752306,
              43.07367747411289
            ],
            [
              -89.39974500562236,
              43.073557550140556
            ],
            [
              -89.39974513576934,
              43.073555793359276
            ],
            [
              -89.39974543701699,
              43.07355405771284
            ],
            [
              -89.39974590647999,
              43.07355235982499
            ],
            [
              -89.39974653966193,
              43.07355071595779
            ],
            [
              -89.39974733049827,
              43.07354914185596
            ],
            [
              -89.39974827141452,
              43.07354765259598
            ],
            [
              -89.39974935339873,
              43.073546262441724
            ],
            [
              -89.39975056608786,
              43.07354498470787
            ],
            [
              -89.39975189786695,
              43.07354383163235
            ],
            [
              -89.39975333598044,
              43.07354281425912
            ],
            [
              -89.3997548666543,
              43.07354194233242
            ],
            [
              -89.39975647522803,
              43.07354122420342
            ],
            [
              -89.39975814629496,
              43.07354066675023
            ],
            [
              -89.39975986384985,
              43.07354027531206
            ],
            [
              -89.39976161144229,
              43.07354005363804
            ],
            [
              -89.3997633723341,
              43.07354000385132
            ],
            [
              -89.3999083390119,
              43.073543003161895
            ],
            [
              -89.40037930568839,
              43.07355100259589
            ],
            [
              -89.40038107281441,
              43.073551119747194
            ],
            [
              -89.4003828198747,
              43.073551409987
            ],
            [
              -89.40038452995695,
              43.07355187050567
            ],
            [
              -89.40038618650686,
              43.073552496845174
            ],
            [
              -89.4003877734883,
              43.07355328294229
            ],
            [
              -89.40038927553863,
              43.07355422118726
            ],
            [
              -89.40039067811733,
              43.07355530249747
            ],
            [
              -89.40039196764685,
              43.07355651640537
            ],
            [
              -89.40039313164401,
              43.073557851159805
            ],
            [
              -89.4003941588408,
              43.0735592938398
            ],
            [
              -89.4003950392935,
              43.07356083047958
            ],
            [
              -89.40039576447899,
              43.07356244620381
            ],
            [
              -89.40039632737712,
              43.073564125371604
            ],
            [
              -89.40039672253883,
              43.073565851727885
            ],
            [
              -89.40039694613877,
              43.073567608560786
            ],
            [
              -89.4003969960124,
              43.07356937886342
            ]
          ],
          [
            [
              -89.40017900000001,
              43.074353863128145
            ],
            [
              -89.40017900000001,
              43.07427880350851
            ],
            [
              -89.40017707369375,
              43.074277305270314
            ],
            [
              -89.40016984487566,
              43.07427188365674
            ],
            [
              -89.39992580944936,
              43.074267135885805
            ],
            [
              -89.39992010811028,
              43.074272318921324
            ],
            [
              -89.3999188,
              43.074273399999996
            ],
            [
              -89.39991752788838,
              43.074274354083705
            ],
            [
              -89.39991344633401,
              43.07435108730586
            ],
            [
              -89.40017900000001,
              43.074353863128145
            ]
          ]
        ]
      },
      "properties": {
        "building": "university",
        "name": "Mosse Humanities Building",
        "@id": "relation/2075103",
        "addr:street": "North Park Street",
        "addr:housenumber": "455",
        "person_counts": [
          82,
          82,
          82,
          82,
          82,
          82,
          82,
          82,
          82,
          82,
          82,
          82,
          82,
          82,
          82,
          82,
          0,
          0,
          0,
          0,
          0,
          0,
          0,
          0,
          0,
          0,
          0,
          0,
          0,
          0,
          0,
          0,
          0,
          0,
          0,
          0,
          0,
          0,
          0,
          0,
          0,
          0,
          0,
          0,
          0,
          0,
          0,
          0,
          0,
          0,
          0,
          0,
          0,
          0,
          0,
          0,
          0,
          0,
          0,
          0,
          0,
          0,
          0,
          0,
          0,
          0,
          0,
          0,
          0,
          0,
          0,
          0,
          0,
          0,
          0,
          0,
          0,
          0,
          0,
          0,
          0,
          0,
          0,
          0,
          0,
          0,
          0,
          0,
          0,
          0,
          0,
          0,
          0
        ],
        "instructor_counts": [
          3,
          3,
          3,
          3,
          3,
          3,
          3,
          3,
          3,
          3,
          3,
          3,
          3,
          3,
          3,
          3,
          0,
          0,
          0,
          0,
          0,
          0,
          0,
          0,
          0,
          0,
          0,
          0,
          0,
          0,
          0,
          0,
          0,
          0,
          0,
          0,
          0,
          0,
          0,
          0,
          0,
          0,
          0,
          0,
          0,
          0,
          0,
          0,
          0,
          0,
          0,
          0,
          0,
          0,
          0,
          0,
          0,
          0,
          0,
          0,
          0,
          0,
          0,
          0,
          0,
          0,
          0,
          0,
          0,
          0,
          0,
          0,
          0,
          0,
          0,
          0,
          0,
          0,
          0,
          0,
          0,
          0,
          0,
          0,
          0,
          0,
          0,
          0,
          0,
          0,
          0,
          0,
          0
        ]
      }
    },
    {
      "type": "Feature",
      "geometry": {
        "type": "Polygon",
        "coordinates": [
          [
            [
              -89.41233399963488,
              43.07449311464735
            ],
            [
              -89.41233299963488,
              43.074650114647355
            ],
            [
              -89.41233290247065,
              43.0746518712415
            ],
            [
              -89.41233263429008,
              43.0746536099603
            ],
            [
              -89.41233219765503,
              43.07465531419435
            ],
            [
              -89.41233159673652,
              43.07465696766368
            ],
            [
              -89.41233083727492,
              43.07465855457324
            ],
            [
              -89.41232992652512,
              43.07466005976382
            ],
            [
              -89.4123288731872,
              43.07466146885683
            ],
            [
              -89.41232768732336,
              43.07466276839168
            ],
            [
              -89.41232638026175,
              43.07466394595435
            ],
            [
              -89.41232496448829,
              43.074664990295965
            ],
            [
              -89.4123234535274,
              43.07466589144028
            ],
            [
              -89.4123218618128,
              43.07466664077898
            ],
            [
              -89.41232020454959,
              43.07466723115387
            ],
            [
              -89.41231849756905,
              43.07466765692529
            ],
            [
              -89.4123167571774,
              43.074667914026
            ],
            [
              -89.412315,
              43.074667999999996
            ],
            [
              -89.412139,
              43.074667999999996
            ],
            [
              -89.41213723569147,
              43.07466791332508
            ],
            [
              -89.4121354883742,
              43.07466765413505
            ],
            [
              -89.41213377487581,
              43.07466722492604
            ],
            [
              -89.41213211169821,
              43.07466662983158
            ],
            [
              -89.41213051485873,
              43.074665874582756
            ],
            [
              -89.4121289997358,
              43.07466496645302
            ],
            [
              -89.41212758092088,
              43.07466391418816
            ],
            [
              -89.41212627207794,
              43.07466272792206
            ],
            [
              -89.41212508581184,
              43.07466141907911
            ],
            [
              -89.41212403354697,
              43.074660000264196
            ],
            [
              -89.41212312541724,
              43.07465848514126
            ],
            [
              -89.4121223701684,
              43.07465688830178
            ],
            [
              -89.41212177507396,
              43.07465522512419
            ],
            [
              -89.41212134586495,
              43.0746535116258
            ],
            [
              -89.41212108667492,
              43.07465176430853
            ],
            [
              -89.412121,
              43.07465
            ],
            [
              -89.412121,
              43.07449
            ],
            [
              -89.41212108855376,
              43.0744882167183
            ],
            [
              -89.41212135334374,
              43.07448645098286
            ],
            [
              -89.41212179176456,
              43.07448472016729
            ],
            [
              -89.41212239950251,
              43.07448304130161
            ],
            [
              -89.41212317057784,
              43.074481430904704
            ],
            [
              -89.4121240974037,
              43.07447990482175
            ],
            [
              -89.41212517086079,
              43.07447847806835
            ],
            [
              -89.41212638038702,
              43.07447716468277
            ],
            [
              -89.41212771408149,
              43.07447597758781
            ],
            [
              -89.41212915882157,
              43.07447492846367
            ],
            [
              -89.41213070039203,
              43.074474027632995
            ],
            [
              -89.41213232362487,
              43.07447328395934
            ],
            [
              -89.41213401254862,
              43.074472704759934
            ],
            [
              -89.41213575054543,
              43.074472295733706
            ],
            [
              -89.41213752051462,
              43.07447206090517
            ],
            [
              -89.41213930504092,
              43.074472002584905
            ],
            [
              -89.41231630504093,
              43.074475002584904
            ],
            [
              -89.4123180558051,
              43.07447511778354
            ],
            [
              -89.41231978703628,
              43.07447540288784
            ],
            [
              -89.4123214822854,
              43.07447585518892
            ],
            [
              -89.41232312544528,
              43.07447647038931
            ],
            [
              -89.41232470090362,
              43.07447724264374
            ],
            [
              -89.4123261936914,
              43.074478164614746
            ],
            [
              -89.4123275896251,
              43.07447922754232
            ],
            [
              -89.41232887544139,
              43.0744804213272
            ],
            [
              -89.41233003892327,
              43.07448173462678
            ],
            [
              -89.41233106901606,
              43.07448315496291
            ],
            [
              -89.41233195593246,
              43.07448466884045
            ],
            [
              -89.41233269124554,
              43.07448626187546
            ],
            [
              -89.41233326796883,
              43.07448791893193
            ],
            [
              -89.41233368062264,
              43.07448962426553
            ],
            [
              -89.4123339252862,
              43.07449136167327
            ],
            [
              -89.41233399963488,
              43.07449311464735
            ]
          ]
        ]
      },
      "properties": {
        "building": "university",
        "name": "Plant Sciences",
        "@id": "way/173508078",
        "addr:street": "Linden Drive",
        "addr:housenumber": "1575",
        "person_counts": [
          0,
          0,
          0,
          0,
          0,
          0,
          0,
          0,
          0,
          0,
          0,
          0,
          0,
          0,
          0,
          0,
          0,
          0,
          0,
          0,
          0,
          0,
          0,
          0,
          0,
          0,
          0,
          0,
          0,
          0,
          0,
          0,
          0,
          0,
          0,
          0,
          0,
          0,
          0,
          0,
          0,
          0,
          0,
          0,
          0,
          0,
          0,
          0,
          0,
          0,
          0,
          0,
          0,
          0,
          0,
          0,
          0,
          0,
          0,
          0,
          4,
          4,
          7,
          7,
          7,
          7,
          7,
          7,
          7,
          7,
          7,
          7,
          7,
          7,
          7,
          7,
          3,
          3,
          1,
          1,
          1,
          1,
          1,
          1,
          1,
          1,
          1,
          1,
          1,
          1,
          1,
          1,
          1
        ],
        "instructor_counts": [
          0,
          0,
          0,
          0,
          0,
          0,
          0,
          0,
          0,
          0,
          0,
          0,
          0,
          0,
          0,
          0,
          0,
          0,
          0,
          0,
          0,
          0,
          0,
          0,
          0,
          0,
          0,
          0,
          0,
          0,
          0,
          0,
          0,
          0,
          0,
          0,
          0,
          0,
          0,
          0,
          0,
          0,
          0,
          0,
          0,
          0,
          0,
          0,
          0,
          0,
          0,
          0,
          0,
          0,
          0,
          0,
          0,
          0,
          0,
          0,
          3,
          3,
          5,
          5,
          5,
          5,
          5,
          5,
          5,
          5,
          5,
          5,
          5,
          5,
          5,
          5,
          2,
          2,
          3,
          3,
          3,
          3,
          3,
          3,
          3,
          3,
          3,
          3,
          3,
          3,
          3,
          3,
          3
        ]
      }
    },
    {
      "type": "Feature",
      "geometry": {
        "type": "Polygon",
        "coordinates": [
          [
            [
              -89.41123699793424,
              43.073648272695976
            ],
            [
              -89.41123523577068,
              43.07376457549018
            ],
            [
              -89.41123605216917,
              43.07376506835927
            ],
            [
              -89.41123747534901,
              43.07376613218239
            ],
            [
              -89.41123878670933,
              43.073767331138
            ],
            [
              -89.41123997347185,
              43.07376865354309
            ],
            [
              -89.41124102407235,
              43.07377008651171
            ],
            [
              -89.41124192827344,
              43.073771616080556
            ],
            [
              -89.4112426772643,
              43.073773227345015
            ],
            [
              -89.41124326374651,
              43.07377490460441
            ],
            [
              -89.41124368200522,
              43.07377663151498
            ],
            [
              -89.41124392796476,
              43.073778391249164
            ],
            [
              -89.41124399922845,
              43.073780166659525
            ],
            [
              -89.41124299922845,
              43.07388816665952
            ],
            [
              -89.41124289733567,
              43.073889919733276
            ],
            [
              -89.41124262510613,
              43.073891654536084
            ],
            [
              -89.41124218513075,
              43.07389335455708
            ],
            [
              -89.41124158159694,
              43.07389500361641
            ],
            [
              -89.41124082024884,
              43.07389658601926
            ],
            [
              -89.4112399083325,
              43.073898086705206
            ],
            [
              -89.41123885452704,
              43.07389949139157
            ],
            [
              -89.411237668862,
              43.07390078670934
            ],
            [
              -89.41123636262185,
              43.073901960330396
            ],
            [
              -89.4112357904558,
              43.07390238135093
            ],
            [
              -89.41123399805394,
              43.07402426467727
            ],
            [
              -89.41123388638425,
              43.07402601922217
            ],
            [
              -89.41123360408189,
              43.074027754504066
            ],
            [
              -89.41123315383996,
              43.07402945396872
            ],
            [
              -89.41123253995367,
              43.074031101403556
            ],
            [
              -89.41123176827941,
              43.07403268109236
            ],
            [
              -89.41123084617877,
              43.07403417796521
            ],
            [
              -89.41122978244843,
              43.07403557774222
            ],
            [
              -89.41122858723618,
              43.07403686706979
            ],
            [
              -89.41122727194411,
              43.07403803364799
            ],
            [
              -89.41122584911986,
              43.074039066347865
            ],
            [
              -89.41122433233689,
              43.07403995531767
            ],
            [
              -89.41122273606501,
              43.07404069207681
            ],
            [
              -89.41122107553238,
              43.07404126959673
            ],
            [
              -89.41121936658013,
              43.074041682368005
            ],
            [
              -89.41121762551136,
              43.07404192645288
            ],
            [
              -89.41121586893551,
              43.074041999522834
            ],
            [
              -89.41080386893552,
              43.074038999522834
            ],
            [
              -89.41080384874483,
              43.07403899936449
            ],
            [
              -89.41056584874484,
              43.07403699936449
            ],
            [
              -89.41056407705861,
              43.07403689699127
            ],
            [
              -89.41056232406379,
              43.07403662065529
            ],
            [
              -89.4105606067999,
              43.074036173042614
            ],
            [
              -89.41055894195912,
              43.07403555850413
            ],
            [
              -89.41055734572407,
              43.07403478301328
            ],
            [
              -89.41055583361053,
              43.074033854108016
            ],
            [
              -89.41055442031654,
              43.074032780817504
            ],
            [
              -89.41055311957969,
              43.074031573574366
            ],
            [
              -89.41055194404338,
              43.07403024411328
            ],
            [
              -89.41055090513412,
              43.0740288053569
            ],
            [
              -89.41055001295032,
              43.07402727129026
            ],
            [
              -89.41054927616422,
              43.07402565682483
            ],
            [
              -89.41054870193754,
              43.07402397765358
            ],
            [
              -89.4105482958519,
              43.07402225009842
            ],
            [
              -89.41054806185451,
              43.07402049095158
            ],
            [
              -89.41054800221993,
              43.074018717312356
            ],
            [
              -89.41055100236622,
              43.073827708146474
            ],
            [
              -89.41055400236623,
              43.07364270814647
            ],
            [
              -89.41055411654912,
              43.073640954960965
            ],
            [
              -89.41055440110485,
              43.073639221258226
            ],
            [
              -89.41055485332248,
              43.07363752355497
            ],
            [
              -89.41055546889383,
              43.073635878024945
            ],
            [
              -89.41055624195442,
              43.07363430034485
            ],
            [
              -89.41055716513945,
              43.07363280554501
            ],
            [
              -89.41055822965386,
              43.073631407866145
            ],
            [
              -89.4105594253562,
              43.07363012062372
            ],
            [
              -89.4105607408552,
              43.07362895608109
            ],
            [
              -89.4105621636183,
              43.07362792533267
            ],
            [
              -89.41056368009107,
              43.07362703819824
            ],
            [
              -89.4105652758263,
              43.07362630312939
            ],
            [
              -89.41056693562169,
              43.073625727129006
            ],
            [
              -89.4105686436646,
              43.07362531568455
            ],
            [
              -89.4105703836828,
              43.0736250727158
            ],
            [
              -89.4105721390994,
              43.07362500053747
            ],
            [
              -89.4112191390994,
              43.07363000053747
            ],
            [
              -89.4112209109888,
              43.073630101728526
            ],
            [
              -89.41122266430015,
              43.07363037692125
            ],
            [
              -89.41122438198826,
              43.07363082344032
            ],
            [
              -89.41122604735428,
              43.073631436944794
            ],
            [
              -89.411227644208,
              43.07363221147036
            ],
            [
              -89.41122915702532,
              43.07363313948733
            ],
            [
              -89.41123057109904,
              43.07363421197378
            ],
            [
              -89.41123187268198,
              43.07363541850332
            ],
            [
              -89.41123304912054,
              43.07363674734644
            ],
            [
              -89.41123408897772,
              43.07363818558451
            ],
            [
              -89.41123498214435,
              43.07363971923541
            ],
            [
              -89.41123571993731,
              43.07364133338944
            ],
            [
              -89.41123629518403,
              43.07364301235428
            ],
            [
              -89.41123670229209,
              43.07364473980753
            ],
            [
              -89.41123693730373,
              43.0736464989554
            ],
            [
              -89.41123699793424,
              43.073648272695976
            ]
          ]
        ]
      },
      "properties": {
        "building": "university",
        "name": "DeLuca Biochemistry Building",
        "@id": "way/412585896",
        "addr:street": "Henry Mall",
        "addr:housenumber": "420",
        "person_counts": [
          0,
          0,
          0,
          0,
          0,
          0,
          0,
          0,
          0,
          0,
          0,
          0,
          0,
          0,
          0,
          0,
          0,
          0,
          0,
          0,
          0,
          0,
          0,
          0,
          0,
          0,
          0,
          0,
          0,
          0,
          0,
          0,
          0,
          0,
          0,
          0,
          0,
          0,
          0,
          0,
          0,
          0,
          23,
          23,
          23,
          23,
          23,
          23,
          23,
          23,
          23,
          23,
          23,
          23,
          23,
          23,
          23,
          23,
          0,
          0,
          0,
          0,
          0,
          0,
          0,
          0,
          0,
          0,
          0,
          0,
          0,
          0,
          0,
          0,
          0,
          0,
          0,
          0,
          0,
          0,
          0,
          0,
          0,
          0,
          0,
          0,
          0,
          0,
          0,
          0,
          0,
          0,
          0
        ],
        "instructor_counts": [
          0,
          0,
          0,
          0,
          0,
          0,
          0,
          0,
          0,
          0,
          0,
          0,
          0,
          0,
          0,
          0,
          0,
          0,
          0,
          0,
          0,
          0,
          0,
          0,
          0,
          0,
          0,
          0,
          0,
          0,
          0,
          0,
          0,
          0,
          0,
          0,
          0,
          0,
          0,
          0,
          0,
          0,
          3,
          3,
          3,
          3,
          3,
          3,
          3,
          3,
          3,
          3,
          3,
          3,
          3,
          3,
          3,
          3,
          0,
          0,
          0,
          0,
          0,
          0,
          0,
          0,
          0,
          0,
          0,
          0,
          0,
          0,
          0,
          0,
          0,
          0,
          0,
          0,
          0,
          0,
          0,
          0,
          0,
          0,
          0,
          0,
          0,
          0,
          0,
          0,
          0,
          0,
          0
        ]
      }
    }
  ],
  "metadata": {
    "total_buildings": 4,
    "total_meetings": 8,
    "max_persons": 82,
    "total_chunks": 93,
    "chunk_duration_minutes": 5,
    "start_time": 1757606400000,
    "end_time": 1757634300000,
    "total_persons": [
      109,
      109,
      109,
      109,
      109,
      109,
      109,
      109,
      109,
      109,
      109,
      109,
      109,
      109,
      109,
      109,
      0,
      0,
      0,
      0,
      0,
      0,
      0,
      0,
      0,
      0,
      0,
      0,
      0,
      0,
      0,
      0,
      0,
      0,
      0,
      0,
      0,
      0,
      0,
      0,
      0,
      0,
      43,
      43,
      43,
      43,
      43,
      43,
      43,
      43,
      43,
      43,
      43,
      43,
      43,
      43,
      43,
      43,
      0,
      0,
      4,
      4,
      7,
      7,
      7,
      7,
      7,
      7,
      7,
      7,
      7,
      7,
      7,
      7,
      7,
      7,
      3,
      3,
      1,
      1,
      1,
      1,
      1,
      1,
      1,
      1,
      1,
      1,
      1,
      1,
      1,
      1,
      1
    ],
    "total_instructors": [
      4,
      4,
      4,
      4,
      4,
      4,
      4,
      4,
      4,
      4,
      4,
      4,
      4,
      4,
      4,
      4,
      0,
      0,
      0,
      0,
      0,
      0,
      0,
      0,
      0,
      0,
      0,
      0,
      0,
      0,
      0,
      0,
      0,
      0,
      0,
      0,
      0,
      0,
      0,
      0,
      0,
      0,
      4,
      4,
      4,
      4,
      4,
      4,
      4,
      4,
      4,
      4,
      4,
      4,
      4,
      4,
      4,
      4,
      0,
      0,
      3,
      3,
      5,
      5,
      5,
      5,
      5,
      5,
      5,
      5,
      5,
      5,
      5,
      5,
      5,
      5,
      2,
      2,
      3,
      3,
      3,
      3,
      3,
      3,
      3,
      3,
      3,
      3,
      3,
      3,
      3,
      3,
      3
    ]
  }
}